{
"type": "FeatureCollection",
"name": "Areas",
"crs": { "type": "name", "properties": { "name": "urn:ogc:def:crs:OGC:1.3:CRS84" } },
"features": [
{ "type": "Feature", "properties": { "fid": 1, "WARD": "SHIKSHAK NAGAR" }, "geometry": { "type": "MultiPolygon", "coordinates": [ [ [ [ 73.214766335811078, 18.534048280451032 ], [ 73.215567864686875, 18.534973770770055 ], [ 73.216520176222474, 18.535252169316301 ], [ 73.217131242791154, 18.5342965832237 ], [ 73.216932844554577, 18.533822550344642 ], [ 73.21711537093222, 18.532987346358656 ], [ 73.217139178720615, 18.532302626532729 ], [ 73.215750391064532, 18.531821063693471 ], [ 73.215321850873508, 18.53215966270643 ], [ 73.215274235296732, 18.532964773221305 ], [ 73.214766335811078, 18.534048280451032 ] ] ] ] } },
{ "type": "Feature", "properties": { "fid": 2, "WARD": "WAGHJAI NAGAR" }, "geometry": { "type": "MultiPolygon", "coordinates": [ [ [ [ 73.221253958147386, 18.545635358695925 ], [ 73.221559491431705, 18.54562407296314 ], [ 73.221995967552203, 18.545086118835336 ], [ 73.222980022805643, 18.545022166134025 ], [ 73.223031606347163, 18.544254731850444 ], [ 73.223095093782874, 18.543457198451058 ], [ 73.222789560498541, 18.54332552984301 ], [ 73.222626873944535, 18.543731821221215 ], [ 73.222238013400826, 18.543833393914763 ], [ 73.222230077471366, 18.544209588549908 ], [ 73.221611074973225, 18.544446590744617 ], [ 73.221309509653622, 18.544371351988271 ], [ 73.22107936769919, 18.544480448174156 ], [ 73.221305541688892, 18.54486040331205 ], [ 73.221186502746946, 18.5451199761381 ], [ 73.221253958147386, 18.545635358695925 ] ] ] ] } },
{ "type": "Feature", "properties": { "fid": 3, "WARD": "GURAV ALI" }, "geometry": { "type": "MultiPolygon", "coordinates": [ [ [ [ 73.221666626479418, 18.53817156459305 ], [ 73.221674562408893, 18.537802880827936 ], [ 73.222174525965073, 18.537366478608451 ], [ 73.222809400322149, 18.537494389719289 ], [ 73.222793528463228, 18.537742687484617 ], [ 73.223356979455119, 18.53787059831382 ], [ 73.223158581218541, 18.538660633666098 ], [ 73.222634809873966, 18.538540247562619 ], [ 73.222587194297176, 18.538419861374315 ], [ 73.222769720674833, 18.538254330226899 ], [ 73.222761784745373, 18.538088798919112 ], [ 73.221666626479418, 18.53817156459305 ] ] ] ] } },
{ "type": "Feature", "properties": { "fid": 4, "WARD": "RAM ALI" }, "geometry": { "type": "MultiPolygon", "coordinates": [ [ [ [ 73.220944456898238, 18.54172668864647 ], [ 73.221476164172287, 18.542200699597167 ], [ 73.22230150083648, 18.542163079728493 ], [ 73.222460219425756, 18.541388108590688 ], [ 73.222380860131096, 18.54029712384613 ], [ 73.221468228242813, 18.540199311080432 ], [ 73.22110714345223, 18.540436318839227 ], [ 73.220944456898238, 18.54172668864647 ] ] ] ] } },
{ "type": "Feature", "properties": { "fid": 5, "WARD": "SAWANT ALI" }, "geometry": { "type": "MultiPolygon", "coordinates": [ [ [ [ 73.220944456898238, 18.54172668864647 ], [ 73.220896841321434, 18.542764996632982 ], [ 73.220928585039289, 18.543479770202214 ], [ 73.220793674238408, 18.544187016895137 ], [ 73.221492036031194, 18.544141873576699 ], [ 73.22215865410611, 18.543239004702439 ], [ 73.22230150083648, 18.542163079728493 ], [ 73.221476164172287, 18.542200699597167 ], [ 73.220944456898238, 18.54172668864647 ] ] ] ] } },
{ "type": "Feature", "properties": { "fid": 6, "WARD": "UMABAR WADI" }, "geometry": { "type": "MultiPolygon", "coordinates": [ [ [ [ 73.220698443084828, 18.545247881443505 ], [ 73.220198479528634, 18.54530054830613 ], [ 73.220412749624145, 18.548144534769207 ], [ 73.220936520968735, 18.548106916209754 ], [ 73.221015880263366, 18.548648622666366 ], [ 73.221785665421322, 18.548626051598319 ], [ 73.221619010902586, 18.547121306999102 ], [ 73.221603139043651, 18.546399024881811 ], [ 73.221559491431705, 18.54562407296314 ], [ 73.221253958147386, 18.545635358695925 ], [ 73.221174598852642, 18.545262929120199 ], [ 73.220698443084828, 18.545247881443505 ] ] ] ] } },
{ "type": "Feature", "properties": { "fid": 7, "WARD": "BEGHAR ALI" }, "geometry": { "type": "MultiPolygon", "coordinates": [ [ [ [ 73.221785665421322, 18.548626051598319 ], [ 73.222523706861409, 18.548543290989947 ], [ 73.222420539778383, 18.547602826713483 ], [ 73.222722105098001, 18.54696330804698 ], [ 73.222404667919463, 18.5467676900942 ], [ 73.222269757118582, 18.545992739848394 ], [ 73.221559491431705, 18.54562407296314 ], [ 73.221785665421322, 18.548626051598319 ] ] ] ] } },
{ "type": "Feature", "properties": { "fid": 8, "WARD": "AAGAR ALI" }, "geometry": { "type": "MultiPolygon", "coordinates": [ [ [ [ 73.221081351681434, 18.545225309925993 ], [ 73.221305541688892, 18.54486040331205 ], [ 73.220793674238408, 18.544187016895137 ], [ 73.220847241762272, 18.543871013415547 ], [ 73.220569484231049, 18.543863489516049 ], [ 73.220392909800495, 18.543728059268428 ], [ 73.220271886876191, 18.543381959258873 ], [ 73.220129040145835, 18.543160003448882 ], [ 73.22016475182842, 18.542708567013296 ], [ 73.22019649554629, 18.542298511216934 ], [ 73.219700499954826, 18.542125459851544 ], [ 73.219720339778476, 18.542569373871682 ], [ 73.219760019425806, 18.542866569901463 ], [ 73.219740179602141, 18.543325529842999 ], [ 73.219597332871786, 18.543728059268428 ], [ 73.22015284793423, 18.544533115273417 ], [ 73.220198479528634, 18.54530054830613 ], [ 73.221081351681434, 18.545225309925993 ] ] ] ] } },
{ "type": "Feature", "properties": { "fid": 10, "WARD": "BURUD AALI" }, "geometry": { "type": "MultiPolygon", "coordinates": [ [ [ [ 73.22019649554629, 18.542298511216934 ], [ 73.220240143158335, 18.542035172113053 ], [ 73.219795731108391, 18.541839548515942 ], [ 73.219660820307524, 18.541745498629897 ], [ 73.219311639411131, 18.541651448692072 ], [ 73.219041817809369, 18.541482158673499 ], [ 73.218581533900505, 18.541312868487164 ], [ 73.21857359797103, 18.541628876699292 ], [ 73.218656925230377, 18.541737974636774 ], [ 73.22019649554629, 18.542298511216934 ] ] ] ] } },
{ "type": "Feature", "properties": { "fid": 11, "WARD": "VARACHA MOHOLLA" }, "geometry": { "type": "MultiPolygon", "coordinates": [ [ [ [ 73.220240143158335, 18.542035172113053 ], [ 73.22058535608997, 18.542099125932751 ], [ 73.220486156971702, 18.542749948736233 ], [ 73.220513932724813, 18.542945571290748 ], [ 73.220629003702015, 18.543088526092752 ], [ 73.220668683349331, 18.543280386296882 ], [ 73.220724234855595, 18.543590747935522 ], [ 73.220888905391959, 18.543681034851787 ], [ 73.220847241762272, 18.543871013415547 ], [ 73.220569484231049, 18.543863489516049 ], [ 73.220392909800495, 18.543728059268428 ], [ 73.220271886876191, 18.543381959258873 ], [ 73.220129040145835, 18.543160003448882 ], [ 73.22019649554629, 18.542298511216934 ], [ 73.220240143158335, 18.542035172113053 ] ] ] ] } },
{ "type": "Feature", "properties": { "fid": 12, "WARD": "KASAR AALI" }, "geometry": { "type": "MultiPolygon", "coordinates": [ [ [ [ 73.221557507449205, 18.538109490341331 ], [ 73.221501955942955, 18.538056821261602 ], [ 73.221259910094332, 18.538071869571752 ], [ 73.221144839117116, 18.537872479354689 ], [ 73.220728202820283, 18.53800791424446 ], [ 73.220466317147995, 18.538308880281807 ], [ 73.220478221042185, 18.538564700996726 ], [ 73.220478221042185, 18.538812997206676 ], [ 73.220502028830566, 18.539046244832772 ], [ 73.220450445289046, 18.539234347525099 ], [ 73.220339342276574, 18.539381067481351 ], [ 73.220339342276574, 18.539508977083994 ], [ 73.221128967258181, 18.539633124547915 ], [ 73.221184518764417, 18.539268205987725 ], [ 73.221216262482287, 18.539012386326164 ], [ 73.221557507449205, 18.538109490341331 ] ] ] ] } },
{ "type": "Feature", "properties": { "fid": 13, "WARD": "KHADAK AALI" }, "geometry": { "type": "MultiPolygon", "coordinates": [ [ [ [ 73.220656779455112, 18.538083155803498 ], [ 73.22050202883058, 18.537940196813 ], [ 73.220363150064969, 18.537872479354693 ], [ 73.220263950946688, 18.537691899334675 ], [ 73.220232207228833, 18.537575274636993 ], [ 73.219970321556531, 18.537582798813435 ], [ 73.219914770050295, 18.537974055532082 ], [ 73.219593364907013, 18.538147111102631 ], [ 73.219553685259712, 18.538478173444847 ], [ 73.219426710388291, 18.538628656115616 ], [ 73.219446550211956, 18.539196727003208 ], [ 73.220077456604287, 18.53931711264412 ], [ 73.220085392533761, 18.539467594575974 ], [ 73.220339342276574, 18.539508977083994 ], [ 73.220339342276574, 18.539381067481351 ], [ 73.220450445289046, 18.539234347525099 ], [ 73.220502028830566, 18.539046244832772 ], [ 73.220478221042185, 18.538812997206676 ], [ 73.220466317147995, 18.538308880281807 ], [ 73.220656779455112, 18.538083155803498 ] ] ] ] } },
{ "type": "Feature", "properties": { "fid": 14, "WARD": "KUMBHAR AALI" }, "geometry": { "type": "MultiPolygon", "coordinates": [ [ [ [ 73.218891035149511, 18.540411865672958 ], [ 73.218779932137025, 18.540163571786675 ], [ 73.218637085406669, 18.53996794604635 ], [ 73.219216408257509, 18.53959550411383 ], [ 73.21936322295258, 18.539621838418562 ], [ 73.219617172695408, 18.539381067481351 ], [ 73.219640980483788, 18.539271968038715 ], [ 73.220033808992227, 18.539366019286504 ], [ 73.220085392533761, 18.539467594575974 ], [ 73.220339342276574, 18.539508977083994 ], [ 73.220406797677015, 18.539885181242617 ], [ 73.220204431475693, 18.540223764277091 ], [ 73.21995444969761, 18.540517202364182 ], [ 73.219946513768136, 18.540863308178039 ], [ 73.219283863657949, 18.540641349095452 ], [ 73.218891035149511, 18.540411865672958 ] ] ] ] } },
{ "type": "Feature", "properties": { "fid": 15, "WARD": "KHALCHA MOHOLLA" }, "geometry": { "type": "MultiPolygon", "coordinates": [ [ [ [ 73.218581533900505, 18.541312868487164 ], [ 73.219018010020918, 18.540885880271979 ], [ 73.219339415164185, 18.540648873136874 ], [ 73.219946513768136, 18.540863308178039 ], [ 73.220470285112725, 18.540931024450909 ], [ 73.220462349183265, 18.541540469698827 ], [ 73.220240143158335, 18.542035172113053 ], [ 73.219871122438235, 18.541886573439541 ], [ 73.219795731108391, 18.541839548515942 ], [ 73.219660820307524, 18.541745498629897 ], [ 73.219311639411131, 18.541651448692072 ], [ 73.219041817809369, 18.541482158673499 ], [ 73.218581533900505, 18.541312868487164 ] ] ] ] } },
{ "type": "Feature", "properties": { "fid": 16, "WARD": "SONAR AALI" }, "geometry": { "type": "MultiPolygon", "coordinates": [ [ [ [ 73.221128967258181, 18.539633124547915 ], [ 73.220339342276574, 18.539508977083994 ], [ 73.220406797677015, 18.539885181242617 ], [ 73.220204431475693, 18.540223764277091 ], [ 73.21995444969761, 18.540517202364182 ], [ 73.219946513768136, 18.540863308178039 ], [ 73.220470285112725, 18.540931024450909 ], [ 73.220811530079658, 18.540859546162089 ], [ 73.220795658220723, 18.540359197302994 ], [ 73.220946440880539, 18.540050710809979 ], [ 73.221128967258181, 18.539633124547915 ] ] ] ] } },
{ "type": "Feature", "properties": { "fid": 17, "WARD": "MADHALI AALI" }, "geometry": { "type": "MultiPolygon", "coordinates": [ [ [ [ 73.220888905391959, 18.543681034851787 ], [ 73.220724234855595, 18.543590747935522 ], [ 73.220629003702015, 18.543088526092752 ], [ 73.220513932724813, 18.542945571290748 ], [ 73.220486156971702, 18.542749948736233 ], [ 73.22058535608997, 18.542099125932751 ], [ 73.220240143158335, 18.542035172113053 ], [ 73.220462349183265, 18.541540469698827 ], [ 73.220470285112725, 18.540931024450909 ], [ 73.220811530079658, 18.540859546162089 ], [ 73.220795658220723, 18.540359197302994 ], [ 73.221128967258181, 18.539633124547915 ], [ 73.221216262482287, 18.539012386326164 ], [ 73.221557507449205, 18.538109490341331 ], [ 73.221666626479418, 18.53817156459305 ], [ 73.222761784745373, 18.538088798919112 ], [ 73.222769720674833, 18.538254330226899 ], [ 73.222587194297176, 18.538419861374315 ], [ 73.222634809873966, 18.538540247562619 ], [ 73.22291455138749, 18.53862301301784 ], [ 73.222866935810714, 18.539119604907405 ], [ 73.222720121115643, 18.539623719440169 ], [ 73.222380860131096, 18.54029712384613 ], [ 73.221468228242813, 18.540199311080432 ], [ 73.22110714345223, 18.540436318839227 ], [ 73.220944456898238, 18.54172668864647 ], [ 73.220888905391959, 18.543681034851787 ] ] ] ] } },
{ "type": "Feature", "properties": { "fid": 18, "WARD": "MARATHA AALI" }, "geometry": { "type": "MultiPolygon", "coordinates": [ [ [ [ 73.225065188272083, 18.53448092898817 ], [ 73.224612840292664, 18.534827047029324 ], [ 73.224549352856968, 18.535331174226474 ], [ 73.224097004877549, 18.535714911842359 ], [ 73.224271595325746, 18.536399617996832 ], [ 73.224787430740861, 18.536828498476336 ], [ 73.225723870417553, 18.537069273010577 ], [ 73.225890524936275, 18.536489908713548 ], [ 73.22583497343004, 18.535925590951329 ], [ 73.225977820160367, 18.535428989779021 ], [ 73.226088923172867, 18.535376319873063 ], [ 73.226430168139785, 18.535383844146338 ], [ 73.226414296280865, 18.534804474134962 ], [ 73.226279385479984, 18.534413210158995 ], [ 73.226057179455012, 18.534127285917759 ], [ 73.225065188272083, 18.53448092898817 ] ] ] ] } },
{ "type": "Feature", "properties": { "fid": 19, "WARD": "BRAHMIN AALI" }, "geometry": { "type": "MultiPolygon", "coordinates": [ [ [ [ 73.223827183275773, 18.537253615784032 ], [ 73.224013677618174, 18.536726921617937 ], [ 73.224271595325746, 18.536399617996832 ], [ 73.224097004877549, 18.535714911842359 ], [ 73.224549352856968, 18.535331174226474 ], [ 73.224612840292664, 18.534827047029324 ], [ 73.225065188272083, 18.53448092898817 ], [ 73.224823142423432, 18.534052042616867 ], [ 73.224466025597579, 18.533931653266546 ], [ 73.223862894958359, 18.534277772420133 ], [ 73.223370867331624, 18.53485714421716 ], [ 73.222966134928996, 18.535459086860843 ], [ 73.222307452783539, 18.535617096453468 ], [ 73.222045567111252, 18.535797678666146 ], [ 73.222029695252331, 18.536572675161956 ], [ 73.222116990476408, 18.536994031005062 ], [ 73.222497915090656, 18.536745732151825 ], [ 73.222704249256722, 18.53656515094103 ], [ 73.223180405024507, 18.536783353213387 ], [ 73.223212148742377, 18.53702412781124 ], [ 73.223827183275773, 18.537253615784032 ] ] ] ] } },
{ "type": "Feature", "properties": { "fid": 20, "WARD": "DHUNDIVINAYAK NAGAR" }, "geometry": { "type": "MultiPolygon", "coordinates": [ [ [ [ 73.221674562408893, 18.537802880827936 ], [ 73.221144839117116, 18.537872479354689 ], [ 73.220728202820283, 18.53800791424446 ], [ 73.220176655722611, 18.537464292995892 ], [ 73.22013697607531, 18.537080559308539 ], [ 73.219502101718234, 18.53696769629531 ], [ 73.218827547713843, 18.536606534152025 ], [ 73.219192600469171, 18.533130309492542 ], [ 73.220390925818137, 18.533265748140739 ], [ 73.220454413253833, 18.53403323178647 ], [ 73.220621067772584, 18.535545615941572 ], [ 73.220565516266333, 18.536252895480402 ], [ 73.222033663217061, 18.536102410717305 ], [ 73.222116990476408, 18.536994031005062 ], [ 73.221674562408893, 18.537802880827936 ] ] ] ] } },
{ "type": "Feature", "properties": { "fid": 21, "WARD": "BALLALESHWAR NAGAR" }, "geometry": { "type": "MultiPolygon", "coordinates": [ [ [ [ 73.219867154473562, 18.533213077568082 ], [ 73.220168719793165, 18.530489234401259 ], [ 73.222930423246424, 18.530579528240505 ], [ 73.223660528757051, 18.530910605243012 ], [ 73.223184372989252, 18.532415492626832 ], [ 73.222454267478611, 18.534672798858441 ], [ 73.222045567111252, 18.535797678666146 ], [ 73.222033663217061, 18.536102410717305 ], [ 73.220565516266333, 18.536252895480402 ], [ 73.220621067772584, 18.535545615941572 ], [ 73.220390925818137, 18.533265748140739 ], [ 73.219867154473562, 18.533213077568082 ] ] ] ] } },
{ "type": "Feature", "properties": { "fid": 22, "WARD": " BHOI AALI" }, "geometry": { "type": "MultiPolygon", "coordinates": [ [ [ [ 73.219597332871786, 18.543728059268428 ], [ 73.218930714796869, 18.543400769059989 ], [ 73.218748188419212, 18.543069716257179 ], [ 73.218668829124582, 18.542640851445022 ], [ 73.21852598239424, 18.54208407797729 ], [ 73.218399007522834, 18.541737974636742 ], [ 73.218656925230377, 18.541737974636774 ], [ 73.219700499954826, 18.542125459851544 ], [ 73.219787795178917, 18.54316000344885 ], [ 73.219740179602141, 18.543325529842999 ], [ 73.219597332871786, 18.543728059268428 ] ] ] ] } },
{ "type": "Feature", "properties": { "fid": 23, "WARD": "CHARMARKAR AALI" }, "geometry": { "type": "MultiPolygon", "coordinates": [ [ [ [ 73.218656925230377, 18.541737974636774 ], [ 73.218164897603657, 18.541557398702434 ], [ 73.217593510682292, 18.541083385966697 ], [ 73.217478439705076, 18.540082688094255 ], [ 73.217653030153272, 18.53945066536523 ], [ 73.217176874385459, 18.538803592053764 ], [ 73.217192746244393, 18.537569631504418 ], [ 73.217827620601469, 18.536741970045217 ], [ 73.218827547713843, 18.536606534152025 ], [ 73.219502101718234, 18.53696769629531 ], [ 73.22013697607531, 18.537080559308539 ], [ 73.219970321556531, 18.537582798813435 ], [ 73.219914770050295, 18.537974055532082 ], [ 73.219593364907013, 18.538147111102631 ], [ 73.219553685259712, 18.538478173444847 ], [ 73.219426710388291, 18.538628656115616 ], [ 73.219446550211956, 18.539196727003208 ], [ 73.219617172695408, 18.539381067481351 ], [ 73.21936322295258, 18.539621838418562 ], [ 73.219216408257509, 18.53959550411383 ], [ 73.218637085406669, 18.53996794604635 ], [ 73.218891035149511, 18.540411865672958 ], [ 73.219283863657949, 18.540641349095452 ], [ 73.218581533900505, 18.541312868487164 ], [ 73.218656925230377, 18.541737974636774 ] ] ] ] } }
]
}
