{
"type": "FeatureCollection",
"name": "BAPUJI BUA OF KASBE PALI — BAPUJIBUA OF KASBE PALI",
"crs": { "type": "name", "properties": { "name": "urn:ogc:def:crs:OGC:1.3:CRS84" } },
"features": [
{ "type": "Feature", "properties": { "fid": 1, "NAME OF BAPUJI": "AGAR AALI BAPUJI-1", "SPATIAL CONTEXT OF BAPUJI": "TEMPLE", "IMAGE": null }, "geometry": { "type": "MultiPolygon", "coordinates": [ [ [ [ 73.220673709864911, 18.543196709362391 ], [ 73.220756285632746, 18.543184070981489 ], [ 73.220745158824698, 18.543127344233586 ], [ 73.220661069529285, 18.543142541994406 ], [ 73.220673709864911, 18.543196709362391 ] ] ] ] } },
{ "type": "Feature", "properties": { "fid": 2, "NAME OF BAPUJI": "AAGAR AALI BAPUJI-2", "SPATIAL CONTEXT OF BAPUJI": "RESOURCE", "IMAGE": "AAGAR AALI 1ST BAPUJI.jpg" }, "geometry": { "type": "MultiPolygon", "coordinates": [ [ [ [ 73.220414976681866, 18.543585158015418 ], [ 73.220481998905228, 18.543574211825575 ], [ 73.220491185764345, 18.543630493313074 ], [ 73.220425646583877, 18.543641171095324 ], [ 73.220414976681866, 18.543585158015418 ] ] ] ] } },
{ "type": "Feature", "properties": { "fid": 3, "NAME OF BAPUJI": "GANDHI CHK. BAPUJI -1", "SPATIAL CONTEXT OF BAPUJI": "UNENCLOSED", "IMAGE": null }, "geometry": { "type": "MultiPolygon", "coordinates": [ [ [ [ 73.220236528130044, 18.542220643763756 ], [ 73.220245846351688, 18.542221366958227 ], [ 73.220244890266642, 18.542227923432634 ], [ 73.220235574238487, 18.542226988468911 ], [ 73.220236528130044, 18.542220643763756 ] ] ] ] } },
{ "type": "Feature", "properties": { "fid": 4, "NAME OF BAPUJI": "GANDHI CHK BAPUJI-2", "SPATIAL CONTEXT OF BAPUJI": "TEMPLE ", "IMAGE": null }, "geometry": { "type": "MultiPolygon", "coordinates": [ [ [ [ 73.22028813207028, 18.542136890711379 ], [ 73.220332938232332, 18.542141337002015 ], [ 73.220334228211101, 18.542123982390418 ], [ 73.220289806199204, 18.542119963300678 ], [ 73.22028813207028, 18.542136890711379 ] ] ] ] } },
{ "type": "Feature", "properties": { "fid": 5, "NAME OF BAPUJI": "BURUD AALI BAPUJI-3", "SPATIAL CONTEXT OF BAPUJI": "UNENCLOSED", "IMAGE": "BURUD AALI BAPJIBUA.jpeg" }, "geometry": { "type": "MultiPolygon", "coordinates": [ [ [ [ 73.219129087095624, 18.542355755286327 ], [ 73.219134417750709, 18.542355593770036 ], [ 73.219133371316005, 18.542349441998319 ], [ 73.219128486894633, 18.542349395933289 ], [ 73.219129087095624, 18.542355755286327 ] ] ] ] } },
{ "type": "Feature", "properties": { "fid": 6, "NAME OF BAPUJI": "BURUD AALI BAPUJI-1", "SPATIAL CONTEXT OF BAPUJI": "TEMPLE & RESOURCE", "IMAGE": null }, "geometry": { "type": "MultiPolygon", "coordinates": [ [ [ [ 73.219271579864781, 18.54223742653453 ], [ 73.219418365256246, 18.542217584790816 ], [ 73.219435029585796, 18.542325064102776 ], [ 73.219290959202411, 18.542345757002451 ], [ 73.219271579864781, 18.54223742653453 ] ] ] ] } },
{ "type": "Feature", "properties": { "fid": 7, "NAME OF BAPUJI": "KUMBHAR AALI BAPUJI", "SPATIAL CONTEXT OF BAPUJI": "TEMPLE ", "IMAGE": null }, "geometry": { "type": "MultiPolygon", "coordinates": [ [ [ [ 73.219211310492966, 18.540105977744506 ], [ 73.219312225641417, 18.540117863183216 ], [ 73.219320374069554, 18.540037636455832 ], [ 73.219220536601341, 18.540027809502078 ], [ 73.219211310492966, 18.540105977744506 ] ] ] ] } },
{ "type": "Feature", "properties": { "fid": 8, "NAME OF BAPUJI": "SONAR AALI BAPUJI", "SPATIAL CONTEXT OF BAPUJI": "SHRINE & SOURCE", "IMAGE": null }, "geometry": { "type": "MultiPolygon", "coordinates": [ [ [ [ 73.220659335219253, 18.540165188903348 ], [ 73.220663123495456, 18.540153152569893 ], [ 73.22067174595395, 18.540156728343938 ], [ 73.220667886757909, 18.540167572690997 ], [ 73.220659335219253, 18.540165188903348 ] ] ] ] } },
{ "type": "Feature", "properties": { "fid": 9, "NAME OF BAPUJI": "MUNJOBA ATHARVA HOTEL", "SPATIAL CONTEXT OF BAPUJI": "SHRINE ", "IMAGE": null }, "geometry": { "type": "MultiPolygon", "coordinates": [ [ [ [ 73.222792399936139, 18.536486147402861 ], [ 73.222836200644139, 18.536501808416627 ], [ 73.222856021554435, 18.536453071367987 ], [ 73.222808191791913, 18.536440549303535 ], [ 73.222792399936139, 18.536486147402861 ] ] ] ] } },
{ "type": "Feature", "properties": { "fid": 10, "NAME OF BAPUJI": "MADHLI AALI BAPUJI", "SPATIAL CONTEXT OF BAPUJI": "SHRINE & SOURCE", "IMAGE": null }, "geometry": { "type": "MultiPolygon", "coordinates": [ [ [ [ 73.221378885156426, 18.539290391181751 ], [ 73.221381354418099, 18.53927707166536 ], [ 73.221389497045877, 18.539278736775579 ], [ 73.221386368314469, 18.539291414711347 ], [ 73.221378885156426, 18.539290391181751 ] ] ] ] } }
]
}
