{
"type": "FeatureCollection",
"name": "BUILT DAPODE, TAALI",
"crs": { "type": "name", "properties": { "name": "urn:ogc:def:crs:OGC:1.3:CRS84" } },
"features": [
{ "type": "Feature", "properties": { "id": null, "NAME": "DPD", "NUMBER OF": null, "TYPOLOGY": null }, "geometry": { "type": "MultiPolygon", "coordinates": [ [ [ [ 73.222587508840888, 18.552635155333462 ], [ 73.22264495315855, 18.552589501044324 ], [ 73.222566526185929, 18.552499170736255 ], [ 73.222512865625731, 18.552542216231984 ], [ 73.222587508840888, 18.552635155333462 ] ] ] ] } },
{ "type": "Feature", "properties": { "id": null, "NAME": "DPD", "NUMBER OF": null, "TYPOLOGY": null }, "geometry": { "type": "MultiPolygon", "coordinates": [ [ [ [ 73.222135521814579, 18.552515149747293 ], [ 73.22219743784558, 18.552500149043091 ], [ 73.222182990771671, 18.552456777434401 ], [ 73.222120730762725, 18.552476343575023 ], [ 73.222135521814579, 18.552515149747293 ] ] ] ] } },
{ "type": "Feature", "properties": { "id": null, "NAME": "DPD", "NUMBER OF": null, "TYPOLOGY": null }, "geometry": { "type": "MultiPolygon", "coordinates": [ [ [ [ 73.22231267045882, 18.552489387667524 ], [ 73.222348444165618, 18.552484822235261 ], [ 73.222342252562512, 18.552445689953714 ], [ 73.222303039076209, 18.552449603182275 ], [ 73.22231267045882, 18.552489387667524 ] ] ] ] } },
{ "type": "Feature", "properties": { "id": null, "NAME": "DPD", "NUMBER OF": null, "TYPOLOGY": null }, "geometry": { "type": "MultiPolygon", "coordinates": [ [ [ [ 73.222115227115523, 18.552531780961282 ], [ 73.22214016551689, 18.552599202581771 ], [ 73.222194514032992, 18.552586158497665 ], [ 73.222172327455226, 18.552515475849543 ], [ 73.222115227115523, 18.552531780961282 ] ] ] ] } },
{ "type": "Feature", "properties": { "id": null, "NAME": "DPD", "NUMBER OF": null, "TYPOLOGY": null }, "geometry": { "type": "MultiPolygon", "coordinates": [ [ [ [ 73.222146357119982, 18.552647465684323 ], [ 73.222203457459699, 18.552636378216029 ], [ 73.222194514032992, 18.552586158497665 ], [ 73.22214016551689, 18.552599202581771 ], [ 73.222146357119982, 18.552647465684323 ] ] ] ] } },
{ "type": "Feature", "properties": { "id": null, "NAME": "DPD", "NUMBER OF": null, "TYPOLOGY": null }, "geometry": { "type": "MultiPolygon", "coordinates": [ [ [ [ 73.222049699316031, 18.55278768948595 ], [ 73.222156676458482, 18.552775949823253 ], [ 73.222146013142037, 18.552708120645207 ], [ 73.222030436550838, 18.552725404044093 ], [ 73.222049699316031, 18.55278768948595 ] ] ] ] } },
{ "type": "Feature", "properties": { "id": null, "NAME": "DPD", "NUMBER OF": null, "TYPOLOGY": null }, "geometry": { "type": "MultiPolygon", "coordinates": [ [ [ [ 73.22220724121712, 18.552694098263686 ], [ 73.222256774041924, 18.552678771473268 ], [ 73.222244734813685, 18.552649748398288 ], [ 73.222192450165281, 18.552667684007009 ], [ 73.22220724121712, 18.552694098263686 ] ] ] ] } },
{ "type": "Feature", "properties": { "id": null, "NAME": "DPD", "NUMBER OF": null, "TYPOLOGY": null }, "geometry": { "type": "MultiPolygon", "coordinates": [ [ [ [ 73.222200705636084, 18.55277138439865 ], [ 73.222291859792819, 18.552740078626677 ], [ 73.222274316917378, 18.552673879944127 ], [ 73.222177315135468, 18.552709098950846 ], [ 73.222200705636084, 18.55277138439865 ] ] ] ] } },
{ "type": "Feature", "properties": { "id": null, "NAME": "DPD", "NUMBER OF": null, "TYPOLOGY": null }, "geometry": { "type": "MultiPolygon", "coordinates": [ [ [ [ 73.222241295034181, 18.552833017620443 ], [ 73.22233588897042, 18.552782797959921 ], [ 73.222309058690328, 18.552734534895627 ], [ 73.222213776798171, 18.55278475457035 ], [ 73.222241295034181, 18.552833017620443 ] ] ] ] } },
{ "type": "Feature", "properties": { "id": null, "NAME": "DPD", "NUMBER OF": null, "TYPOLOGY": null }, "geometry": { "type": "MultiPolygon", "coordinates": [ [ [ [ 73.222093384515659, 18.552872149813208 ], [ 73.222174907289812, 18.552846387787319 ], [ 73.222157364414358, 18.552781167451215 ], [ 73.222065522301705, 18.552804320673385 ], [ 73.222093384515659, 18.552872149813208 ] ] ] ] } },
{ "type": "Feature", "properties": { "id": null, "NAME": "DPD", "NUMBER OF": null, "TYPOLOGY": null }, "geometry": { "type": "MultiPolygon", "coordinates": [ [ [ [ 73.221998790579434, 18.552887476586271 ], [ 73.222077561529971, 18.552873454219483 ], [ 73.222065522301705, 18.552804320673385 ], [ 73.221988815218879, 18.552825191180819 ], [ 73.221998790579434, 18.552887476586271 ] ] ] ] } },
{ "type": "Feature", "properties": { "id": null, "NAME": "DPD", "NUMBER OF": null, "TYPOLOGY": null }, "geometry": { "type": "MultiPolygon", "coordinates": [ [ [ [ 73.222542619718411, 18.552652357214217 ], [ 73.222573577733911, 18.552632791093767 ], [ 73.222552767067938, 18.552605887674485 ], [ 73.222522668997314, 18.552623171083724 ], [ 73.222542619718411, 18.552652357214217 ] ] ] ] } },
{ "type": "Feature", "properties": { "id": null, "NAME": "DPD", "NUMBER OF": null, "TYPOLOGY": null }, "geometry": { "type": "MultiPolygon", "coordinates": [ [ [ [ 73.222418271689449, 18.5527443179503 ], [ 73.222449229704949, 18.552806929486948 ], [ 73.222498074573863, 18.552791276604939 ], [ 73.222466428602459, 18.552727360655169 ], [ 73.222418271689449, 18.5527443179503 ] ] ] ] } },
{ "type": "Feature", "properties": { "id": null, "NAME": "DPD", "NUMBER OF": null, "TYPOLOGY": null }, "geometry": { "type": "MultiPolygon", "coordinates": [ [ [ [ 73.222426527160266, 18.552812799317334 ], [ 73.222449229704949, 18.552806929486948 ], [ 73.222429622961826, 18.552768775584536 ], [ 73.222410704174578, 18.552774645416232 ], [ 73.222426527160266, 18.552812799317334 ] ] ] ] } },
{ "type": "Feature", "properties": { "id": null, "NAME": "DPD", "NUMBER OF": null, "TYPOLOGY": null }, "geometry": { "type": "MultiPolygon", "coordinates": [ [ [ [ 73.222351195989191, 18.552973567371037 ], [ 73.2224172397556, 18.552956610098679 ], [ 73.2223862817401, 18.552867258289595 ], [ 73.222313358414695, 18.552890737601622 ], [ 73.222351195989191, 18.552973567371037 ] ] ] ] } },
{ "type": "Feature", "properties": { "id": null, "NAME": "DPD", "NUMBER OF": null, "TYPOLOGY": null }, "geometry": { "type": "MultiPolygon", "coordinates": [ [ [ [ 73.222502546287188, 18.553010090721155 ], [ 73.222556206847386, 18.552977480587494 ], [ 73.222504610154886, 18.552899216241279 ], [ 73.222453701418289, 18.552934435201514 ], [ 73.222502546287188, 18.553010090721155 ] ] ] ] } },
{ "type": "Feature", "properties": { "id": null, "NAME": "DPD", "NUMBER OF": null, "TYPOLOGY": null }, "geometry": { "type": "MultiPolygon", "coordinates": [ [ [ [ 73.222536944082194, 18.552935739607307 ], [ 73.222592668510103, 18.552969654154484 ], [ 73.222615371054786, 18.552929217578235 ], [ 73.222560334582795, 18.552894650819979 ], [ 73.222536944082194, 18.552935739607307 ] ] ] ] } },
{ "type": "Feature", "properties": { "id": null, "NAME": "DPD", "NUMBER OF": null, "TYPOLOGY": null }, "geometry": { "type": "MultiPolygon", "coordinates": [ [ [ [ 73.222301663164373, 18.553021178165181 ], [ 73.222340188694787, 18.553010090721148 ], [ 73.222332621179888, 18.552990524641704 ], [ 73.222296159517171, 18.552995090060438 ], [ 73.222301663164373, 18.553021178165181 ] ] ] ] } },
{ "type": "Feature", "properties": { "id": null, "NAME": "DPD", "NUMBER OF": null, "TYPOLOGY": null }, "geometry": { "type": "MultiPolygon", "coordinates": [ [ [ [ 73.222296159517171, 18.552995090060438 ], [ 73.222332621179888, 18.552990524641704 ], [ 73.222303039076195, 18.552907694880517 ], [ 73.222262449678084, 18.552920086737103 ], [ 73.222296159517171, 18.552995090060438 ] ] ] ] } },
{ "type": "Feature", "properties": { "id": null, "NAME": "DPD", "NUMBER OF": null, "TYPOLOGY": null }, "geometry": { "type": "MultiPolygon", "coordinates": [ [ [ [ 73.222385593784182, 18.553035526621088 ], [ 73.222434438653082, 18.553017917152303 ], [ 73.2224172397556, 18.552956610098679 ], [ 73.222362203283595, 18.552978784992955 ], [ 73.222385593784182, 18.553035526621088 ] ] ] ] } },
{ "type": "Feature", "properties": { "id": null, "NAME": "DPD", "NUMBER OF": null, "TYPOLOGY": null }, "geometry": { "type": "MultiPolygon", "coordinates": [ [ [ [ 73.222356699636393, 18.553041396443607 ], [ 73.222385593784182, 18.553035526621088 ], [ 73.222362203283595, 18.552978784992955 ], [ 73.222332621179888, 18.552990524641704 ], [ 73.222356699636393, 18.553041396443607 ] ] ] ] } },
{ "type": "Feature", "properties": { "id": null, "NAME": "DPD", "NUMBER OF": null, "TYPOLOGY": null }, "geometry": { "type": "MultiPolygon", "coordinates": [ [ [ [ 73.222065006334773, 18.552959871112716 ], [ 73.222117290983178, 18.552944218244736 ], [ 73.222090460703072, 18.552892042007748 ], [ 73.222045743569566, 18.552903781662462 ], [ 73.222065006334773, 18.552959871112716 ] ] ] ] } },
{ "type": "Feature", "properties": { "id": null, "NAME": "DPD", "NUMBER OF": null, "TYPOLOGY": null }, "geometry": { "type": "MultiPolygon", "coordinates": [ [ [ [ 73.222117290983178, 18.552944218244736 ], [ 73.222167511763871, 18.552923999954793 ], [ 73.222142057395587, 18.552864649476941 ], [ 73.222090460703072, 18.552892042007748 ], [ 73.222117290983178, 18.552944218244736 ] ] ] ] } },
{ "type": "Feature", "properties": { "id": null, "NAME": "DPD", "NUMBER OF": null, "TYPOLOGY": null }, "geometry": { "type": "MultiPolygon", "coordinates": [ [ [ [ 73.222167511763871, 18.552923999954793 ], [ 73.22219227817628, 18.552912912504457 ], [ 73.222173015411073, 18.552860736257898 ], [ 73.222146185130981, 18.552873780321033 ], [ 73.222167511763871, 18.552923999954793 ] ] ] ] } },
{ "type": "Feature", "properties": { "id": null, "NAME": "DPD", "NUMBER OF": null, "TYPOLOGY": null }, "geometry": { "type": "MultiPolygon", "coordinates": [ [ [ [ 73.222105595732884, 18.552982046006576 ], [ 73.222136553748385, 18.553033570013532 ], [ 73.222193654088073, 18.552999003276405 ], [ 73.222162008116683, 18.552948131461868 ], [ 73.222105595732884, 18.552982046006576 ] ] ] ] } },
{ "type": "Feature", "properties": { "id": null, "NAME": "DPD", "NUMBER OF": null, "TYPOLOGY": null }, "geometry": { "type": "MultiPolygon", "coordinates": [ [ [ [ 73.222162008116683, 18.552948131461868 ], [ 73.22219296613217, 18.552984654817429 ], [ 73.222252818295487, 18.552955957895854 ], [ 73.222221172324083, 18.552914216910413 ], [ 73.222162008116683, 18.552948131461868 ] ] ] ] } },
{ "type": "Feature", "properties": { "id": null, "NAME": "DPD", "NUMBER OF": null, "TYPOLOGY": null }, "geometry": { "type": "MultiPolygon", "coordinates": [ [ [ [ 73.222142057395587, 18.553139226789284 ], [ 73.222186774529078, 18.553107921084766 ], [ 73.222145497175077, 18.553059658112396 ], [ 73.222102843909269, 18.553090311623457 ], [ 73.222142057395587, 18.553139226789284 ] ] ] ] } },
{ "type": "Feature", "properties": { "id": null, "NAME": "DPD", "NUMBER OF": null, "TYPOLOGY": null }, "geometry": { "type": "MultiPolygon", "coordinates": [ [ [ [ 73.222232867574377, 18.553101399062275 ], [ 73.222285840178685, 18.55308248519562 ], [ 73.222265889457589, 18.553032917811013 ], [ 73.222210852985583, 18.553045961860988 ], [ 73.222232867574377, 18.553101399062275 ] ] ] ] } },
{ "type": "Feature", "properties": { "id": null, "NAME": "DPD", "NUMBER OF": null, "TYPOLOGY": null }, "geometry": { "type": "MultiPolygon", "coordinates": [ [ [ [ 73.222227363927175, 18.553031613405963 ], [ 73.222280336531483, 18.55301400393677 ], [ 73.222256946030882, 18.552965740937843 ], [ 73.22220259751478, 18.552983350412006 ], [ 73.222227363927175, 18.553031613405963 ] ] ] ] } },
{ "type": "Feature", "properties": { "id": null, "NAME": "DPD", "NUMBER OF": null, "TYPOLOGY": null }, "geometry": { "type": "MultiPolygon", "coordinates": [ [ [ [ 73.223126694277497, 18.553017591051017 ], [ 73.2231762271023, 18.552987589729597 ], [ 73.22314870886629, 18.552951066374657 ], [ 73.223103303776895, 18.552981067702504 ], [ 73.223126694277497, 18.553017591051017 ] ] ] ] } },
{ "type": "Feature", "properties": { "id": null, "NAME": "DPD", "NUMBER OF": null, "TYPOLOGY": null }, "geometry": { "type": "MultiPolygon", "coordinates": [ [ [ [ 73.223217504456301, 18.55309455093839 ], [ 73.223269789104705, 18.553166293175028 ], [ 73.223326201488504, 18.553120639027924 ], [ 73.223278044575494, 18.553051505581934 ], [ 73.223217504456301, 18.55309455093839 ] ] ] ] } },
{ "type": "Feature", "properties": { "id": null, "NAME": "DPD", "NUMBER OF": null, "TYPOLOGY": null }, "geometry": { "type": "MultiPolygon", "coordinates": [ [ [ [ 73.223056522775693, 18.553119334623542 ], [ 73.223086792835289, 18.553167597579051 ], [ 73.223152836601699, 18.553112812601483 ], [ 73.223111559247698, 18.553072376059145 ], [ 73.223056522775693, 18.553119334623542 ] ] ] ] } },
{ "type": "Feature", "properties": { "id": null, "NAME": "DPD", "NUMBER OF": null, "TYPOLOGY": null }, "geometry": { "type": "MultiPolygon", "coordinates": [ [ [ [ 73.223489934992699, 18.553312386363704 ], [ 73.223551851023714, 18.553292820318902 ], [ 73.223517453228709, 18.553249775012436 ], [ 73.223472048139314, 18.553264123449129 ], [ 73.223489934992699, 18.553312386363704 ] ] ] ] } },
{ "type": "Feature", "properties": { "id": null, "NAME": "DPD", "NUMBER OF": null, "TYPOLOGY": null }, "geometry": { "type": "MultiPolygon", "coordinates": [ [ [ [ 73.223571113788907, 18.553475436649858 ], [ 73.223611015231114, 18.553501524681192 ], [ 73.22363853346711, 18.553462392632696 ], [ 73.223608263407513, 18.553437608997342 ], [ 73.223571113788907, 18.553475436649858 ] ] ] ] } },
{ "type": "Feature", "properties": { "id": null, "NAME": "DPD", "NUMBER OF": null, "TYPOLOGY": null }, "geometry": { "type": "MultiPolygon", "coordinates": [ [ [ [ 73.223611015231114, 18.553501524681192 ], [ 73.223650916673321, 18.553541961121876 ], [ 73.223700449498111, 18.553476741051519 ], [ 73.22365917214411, 18.553455870623743 ], [ 73.223611015231114, 18.553501524681192 ] ] ] ] } },
{ "type": "Feature", "properties": { "id": null, "NAME": "DPD", "NUMBER OF": null, "TYPOLOGY": null }, "geometry": { "type": "MultiPolygon", "coordinates": [ [ [ [ 73.223103991732827, 18.55317803281088 ], [ 73.223134949748328, 18.553225643548011 ], [ 73.223188610308526, 18.553193033455518 ], [ 73.223152836601727, 18.553146727113479 ], [ 73.223103991732827, 18.55317803281088 ] ] ] ] } },
{ "type": "Feature", "properties": { "id": null, "NAME": "DPD", "NUMBER OF": null, "TYPOLOGY": null }, "geometry": { "type": "MultiPolygon", "coordinates": [ [ [ [ 73.223127038255484, 18.553301625039339 ], [ 73.223190330198278, 18.55329347252043 ], [ 73.223181386771572, 18.553227926254248 ], [ 73.223115686983121, 18.553236078776287 ], [ 73.223127038255484, 18.553301625039339 ] ] ] ] } },
{ "type": "Feature", "properties": { "id": null, "NAME": "DPD", "NUMBER OF": null, "TYPOLOGY": null }, "geometry": { "type": "MultiPolygon", "coordinates": [ [ [ [ 73.223236079265646, 18.553405651146445 ], [ 73.223302123032056, 18.553388693917007 ], [ 73.223261533633945, 18.553279776287784 ], [ 73.223205809206036, 18.553295429125008 ], [ 73.223236079265646, 18.553405651146445 ] ] ] ] } },
{ "type": "Feature", "properties": { "id": null, "NAME": "DPD", "NUMBER OF": null, "TYPOLOGY": null }, "geometry": { "type": "MultiPolygon", "coordinates": [ [ [ [ 73.223320697841345, 18.55346043603004 ], [ 73.22337573431335, 18.553428478183417 ], [ 73.223346840165547, 18.553401085738688 ], [ 73.223298683252551, 18.553425869379346 ], [ 73.223320697841345, 18.55346043603004 ] ] ] ] } },
{ "type": "Feature", "properties": { "id": null, "NAME": "DPD", "NUMBER OF": null, "TYPOLOGY": null }, "geometry": { "type": "MultiPolygon", "coordinates": [ [ [ [ 73.223421139402745, 18.553528917109798 ], [ 73.223480991566049, 18.553498915878233 ], [ 73.223445217859251, 18.553458479427352 ], [ 73.223389493431341, 18.553486524063658 ], [ 73.223421139402745, 18.553528917109798 ] ] ] ] } },
{ "type": "Feature", "properties": { "id": null, "NAME": "DPD", "NUMBER OF": null, "TYPOLOGY": null }, "geometry": { "type": "MultiPolygon", "coordinates": [ [ [ [ 73.223300059164345, 18.553603920165639 ], [ 73.223386741607754, 18.553584354154246 ], [ 73.223368166798437, 18.553519786300747 ], [ 73.223277356619647, 18.553538047918355 ], [ 73.223300059164345, 18.553603920165639 ] ] ] ] } },
{ "type": "Feature", "properties": { "id": null, "NAME": "DPD", "NUMBER OF": null, "TYPOLOGY": null }, "geometry": { "type": "MultiPolygon", "coordinates": [ [ [ [ 73.223222320147642, 18.55353217811291 ], [ 73.223291803693542, 18.553525003905982 ], [ 73.223278044575551, 18.553432391389439 ], [ 73.223213376720949, 18.553442174404129 ], [ 73.223222320147642, 18.55353217811291 ] ] ] ] } },
{ "type": "Feature", "properties": { "id": null, "NAME": "DPD", "NUMBER OF": null, "TYPOLOGY": null }, "geometry": { "type": "MultiPolygon", "coordinates": [ [ [ [ 73.223139077483737, 18.553476088850687 ], [ 73.223192738043934, 18.553472175645659 ], [ 73.223191362132141, 18.553414781961603 ], [ 73.223132197924741, 18.55341934736899 ], [ 73.223139077483737, 18.553476088850687 ] ] ] ] } },
{ "type": "Feature", "properties": { "id": null, "NAME": "DPD", "NUMBER OF": null, "TYPOLOGY": null }, "geometry": { "type": "MultiPolygon", "coordinates": [ [ [ [ 73.223142517263227, 18.553381519704047 ], [ 73.223192050088031, 18.553374997692007 ], [ 73.223182418705449, 18.553300646737085 ], [ 73.223127038255484, 18.553301625039339 ], [ 73.223142517263227, 18.553381519704047 ] ] ] ] } },
{ "type": "Feature", "properties": { "id": null, "NAME": "DPD", "NUMBER OF": null, "TYPOLOGY": null }, "geometry": { "type": "MultiPolygon", "coordinates": [ [ [ [ 73.222986351273931, 18.553444783207947 ], [ 73.223090920570741, 18.553420651771077 ], [ 73.223073033717327, 18.553370432283423 ], [ 73.222978783759032, 18.553394563727391 ], [ 73.222986351273931, 18.553444783207947 ] ] ] ] } },
{ "type": "Feature", "properties": { "id": null, "NAME": "DPD", "NUMBER OF": null, "TYPOLOGY": null }, "geometry": { "type": "MultiPolygon", "coordinates": [ [ [ [ 73.223081289188144, 18.553411520956242 ], [ 73.223151460689934, 18.553403042342026 ], [ 73.223128070189333, 18.553328039197929 ], [ 73.223068905981933, 18.553340431024015 ], [ 73.223081289188144, 18.553411520956242 ] ] ] ] } },
{ "type": "Feature", "properties": { "id": null, "NAME": "DPD", "NUMBER OF": null, "TYPOLOGY": null }, "geometry": { "type": "MultiPolygon", "coordinates": [ [ [ [ 73.223051019128548, 18.553299342334082 ], [ 73.223064090290634, 18.553347605238699 ], [ 73.223131509968837, 18.553339778822657 ], [ 73.223113623115438, 18.553280428489366 ], [ 73.223051019128548, 18.553299342334082 ] ] ] ] } },
{ "type": "Feature", "properties": { "id": null, "NAME": "DPD", "NUMBER OF": null, "TYPOLOGY": null }, "geometry": { "type": "MultiPolygon", "coordinates": [ [ [ [ 73.222947825743532, 18.553331300204881 ], [ 73.223022812936634, 18.55332477819092 ], [ 73.223010429730436, 18.553249775012436 ], [ 73.222954017346638, 18.55325499262592 ], [ 73.222947825743532, 18.553331300204881 ] ] ] ] } },
{ "type": "Feature", "properties": { "id": null, "NAME": "DPD", "NUMBER OF": null, "TYPOLOGY": null }, "geometry": { "type": "MultiPolygon", "coordinates": [ [ [ [ 73.222869742748856, 18.553466631938377 ], [ 73.222960552927674, 18.553452283518705 ], [ 73.222951609500967, 18.553375323792611 ], [ 73.222858735454452, 18.553401411839243 ], [ 73.222869742748856, 18.553466631938377 ] ] ] ] } },
{ "type": "Feature", "properties": { "id": null, "NAME": "DPD", "NUMBER OF": null, "TYPOLOGY": null }, "geometry": { "type": "MultiPolygon", "coordinates": [ [ [ [ 73.222872580566971, 18.553293635570807 ], [ 73.222884275817279, 18.553339941872991 ], [ 73.222934496597958, 18.553329506651064 ], [ 73.222934152620027, 18.553276026128653 ], [ 73.222872580566971, 18.553293635570807 ] ] ] ] } },
{ "type": "Feature", "properties": { "id": null, "NAME": "DPD", "NUMBER OF": null, "TYPOLOGY": null }, "geometry": { "type": "MultiPolygon", "coordinates": [ [ [ [ 73.222870860677219, 18.55339179187251 ], [ 73.222899066869132, 18.553382008854939 ], [ 73.222884619795224, 18.553347116087707 ], [ 73.222860885316663, 18.553352985899515 ], [ 73.222870860677219, 18.55339179187251 ] ] ] ] } },
{ "type": "Feature", "properties": { "id": null, "NAME": "DPD", "NUMBER OF": null, "TYPOLOGY": null }, "geometry": { "type": "MultiPolygon", "coordinates": [ [ [ [ 73.222997444562822, 18.553345485584384 ], [ 73.223039409872726, 18.553343528980388 ], [ 73.223027370644473, 18.553315158219867 ], [ 73.222989189092019, 18.553321680234195 ], [ 73.222997444562822, 18.553345485584384 ] ] ] ] } },
{ "type": "Feature", "properties": { "id": null, "NAME": "DPD", "NUMBER OF": null, "TYPOLOGY": null }, "geometry": { "type": "MultiPolygon", "coordinates": [ [ [ [ 73.222896315045517, 18.5535346238652 ], [ 73.222988501136115, 18.553525819156782 ], [ 73.222969238370922, 18.553455707573512 ], [ 73.22288014808187, 18.553483426109871 ], [ 73.222896315045517, 18.5535346238652 ] ] ] ] } },
{ "type": "Feature", "properties": { "id": null, "NAME": "DPD", "NUMBER OF": null, "TYPOLOGY": null }, "geometry": { "type": "MultiPolygon", "coordinates": [ [ [ [ 73.222996068651014, 18.553595604611065 ], [ 73.223053168990717, 18.553576038598724 ], [ 73.22301257959262, 18.553510818541383 ], [ 73.222956855164711, 18.553529406260264 ], [ 73.222996068651014, 18.553595604611065 ] ] ] ] } },
{ "type": "Feature", "properties": { "id": null, "NAME": "DPD", "NUMBER OF": null, "TYPOLOGY": null }, "geometry": { "type": "MultiPolygon", "coordinates": [ [ [ [ 73.222915577810724, 18.553607018117233 ], [ 73.222958231076532, 18.553592343609168 ], [ 73.222925553171265, 18.553550276679051 ], [ 73.22288393183932, 18.553561037987741 ], [ 73.222915577810724, 18.553607018117233 ] ] ] ] } },
{ "type": "Feature", "properties": { "id": null, "NAME": "DPD", "NUMBER OF": null, "TYPOLOGY": null }, "geometry": { "type": "MultiPolygon", "coordinates": [ [ [ [ 73.222829239345273, 18.553607181167312 ], [ 73.222852629845875, 18.553654139584605 ], [ 73.222900098802967, 18.553635225779185 ], [ 73.222863981118223, 18.553580114851481 ], [ 73.222829239345273, 18.553607181167312 ] ] ] ] } },
{ "type": "Feature", "properties": { "id": null, "NAME": "DPD", "NUMBER OF": null, "TYPOLOGY": null }, "geometry": { "type": "MultiPolygon", "coordinates": [ [ [ [ 73.223086534851873, 18.553630660377571 ], [ 73.223151890662379, 18.553611746569558 ], [ 73.223130564029475, 18.553555005132949 ], [ 73.22306452026308, 18.553576527749058 ], [ 73.223086534851873, 18.553630660377571 ] ] ] ] } },
{ "type": "Feature", "properties": { "id": null, "NAME": "DPD", "NUMBER OF": null, "TYPOLOGY": null }, "geometry": { "type": "MultiPolygon", "coordinates": [ [ [ [ 73.223087910763681, 18.553684140788882 ], [ 73.223022554953175, 18.553707619988554 ], [ 73.223065208218983, 18.553797623557386 ], [ 73.223129876073571, 18.553776100969163 ], [ 73.223087910763681, 18.553684140788882 ] ] ] ] } },
{ "type": "Feature", "properties": { "id": null, "NAME": "DPD", "NUMBER OF": null, "TYPOLOGY": null }, "geometry": { "type": "MultiPolygon", "coordinates": [ [ [ [ 73.223411250036719, 18.553745447581242 ], [ 73.223473854023609, 18.553728490385556 ], [ 73.223444271919902, 18.553608485567967 ], [ 73.223363781079598, 18.553633269178512 ], [ 73.223411250036719, 18.553745447581242 ] ] ] ] } },
{ "type": "Feature", "properties": { "id": null, "NAME": "DPD", "NUMBER OF": null, "TYPOLOGY": null }, "geometry": { "type": "MultiPolygon", "coordinates": [ [ [ [ 73.223504124083206, 18.553772187771006 ], [ 73.223561224422895, 18.553823711539486 ], [ 73.223629332057001, 18.553763056974972 ], [ 73.223552280996202, 18.553709576588382 ], [ 73.223504124083206, 18.553772187771006 ] ] ] ] } },
{ "type": "Feature", "properties": { "id": null, "NAME": "DPD", "NUMBER OF": null, "TYPOLOGY": null }, "geometry": { "type": "MultiPolygon", "coordinates": [ [ [ [ 73.223398866830493, 18.553838059927937 ], [ 73.223438080316797, 18.553882409484618 ], [ 73.223482797450302, 18.553841320925144 ], [ 73.223439456228604, 18.553801536754957 ], [ 73.223398866830493, 18.553838059927937 ] ] ] ] } },
{ "type": "Feature", "properties": { "id": null, "NAME": "DPD", "NUMBER OF": null, "TYPOLOGY": null }, "geometry": { "type": "MultiPolygon", "coordinates": [ [ [ [ 73.223155330441898, 18.553772839970705 ], [ 73.223193855972312, 18.553818493943382 ], [ 73.223270907033097, 18.55375523057798 ], [ 73.223224126031894, 18.553714141987893 ], [ 73.223155330441898, 18.553772839970705 ] ] ] ] } },
{ "type": "Feature", "properties": { "id": null, "NAME": "DPD", "NUMBER OF": null, "TYPOLOGY": null }, "geometry": { "type": "MultiPolygon", "coordinates": [ [ [ [ 73.223166337736302, 18.553734360184251 ], [ 73.223239949017611, 18.553720011787082 ], [ 73.223209678958, 18.553662618186348 ], [ 73.223143635191605, 18.553683488588849 ], [ 73.223166337736302, 18.553734360184251 ] ] ] ] } },
{ "type": "Feature", "properties": { "id": null, "NAME": "DPD", "NUMBER OF": null, "TYPOLOGY": null }, "geometry": { "type": "MultiPolygon", "coordinates": [ [ [ [ 73.223178032986596, 18.553660009385851 ], [ 73.223242700841197, 18.553652835184295 ], [ 73.22323100559089, 18.553600006963535 ], [ 73.223170465471696, 18.553611094369248 ], [ 73.223178032986596, 18.553660009385851 ] ] ] ] } },
{ "type": "Feature", "properties": { "id": null, "NAME": "DPD", "NUMBER OF": null, "TYPOLOGY": null }, "geometry": { "type": "MultiPolygon", "coordinates": [ [ [ [ 73.223165649780398, 18.553620225173415 ], [ 73.22323100559089, 18.553600006963535 ], [ 73.223220686252404, 18.553540004520123 ], [ 73.223151890662393, 18.553547830926981 ], [ 73.223165649780398, 18.553620225173415 ] ] ] ] } },
{ "type": "Feature", "properties": { "id": null, "NAME": "DPD", "NUMBER OF": null, "TYPOLOGY": null }, "geometry": { "type": "MultiPolygon", "coordinates": [ [ [ [ 73.223151890662393, 18.553547830926981 ], [ 73.223222320147642, 18.55353217811291 ], [ 73.223210366913904, 18.553475436649851 ], [ 73.223129188117696, 18.553481958658057 ], [ 73.223151890662393, 18.553547830926981 ] ] ] ] } },
{ "type": "Feature", "properties": { "id": null, "NAME": "DPD", "NUMBER OF": null, "TYPOLOGY": null }, "geometry": { "type": "MultiPolygon", "coordinates": [ [ [ [ 73.223105797617094, 18.553549787528645 ], [ 73.223151890662393, 18.553547830926981 ], [ 73.223127124249999, 18.553490437268358 ], [ 73.223089286675489, 18.553485871862861 ], [ 73.223105797617094, 18.553549787528645 ] ] ] ] } },
{ "type": "Feature", "properties": { "id": null, "NAME": "DPD", "NUMBER OF": null, "TYPOLOGY": null }, "geometry": { "type": "MultiPolygon", "coordinates": [ [ [ [ 73.223351397873401, 18.553817841743861 ], [ 73.223396115006906, 18.553798927956592 ], [ 73.223366532903199, 18.553757187177265 ], [ 73.223332135108208, 18.553772839970708 ], [ 73.223351397873401, 18.553817841743861 ] ] ] ] } },
{ "type": "Feature", "properties": { "id": null, "NAME": "DPD", "NUMBER OF": null, "TYPOLOGY": null }, "geometry": { "type": "MultiPolygon", "coordinates": [ [ [ [ 73.223453215346609, 18.553889583676533 ], [ 73.223483485406206, 18.553923498034209 ], [ 73.223533706186899, 18.553871974295852 ], [ 73.223491052921105, 18.553849147318189 ], [ 73.223453215346609, 18.553889583676533 ] ] ] ] } },
{ "type": "Feature", "properties": { "id": null, "NAME": "DPD", "NUMBER OF": null, "TYPOLOGY": null }, "geometry": { "type": "MultiPolygon", "coordinates": [ [ [ [ 73.223585474868401, 18.554014642837071 ], [ 73.223615400950038, 18.554000620562885 ], [ 73.223596998129722, 18.553975673955936 ], [ 73.223566728070111, 18.553990185381334 ], [ 73.223585474868401, 18.554014642837071 ] ] ] ] } },
{ "type": "Feature", "properties": { "id": null, "NAME": "TAALI", "NUMBER OF": null, "TYPOLOGY": null }, "geometry": { "type": "MultiPolygon", "coordinates": [ [ [ [ 73.229193347387351, 18.55015798487976 ], [ 73.229219489711554, 18.550178855710694 ], [ 73.229264894800963, 18.550125374201318 ], [ 73.229227745182357, 18.550103198936426 ], [ 73.229193347387351, 18.55015798487976 ] ] ] ] } },
{ "type": "Feature", "properties": { "id": null, "NAME": "TAALI", "NUMBER OF": null, "TYPOLOGY": null }, "geometry": { "type": "MultiPolygon", "coordinates": [ [ [ [ 73.229044748912955, 18.549974060571866 ], [ 73.229077770796152, 18.549989713712169 ], [ 73.229099785384946, 18.549923187855981 ], [ 73.22905162847195, 18.549906230280651 ], [ 73.229044748912955, 18.549974060571866 ] ] ] ] } },
{ "type": "Feature", "properties": { "id": null, "NAME": "TAALI", "NUMBER OF": null, "TYPOLOGY": null }, "geometry": { "type": "MultiPolygon", "coordinates": [ [ [ [ 73.229143814562548, 18.550040586408233 ], [ 73.229238752476746, 18.550061457253516 ], [ 73.229258015241953, 18.549975365000282 ], [ 73.229158949592346, 18.549957103001592 ], [ 73.229143814562548, 18.550040586408233 ] ] ] ] } },
{ "type": "Feature", "properties": { "id": null, "NAME": "TAALI", "NUMBER OF": null, "TYPOLOGY": null }, "geometry": { "type": "MultiPolygon", "coordinates": [ [ [ [ 73.229465777923764, 18.549951885287317 ], [ 73.229522190307563, 18.550005366851035 ], [ 73.229584106338564, 18.549964929572695 ], [ 73.229531821690173, 18.549906230280651 ], [ 73.229465777923764, 18.549951885287317 ] ] ] ] } },
{ "type": "Feature", "properties": { "id": null, "NAME": "TAALI", "NUMBER OF": null, "TYPOLOGY": null }, "geometry": { "type": "MultiPolygon", "coordinates": [ [ [ [ 73.22961437639816, 18.549844922109642 ], [ 73.229681796076363, 18.549869706266531 ], [ 73.229714817959575, 18.549807093652714 ], [ 73.229636390986954, 18.549778396197045 ], [ 73.22961437639816, 18.549844922109642 ] ] ] ] } },
{ "type": "Feature", "properties": { "id": null, "NAME": "TAALI", "NUMBER OF": null, "TYPOLOGY": null }, "geometry": { "type": "MultiPolygon", "coordinates": [ [ [ [ 73.229343321773555, 18.54998580042723 ], [ 73.229391478686551, 18.549994931425282 ], [ 73.229410741451758, 18.549924492284784 ], [ 73.229329562655565, 18.549912752425207 ], [ 73.229343321773555, 18.54998580042723 ] ] ] ] } },
{ "type": "Feature", "properties": { "id": null, "NAME": "TAALI", "NUMBER OF": null, "TYPOLOGY": null }, "geometry": { "type": "MultiPolygon", "coordinates": [ [ [ [ 73.228850745349149, 18.549777091767126 ], [ 73.228901654085746, 18.549786222776344 ], [ 73.228916789115559, 18.549717087980127 ], [ 73.228856248996351, 18.54970273924533 ], [ 73.228850745349149, 18.549777091767126 ] ] ] ] } },
{ "type": "Feature", "properties": { "id": null, "NAME": "TAALI", "NUMBER OF": null, "TYPOLOGY": null }, "geometry": { "type": "MultiPolygon", "coordinates": [ [ [ [ 73.228919540939145, 18.54979274492548 ], [ 73.228973201499343, 18.549794049355278 ], [ 73.228974577411151, 18.549721001271223 ], [ 73.228916789115559, 18.549717087980127 ], [ 73.228919540939145, 18.54979274492548 ] ] ] ] } },
{ "type": "Feature", "properties": { "id": null, "NAME": "TAALI", "NUMBER OF": null, "TYPOLOGY": null }, "geometry": { "type": "MultiPolygon", "coordinates": [ [ [ [ 73.228919540939145, 18.54984231325081 ], [ 73.228953938734151, 18.549839704391943 ], [ 73.228962194204939, 18.549807093652714 ], [ 73.228919540939145, 18.54979274492548 ], [ 73.228919540939145, 18.54984231325081 ] ] ] ] } },
{ "type": "Feature", "properties": { "id": null, "NAME": "TAALI", "NUMBER OF": null, "TYPOLOGY": null }, "geometry": { "type": "MultiPolygon", "coordinates": [ [ [ [ 73.228706446599105, 18.549591210401939 ], [ 73.228770426497817, 18.549612081302154 ], [ 73.228781433792221, 18.54954620751468 ], [ 73.228714702069922, 18.549531858765523 ], [ 73.228706446599105, 18.549591210401939 ] ] ] ] } },
{ "type": "Feature", "properties": { "id": null, "NAME": "TAALI", "NUMBER OF": null, "TYPOLOGY": null }, "geometry": { "type": "MultiPolygon", "coordinates": [ [ [ [ 73.228685807922105, 18.549515553367286 ], [ 73.228775242189116, 18.549551425241347 ], [ 73.228791753130722, 18.549518162231106 ], [ 73.228713326158115, 18.549480333701794 ], [ 73.228685807922105, 18.549515553367286 ] ] ] ] } },
{ "type": "Feature", "properties": { "id": null, "NAME": "TAALI", "NUMBER OF": null, "TYPOLOGY": null }, "geometry": { "type": "MultiPolygon", "coordinates": [ [ [ [ 73.228792441086625, 18.549611429086557 ], [ 73.22895686254671, 18.54963686549284 ], [ 73.228972685532426, 18.549561208478416 ], [ 73.228799320645621, 18.549542294219574 ], [ 73.228792441086625, 18.549611429086557 ] ] ] ] } },
{ "type": "Feature", "properties": { "id": null, "NAME": "TAALI", "NUMBER OF": null, "TYPOLOGY": null }, "geometry": { "type": "MultiPolygon", "coordinates": [ [ [ [ 73.228832342528818, 18.54968904272463 ], [ 73.228892882648012, 18.549701434814839 ], [ 73.228911457457329, 18.549630343337743 ], [ 73.228844725735016, 18.549620560104632 ], [ 73.228832342528818, 18.54968904272463 ] ] ] ] } },
{ "type": "Feature", "properties": { "id": null, "NAME": "TAALI", "NUMBER OF": null, "TYPOLOGY": null }, "geometry": { "type": "MultiPolygon", "coordinates": [ [ [ [ 73.228916789115559, 18.549717087980127 ], [ 73.228974577411151, 18.549721001271223 ], [ 73.22898438078272, 18.549640778785776 ], [ 73.228911457457329, 18.549630343337743 ], [ 73.228916789115559, 18.549717087980127 ] ] ] ] } },
{ "type": "Feature", "properties": { "id": null, "NAME": "TAALI", "NUMBER OF": null, "TYPOLOGY": null }, "geometry": { "type": "MultiPolygon", "coordinates": [ [ [ [ 73.229163249316741, 18.549906882495126 ], [ 73.229214158053352, 18.549914709068531 ], [ 73.229221725568252, 18.54985340090056 ], [ 73.229164625228549, 18.549846878753737 ], [ 73.229163249316741, 18.549906882495126 ] ] ] ] } },
{ "type": "Feature", "properties": { "id": null, "NAME": "TAALI", "NUMBER OF": null, "TYPOLOGY": null }, "geometry": { "type": "MultiPolygon", "coordinates": [ [ [ [ 73.229105461021149, 18.549900360350343 ], [ 73.229139170860236, 18.549912100210769 ], [ 73.229164625228549, 18.549846878753737 ], [ 73.229116468315539, 18.549836443318302 ], [ 73.229105461021149, 18.549900360350343 ] ] ] ] } },
{ "type": "Feature", "properties": { "id": null, "NAME": "TAALI", "NUMBER OF": null, "TYPOLOGY": null }, "geometry": { "type": "MultiPolygon", "coordinates": [ [ [ [ 73.229029785872143, 18.549809702512082 ], [ 73.229108900800654, 18.549827312311773 ], [ 73.229130915389447, 18.549760134177287 ], [ 73.229046984769639, 18.549738611080066 ], [ 73.229029785872143, 18.549809702512082 ] ] ] ] } },
{ "type": "Feature", "properties": { "id": null, "NAME": "TAALI", "NUMBER OF": null, "TYPOLOGY": null }, "geometry": { "type": "MultiPolygon", "coordinates": [ [ [ [ 73.22897337348833, 18.549777743982087 ], [ 73.229037353387042, 18.549783613916613 ], [ 73.229038729298836, 18.549715783549747 ], [ 73.228983692826844, 18.549709913612883 ], [ 73.22897337348833, 18.549777743982087 ] ] ] ] } },
{ "type": "Feature", "properties": { "id": null, "NAME": "TAALI", "NUMBER OF": null, "TYPOLOGY": null }, "geometry": { "type": "MultiPolygon", "coordinates": [ [ [ [ 73.229037353387042, 18.549763395252384 ], [ 73.229090325991351, 18.549761438607337 ], [ 73.229099269418043, 18.549709261397666 ], [ 73.229042857034244, 18.549706000321532 ], [ 73.229037353387042, 18.549763395252384 ] ] ] ] } },
{ "type": "Feature", "properties": { "id": null, "NAME": "TAALI", "NUMBER OF": null, "TYPOLOGY": null }, "geometry": { "type": "MultiPolygon", "coordinates": [ [ [ [ 73.228974577411151, 18.549721001271223 ], [ 73.229038729298836, 18.549715783549747 ], [ 73.229031161783951, 18.54968252057153 ], [ 73.228979565091436, 18.549680563925548 ], [ 73.228974577411151, 18.549721001271223 ] ] ] ] } },
{ "type": "Feature", "properties": { "id": null, "NAME": "TAALI", "NUMBER OF": null, "TYPOLOGY": null }, "geometry": { "type": "MultiPolygon", "coordinates": [ [ [ [ 73.229348481442798, 18.549849487612502 ], [ 73.229407645650198, 18.549852748685897 ], [ 73.229393886532193, 18.549728827853162 ], [ 73.229333346413, 18.549732088928859 ], [ 73.229348481442798, 18.549849487612502 ] ] ] ] } },
{ "type": "Feature", "properties": { "id": null, "NAME": "TAALI", "NUMBER OF": null, "TYPOLOGY": null }, "geometry": { "type": "MultiPolygon", "coordinates": [ [ [ [ 73.229496391961291, 18.549767308542428 ], [ 73.229589266007807, 18.549752307596798 ], [ 73.229567939374903, 18.549680563925552 ], [ 73.229475753284305, 18.549695564877489 ], [ 73.229496391961291, 18.549767308542428 ] ] ] ] } },
{ "type": "Feature", "properties": { "id": null, "NAME": "TAALI", "NUMBER OF": null, "TYPOLOGY": null }, "geometry": { "type": "MultiPolygon", "coordinates": [ [ [ [ 73.229567939374903, 18.549680563925552 ], [ 73.229636734964899, 18.549673389556773 ], [ 73.229644302479798, 18.549610124655366 ], [ 73.22956931528671, 18.549608820224162 ], [ 73.229567939374903, 18.549680563925552 ] ] ] ] } },
{ "type": "Feature", "properties": { "id": null, "NAME": "TAALI", "NUMBER OF": null, "TYPOLOGY": null }, "geometry": { "type": "MultiPolygon", "coordinates": [ [ [ [ 73.229470937592993, 18.549677302848874 ], [ 73.2295417970507, 18.549675346202832 ], [ 73.229550052521503, 18.54960751579295 ], [ 73.229464745989901, 18.54960751579295 ], [ 73.229470937592993, 18.549677302848874 ] ] ] ] } },
{ "type": "Feature", "properties": { "id": null, "NAME": "TAALI", "NUMBER OF": null, "TYPOLOGY": null }, "geometry": { "type": "MultiPolygon", "coordinates": [ [ [ [ 73.229407645650198, 18.549767308542428 ], [ 73.229484008755108, 18.549766004112428 ], [ 73.2294826328433, 18.549689694939932 ], [ 73.229406269738405, 18.549690347155227 ], [ 73.229407645650198, 18.549767308542428 ] ] ] ] } },
{ "type": "Feature", "properties": { "id": null, "NAME": "TAALI", "NUMBER OF": null, "TYPOLOGY": null }, "geometry": { "type": "MultiPolygon", "coordinates": [ [ [ [ 73.22923221689571, 18.549895794848847 ], [ 73.229297572706201, 18.54990492585172 ], [ 73.229300324529817, 18.549835138888835 ], [ 73.22923221689571, 18.54983448667409 ], [ 73.22923221689571, 18.549895794848847 ] ] ] ] } },
{ "type": "Feature", "properties": { "id": null, "NAME": "TAALI", "NUMBER OF": null, "TYPOLOGY": null }, "geometry": { "type": "MultiPolygon", "coordinates": [ [ [ [ 73.229351233266399, 18.549916013497405 ], [ 73.229410741451758, 18.549924492284784 ], [ 73.229417964988713, 18.549854705329903 ], [ 73.229358800781313, 18.549849487612502 ], [ 73.229351233266399, 18.549916013497405 ] ] ] ] } },
{ "type": "Feature", "properties": { "id": null, "NAME": "TAALI", "NUMBER OF": null, "TYPOLOGY": null }, "geometry": { "type": "MultiPolygon", "coordinates": [ [ [ [ 73.229327154809909, 18.549844922109649 ], [ 73.229348481442798, 18.549849487612502 ], [ 73.229353297134111, 18.549794701570185 ], [ 73.229323715030404, 18.549792092710586 ], [ 73.229327154809909, 18.549844922109649 ] ] ] ] } },
{ "type": "Feature", "properties": { "id": null, "NAME": "TAALI", "NUMBER OF": null, "TYPOLOGY": null }, "geometry": { "type": "MultiPolygon", "coordinates": [ [ [ [ 73.229283125632307, 18.54978687499127 ], [ 73.229345041663308, 18.54978687499127 ], [ 73.229334034368904, 18.549718392410508 ], [ 73.229279685852802, 18.549721653486412 ], [ 73.229283125632307, 18.54978687499127 ] ] ] ] } },
{ "type": "Feature", "properties": { "id": null, "NAME": "TAALI", "NUMBER OF": null, "TYPOLOGY": null }, "geometry": { "type": "MultiPolygon", "coordinates": [ [ [ [ 73.229210202306916, 18.549821116271353 ], [ 73.229273494249725, 18.549823725130505 ], [ 73.229275214139463, 18.549765025789924 ], [ 73.22921467402027, 18.549760134177291 ], [ 73.229210202306916, 18.549821116271353 ] ] ] ] } },
{ "type": "Feature", "properties": { "id": null, "NAME": "TAALI", "NUMBER OF": null, "TYPOLOGY": null }, "geometry": { "type": "MultiPolygon", "coordinates": [ [ [ [ 73.229140030805098, 18.54975263370433 ], [ 73.229197131144815, 18.549760786392319 ], [ 73.229207106505356, 18.549682520571537 ], [ 73.229150694121557, 18.54967567231051 ], [ 73.229140030805098, 18.54975263370433 ] ] ] ] } },
{ "type": "Feature", "properties": { "id": null, "NAME": "TAALI", "NUMBER OF": null, "TYPOLOGY": null }, "geometry": { "type": "MultiPolygon", "coordinates": [ [ [ [ 73.229049564604267, 18.549717740195334 ], [ 73.229112168591172, 18.54971382690416 ], [ 73.229112168591172, 18.549676650633536 ], [ 73.229049564604267, 18.549677302848878 ], [ 73.229049564604267, 18.549717740195334 ] ] ] ] } },
{ "type": "Feature", "properties": { "id": null, "NAME": "TAALI", "NUMBER OF": null, "TYPOLOGY": null }, "geometry": { "type": "MultiPolygon", "coordinates": [ [ [ [ 73.229089466046474, 18.549689042724644 ], [ 73.229154133901076, 18.549689042724644 ], [ 73.229154821856966, 18.549606211361734 ], [ 73.229088778090571, 18.549606211361734 ], [ 73.229089466046474, 18.549689042724644 ] ] ] ] } },
{ "type": "Feature", "properties": { "id": null, "NAME": "TAALI", "NUMBER OF": null, "TYPOLOGY": null }, "geometry": { "type": "MultiPolygon", "coordinates": [ [ [ [ 73.228987648573266, 18.549674041772136 ], [ 73.229099097429071, 18.549672737341421 ], [ 73.229094281737758, 18.54961469016451 ], [ 73.228984896749665, 18.549608820224172 ], [ 73.228987648573266, 18.549674041772136 ] ] ] ] } },
{ "type": "Feature", "properties": { "id": null, "NAME": "TAALI", "NUMBER OF": null, "TYPOLOGY": null }, "geometry": { "type": "MultiPolygon", "coordinates": [ [ [ [ 73.229162389371865, 18.549627082260113 ], [ 73.229238752476775, 18.549627082260113 ], [ 73.229241504300361, 18.549576209440851 ], [ 73.229158949592374, 18.549572296146433 ], [ 73.229162389371865, 18.549627082260113 ] ] ] ] } },
{ "type": "Feature", "properties": { "id": null, "NAME": "TAALI", "NUMBER OF": null, "TYPOLOGY": null }, "geometry": { "type": "MultiPolygon", "coordinates": [ [ [ [ 73.228943619395665, 18.549615994595673 ], [ 73.229032365706772, 18.549609472439776 ], [ 73.229034429574469, 18.54949990018353 ], [ 73.228952562822371, 18.549502509047592 ], [ 73.228943619395665, 18.549615994595673 ] ] ] ] } },
{ "type": "Feature", "properties": { "id": null, "NAME": "TAALI", "NUMBER OF": null, "TYPOLOGY": null }, "geometry": { "type": "MultiPolygon", "coordinates": [ [ [ [ 73.229042685045258, 18.549604254714883 ], [ 73.229152757989269, 18.549590558186278 ], [ 73.229149318209764, 18.549498595751487 ], [ 73.229042685045258, 18.549502509047592 ], [ 73.229042685045258, 18.549604254714883 ] ] ] ] } },
{ "type": "Feature", "properties": { "id": null, "NAME": "TAALI", "NUMBER OF": null, "TYPOLOGY": null }, "geometry": { "type": "MultiPolygon", "coordinates": [ [ [ [ 73.229161013460057, 18.549563165125772 ], [ 73.229220865623375, 18.549565773988871 ], [ 73.229227057226467, 18.549482942566161 ], [ 73.229165829151356, 18.549480985917899 ], [ 73.229161013460057, 18.549563165125772 ] ] ] ] } },
{ "type": "Feature", "properties": { "id": null, "NAME": "TAALI", "NUMBER OF": null, "TYPOLOGY": null }, "geometry": { "type": "MultiPolygon", "coordinates": [ [ [ [ 73.229264206845045, 18.549688390509345 ], [ 73.229316491493464, 18.549694912662218 ], [ 73.229324059008349, 18.549638169923838 ], [ 73.229263518889155, 18.549638169923838 ], [ 73.229264206845045, 18.549688390509345 ] ] ] ] } },
{ "type": "Feature", "properties": { "id": null, "NAME": "TAALI", "NUMBER OF": null, "TYPOLOGY": null }, "geometry": { "type": "MultiPolygon", "coordinates": [ [ [ [ 73.229253199550641, 18.549632299984307 ], [ 73.229324059008349, 18.549638169923838 ], [ 73.229321307184748, 18.549567730636159 ], [ 73.229250447727054, 18.549574252793647 ], [ 73.229253199550641, 18.549632299984307 ] ] ] ] } },
{ "type": "Feature", "properties": { "id": null, "NAME": "TAALI", "NUMBER OF": null, "TYPOLOGY": null }, "geometry": { "type": "MultiPolygon", "coordinates": [ [ [ [ 73.229220865623375, 18.549565773988871 ], [ 73.229314427625752, 18.549572296146426 ], [ 73.229310987846262, 18.549512292287464 ], [ 73.229220865623347, 18.549510335639535 ], [ 73.229220865623375, 18.549565773988871 ] ] ] ] } },
{ "type": "Feature", "properties": { "id": null, "NAME": "TAALI", "NUMBER OF": null, "TYPOLOGY": null }, "geometry": { "type": "MultiPolygon", "coordinates": [ [ [ [ 73.229338162104298, 18.54974121994049 ], [ 73.229393886532193, 18.549742850478228 ], [ 73.229399390179395, 18.549668824049213 ], [ 73.229346073597142, 18.549662628003034 ], [ 73.229338162104298, 18.54974121994049 ] ] ] ] } },
{ "type": "Feature", "properties": { "id": null, "NAME": "TAALI", "NUMBER OF": null, "TYPOLOGY": null }, "geometry": { "type": "MultiPolygon", "coordinates": [ [ [ [ 73.22933025061144, 18.54965186644862 ], [ 73.229412805319441, 18.549650562017735 ], [ 73.229411429407634, 18.549590884294112 ], [ 73.229325090942183, 18.549590232078444 ], [ 73.22933025061144, 18.54965186644862 ] ] ] ] } },
{ "type": "Feature", "properties": { "id": null, "NAME": "TAALI", "NUMBER OF": null, "TYPOLOGY": null }, "geometry": { "type": "MultiPolygon", "coordinates": [ [ [ [ 73.229432756040524, 18.549643496350271 ], [ 73.229456834497029, 18.549643278945116 ], [ 73.229456834497029, 18.549601319744557 ], [ 73.22943183876599, 18.549600015313285 ], [ 73.229432756040524, 18.549643496350271 ] ] ] ] } },
{ "type": "Feature", "properties": { "id": null, "NAME": "TAALI", "NUMBER OF": null, "TYPOLOGY": null }, "geometry": { "type": "MultiPolygon", "coordinates": [ [ [ [ 73.229413034638071, 18.549699586871633 ], [ 73.229463255418764, 18.549698065036026 ], [ 73.229457522452932, 18.549657192874637 ], [ 73.229408218946773, 18.549660453951702 ], [ 73.229413034638071, 18.549699586871633 ] ] ] ] } },
{ "type": "Feature", "properties": { "id": null, "NAME": "TAALI", "NUMBER OF": null, "TYPOLOGY": null }, "geometry": { "type": "MultiPolygon", "coordinates": [ [ [ [ 73.229332085160493, 18.549573057064809 ], [ 73.229432526721894, 18.549575231117267 ], [ 73.229432526721894, 18.54949348672589 ], [ 73.229330709248686, 18.549491312672398 ], [ 73.229332085160493, 18.549573057064809 ] ] ] ] } },
{ "type": "Feature", "properties": { "id": null, "NAME": "TAALI", "NUMBER OF": null, "TYPOLOGY": null }, "geometry": { "type": "MultiPolygon", "coordinates": [ [ [ [ 73.229442616741764, 18.549566534907274 ], [ 73.22949077365476, 18.549563056423153 ], [ 73.229486187282092, 18.549480442404501 ], [ 73.229437113094562, 18.549480442404501 ], [ 73.229442616741764, 18.549566534907274 ] ] ] ] } },
{ "type": "Feature", "properties": { "id": null, "NAME": "TAALI", "NUMBER OF": null, "TYPOLOGY": null }, "geometry": { "type": "MultiPolygon", "coordinates": [ [ [ [ 73.229590297941641, 18.54959566720899 ], [ 73.229644417139099, 18.549594362777675 ], [ 73.229645334413647, 18.549503922182289 ], [ 73.229588463392574, 18.549503052560944 ], [ 73.229590297941641, 18.54959566720899 ] ] ] ] } },
{ "type": "Feature", "properties": { "id": null, "NAME": "TAALI", "NUMBER OF": null, "TYPOLOGY": null }, "geometry": { "type": "MultiPolygon", "coordinates": [ [ [ [ 73.229632033932916, 18.54952479309317 ], [ 73.229718716376311, 18.549537837411172 ], [ 73.229735227317917, 18.549477398729362 ], [ 73.22963570303105, 18.549463919595976 ], [ 73.229632033932916, 18.54952479309317 ] ] ] ] } },
{ "type": "Feature", "properties": { "id": null, "NAME": "TAALI", "NUMBER OF": null, "TYPOLOGY": null }, "geometry": { "type": "MultiPolygon", "coordinates": [ [ [ [ 73.229604515696906, 18.549447396785844 ], [ 73.229767790563841, 18.549479137972305 ], [ 73.229778797858245, 18.5494078289972 ], [ 73.229620109363964, 18.549373913742492 ], [ 73.229604515696906, 18.549447396785844 ] ] ] ] } },
{ "type": "Feature", "properties": { "id": null, "NAME": "TAALI", "NUMBER OF": null, "TYPOLOGY": null }, "geometry": { "type": "MultiPolygon", "coordinates": [ [ [ [ 73.229649003511781, 18.549039108943514 ], [ 73.229692574052109, 18.549032586765584 ], [ 73.22967468719871, 18.548967364972608 ], [ 73.229630199383848, 18.548977800461159 ], [ 73.229649003511781, 18.549039108943514 ] ] ] ] } },
{ "type": "Feature", "properties": { "id": null, "NAME": "TAALI", "NUMBER OF": null, "TYPOLOGY": null }, "geometry": { "type": "MultiPolygon", "coordinates": [ [ [ [ 73.229690280865768, 18.549024760151742 ], [ 73.229750820984961, 18.549011280982615 ], [ 73.229721009562638, 18.548949102866104 ], [ 73.229669183551508, 18.54897258271696 ], [ 73.229690280865768, 18.549024760151742 ] ] ] ] } },
{ "type": "Feature", "properties": { "id": null, "NAME": "TAALI", "NUMBER OF": null, "TYPOLOGY": null }, "geometry": { "type": "MultiPolygon", "coordinates": [ [ [ [ 73.229678814934132, 18.549283473030346 ], [ 73.229787053329076, 18.54924607926036 ], [ 73.229754031445864, 18.549164334711417 ], [ 73.229635703031079, 18.54919738038485 ], [ 73.229678814934132, 18.549283473030346 ] ] ] ] } },
{ "type": "Feature", "properties": { "id": null, "NAME": "TAALI", "NUMBER OF": null, "TYPOLOGY": null }, "geometry": { "type": "MultiPolygon", "coordinates": [ [ [ [ 73.229765956014802, 18.549250427373572 ], [ 73.229827413408543, 18.549222599447116 ], [ 73.229810902466937, 18.549144333379648 ], [ 73.229754031445864, 18.549164334711417 ], [ 73.229765956014802, 18.549250427373572 ] ] ] ] } },
{ "type": "Feature", "properties": { "id": null, "NAME": "TAALI", "NUMBER OF": null, "TYPOLOGY": null }, "geometry": { "type": "MultiPolygon", "coordinates": [ [ [ [ 73.229643041227334, 18.549185205663797 ], [ 73.229754948720398, 18.549153029611141 ], [ 73.229740272327859, 18.549080850876351 ], [ 73.229622861187607, 18.549102591462329 ], [ 73.229643041227334, 18.549185205663797 ] ] ] ] } },
{ "type": "Feature", "properties": { "id": null, "NAME": "TAALI", "NUMBER OF": null, "TYPOLOGY": null }, "geometry": { "type": "MultiPolygon", "coordinates": [ [ [ [ 73.229747610524129, 18.549141724510115 ], [ 73.229801729721615, 18.549128680161846 ], [ 73.229783384230942, 18.549061719158395 ], [ 73.229725595935335, 18.549078242005844 ], [ 73.229747610524129, 18.549141724510115 ] ] ] ] } },
{ "type": "Feature", "properties": { "id": null, "NAME": "TAALI", "NUMBER OF": null, "TYPOLOGY": null }, "geometry": { "type": "MultiPolygon", "coordinates": [ [ [ [ 73.229848969360049, 18.549198250007745 ], [ 73.229887494890448, 18.549187379721193 ], [ 73.229878780782386, 18.549154768857377 ], [ 73.229836127516577, 18.549170422072788 ], [ 73.229848969360049, 18.549198250007745 ] ] ] ] } },
{ "type": "Feature", "properties": { "id": null, "NAME": "TAALI", "NUMBER OF": null, "TYPOLOGY": null }, "geometry": { "type": "MultiPolygon", "coordinates": [ [ [ [ 73.229215132657529, 18.549468702514396 ], [ 73.22931511558167, 18.549476529107892 ], [ 73.22931924331705, 18.54940130683336 ], [ 73.229211463559395, 18.549396089102107 ], [ 73.229215132657529, 18.549468702514396 ] ] ] ] } },
{ "type": "Feature", "properties": { "id": null, "NAME": "TAALI", "NUMBER OF": null, "TYPOLOGY": null }, "geometry": { "type": "MultiPolygon", "coordinates": [ [ [ [ 73.229345385641253, 18.549479137972309 ], [ 73.229403632574133, 18.549480442404501 ], [ 73.229398128926931, 18.549404785320775 ], [ 73.229344009729459, 18.549403915698925 ], [ 73.229345385641253, 18.549479137972309 ] ] ] ] } },
{ "type": "Feature", "properties": { "id": null, "NAME": "TAALI", "NUMBER OF": null, "TYPOLOGY": null }, "geometry": { "type": "MultiPolygon", "coordinates": [ [ [ [ 73.229394459828796, 18.549478703161576 ], [ 73.229450872212595, 18.54947478986492 ], [ 73.229445827202653, 18.549403046077074 ], [ 73.229398128926931, 18.549404785320775 ], [ 73.229394459828796, 18.549478703161576 ] ] ] ] } },
{ "type": "Feature", "properties": { "id": null, "NAME": "TAALI", "NUMBER OF": null, "TYPOLOGY": null }, "geometry": { "type": "MultiPolygon", "coordinates": [ [ [ [ 73.229440782192725, 18.549468267703634 ], [ 73.229510953694515, 18.549464789217513 ], [ 73.229513705518116, 18.549395219480218 ], [ 73.229440323555465, 18.549393480236422 ], [ 73.229440782192725, 18.549468267703634 ] ] ] ] } },
{ "type": "Feature", "properties": { "id": null, "NAME": "TAALI", "NUMBER OF": null, "TYPOLOGY": null }, "geometry": { "type": "MultiPolygon", "coordinates": [ [ [ [ 73.229075248291196, 18.549380435907384 ], [ 73.229133036586774, 18.549405654942614 ], [ 73.229171562117173, 18.549317823114158 ], [ 73.229111939272528, 18.549292604065954 ], [ 73.229075248291196, 18.549380435907384 ] ] ] ] } },
{ "type": "Feature", "properties": { "id": null, "NAME": "TAALI", "NUMBER OF": null, "TYPOLOGY": null }, "geometry": { "type": "MultiPolygon", "coordinates": [ [ [ [ 73.228912890698794, 18.549346520647237 ], [ 73.229056902800522, 18.549322171225541 ], [ 73.22905139915332, 18.549236948222259 ], [ 73.228904635227977, 18.549259558410949 ], [ 73.228912890698794, 18.549346520647237 ] ] ] ] } },
{ "type": "Feature", "properties": { "id": null, "NAME": "TAALI", "NUMBER OF": null, "TYPOLOGY": null }, "geometry": { "type": "MultiPolygon", "coordinates": [ [ [ [ 73.229225681314659, 18.549388262504927 ], [ 73.22931924331705, 18.54940130683336 ], [ 73.229330250611454, 18.549309996513387 ], [ 73.229238523158116, 18.549306518024043 ], [ 73.229225681314659, 18.549388262504927 ] ] ] ] } },
{ "type": "Feature", "properties": { "id": null, "NAME": "TAALI", "NUMBER OF": null, "TYPOLOGY": null }, "geometry": { "type": "MultiPolygon", "coordinates": [ [ [ [ 73.229330250611454, 18.549389132126851 ], [ 73.229384369808912, 18.549388262504927 ], [ 73.229387121632527, 18.549316083869577 ], [ 73.229341257905844, 18.549314344624975 ], [ 73.229330250611454, 18.549389132126851 ] ] ] ] } },
{ "type": "Feature", "properties": { "id": null, "NAME": "TAALI", "NUMBER OF": null, "TYPOLOGY": null }, "geometry": { "type": "MultiPolygon", "coordinates": [ [ [ [ 73.229395377103316, 18.549391740992604 ], [ 73.229466007242394, 18.549391740992604 ], [ 73.229463255418779, 18.549303909156986 ], [ 73.229391708005181, 18.549306518024043 ], [ 73.229395377103316, 18.549391740992604 ] ] ] ] } },
{ "type": "Feature", "properties": { "id": null, "NAME": "TAALI", "NUMBER OF": null, "TYPOLOGY": null }, "geometry": { "type": "MultiPolygon", "coordinates": [ [ [ [ 73.229341257905844, 18.549314344624975 ], [ 73.229430233535581, 18.549313475002666 ], [ 73.229442158104519, 18.549216946898998 ], [ 73.229366024318253, 18.549212598784933 ], [ 73.229341257905844, 18.549314344624975 ] ] ] ] } },
{ "type": "Feature", "properties": { "id": null, "NAME": "TAALI", "NUMBER OF": null, "TYPOLOGY": null }, "geometry": { "type": "MultiPolygon", "coordinates": [ [ [ [ 73.229105518350792, 18.54926564576893 ], [ 73.229216508569323, 18.549287386331383 ], [ 73.229241274981717, 18.549206511425062 ], [ 73.229118360194249, 18.54919259745882 ], [ 73.229105518350792, 18.54926564576893 ] ] ] ] } },
{ "type": "Feature", "properties": { "id": null, "NAME": "TAALI", "NUMBER OF": null, "TYPOLOGY": null }, "geometry": { "type": "MultiPolygon", "coordinates": [ [ [ [ 73.229256868648775, 18.549292604065954 ], [ 73.229330250611454, 18.549309996513387 ], [ 73.229363272494652, 18.549223903881266 ], [ 73.229264206845045, 18.549224773504033 ], [ 73.229256868648775, 18.549292604065954 ] ] ] ] } },
{ "type": "Feature", "properties": { "id": null, "NAME": "TAALI", "NUMBER OF": null, "TYPOLOGY": null }, "geometry": { "type": "MultiPolygon", "coordinates": [ [ [ [ 73.229229350412794, 18.549191727835893 ], [ 73.229285304159347, 18.549194336704662 ], [ 73.229293559630136, 18.549103026274018 ], [ 73.229222012216525, 18.549099547780454 ], [ 73.229229350412794, 18.549191727835893 ] ] ] ] } },
{ "type": "Feature", "properties": { "id": null, "NAME": "TAALI", "NUMBER OF": null, "TYPOLOGY": null }, "geometry": { "type": "MultiPolygon", "coordinates": [ [ [ [ 73.229285304159347, 18.549194336704662 ], [ 73.229339423356791, 18.54919085821296 ], [ 73.229344009729473, 18.549083024935069 ], [ 73.22929447690467, 18.549081285688093 ], [ 73.229285304159347, 18.549194336704662 ] ] ] ] } },
{ "type": "Feature", "properties": { "id": null, "NAME": "TAALI", "NUMBER OF": null, "TYPOLOGY": null }, "geometry": { "type": "MultiPolygon", "coordinates": [ [ [ [ 73.229339423356791, 18.54919085821296 ], [ 73.229388038907075, 18.54919085821296 ], [ 73.22938436980894, 18.549083024935069 ], [ 73.229344009729473, 18.549083024935069 ], [ 73.229339423356791, 18.54919085821296 ] ] ] ] } },
{ "type": "Feature", "properties": { "id": null, "NAME": "TAALI", "NUMBER OF": null, "TYPOLOGY": null }, "geometry": { "type": "MultiPolygon", "coordinates": [ [ [ [ 73.229256868648804, 18.549083024935069 ], [ 73.229344009729473, 18.549083024935069 ], [ 73.22935409974933, 18.549000410684158 ], [ 73.229274296864943, 18.549002149931962 ], [ 73.229256868648804, 18.549083024935069 ] ] ] ] } },
{ "type": "Feature", "properties": { "id": null, "NAME": "TAALI", "NUMBER OF": null, "TYPOLOGY": null }, "geometry": { "type": "MultiPolygon", "coordinates": [ [ [ [ 73.229332543797796, 18.548979974521188 ], [ 73.229348596102142, 18.549008237299113 ], [ 73.229378407524464, 18.548988670761052 ], [ 73.229366482955541, 18.548964756100368 ], [ 73.229332543797796, 18.548979974521188 ] ] ] ] } },
{ "type": "Feature", "properties": { "id": null, "NAME": "TAALI", "NUMBER OF": null, "TYPOLOGY": null }, "geometry": { "type": "MultiPolygon", "coordinates": [ [ [ [ 73.229371069328209, 18.548981278957193 ], [ 73.229410512133143, 18.548970843468854 ], [ 73.229389414818868, 18.548938667375797 ], [ 73.229359144759272, 18.548940841436334 ], [ 73.229371069328209, 18.548981278957193 ] ] ] ] } },
{ "type": "Feature", "properties": { "id": null, "NAME": "TAALI", "NUMBER OF": null, "TYPOLOGY": null }, "geometry": { "type": "MultiPolygon", "coordinates": [ [ [ [ 73.229265582756867, 18.54894214587264 ], [ 73.229359144759272, 18.548940841436334 ], [ 73.229347220190334, 18.548831703563412 ], [ 73.229257327286078, 18.548838225749005 ], [ 73.229265582756867, 18.54894214587264 ] ] ] ] } },
{ "type": "Feature", "properties": { "id": null, "NAME": "TAALI", "NUMBER OF": null, "TYPOLOGY": null }, "geometry": { "type": "MultiPolygon", "coordinates": [ [ [ [ 73.229416933054864, 18.548873662953085 ], [ 73.229441470148643, 18.548871923703977 ], [ 73.229436654457345, 18.548838225749005 ], [ 73.22941234668221, 18.548839312779918 ], [ 73.229416933054864, 18.548873662953085 ] ] ] ] } },
{ "type": "Feature", "properties": { "id": null, "NAME": "TAALI", "NUMBER OF": null, "TYPOLOGY": null }, "geometry": { "type": "MultiPolygon", "coordinates": [ [ [ [ 73.229437571731864, 18.54887561960831 ], [ 73.229508889826832, 18.548870401860988 ], [ 73.229495818664731, 18.54878343938222 ], [ 73.229427481712008, 18.548787787507209 ], [ 73.229437571731864, 18.54887561960831 ] ] ] ] } },
{ "type": "Feature", "properties": { "id": null, "NAME": "TAALI", "NUMBER OF": null, "TYPOLOGY": null }, "geometry": { "type": "MultiPolygon", "coordinates": [ [ [ [ 73.229638913491939, 18.548971930498922 ], [ 73.229683401306801, 18.548962364634111 ], [ 73.229653131247204, 18.548898012438737 ], [ 73.229613688442271, 18.548906708682772 ], [ 73.229638913491939, 18.548971930498922 ] ] ] ] } },
{ "type": "Feature", "properties": { "id": null, "NAME": "TAALI", "NUMBER OF": null, "TYPOLOGY": null }, "geometry": { "type": "MultiPolygon", "coordinates": [ [ [ [ 73.229673769924204, 18.548959320949741 ], [ 73.229750820985004, 18.548945406963355 ], [ 73.229728347758922, 18.548864966707367 ], [ 73.229643958501867, 18.548875837014446 ], [ 73.229673769924204, 18.548959320949741 ] ] ] ] } },
{ "type": "Feature", "properties": { "id": null, "NAME": "TAALI", "NUMBER OF": null, "TYPOLOGY": null }, "geometry": { "type": "MultiPolygon", "coordinates": [ [ [ [ 73.22973889641608, 18.548937580345509 ], [ 73.229800353809807, 18.548929753727311 ], [ 73.229790263789951, 18.548869314830274 ], [ 73.229720550925421, 18.548881924386095 ], [ 73.22973889641608, 18.548937580345509 ] ] ] ] } },
{ "type": "Feature", "properties": { "id": null, "NAME": "TAALI", "NUMBER OF": null, "TYPOLOGY": null }, "geometry": { "type": "MultiPolygon", "coordinates": [ [ [ [ 73.229737061867013, 18.54900454139764 ], [ 73.229809526555144, 18.548989322979008 ], [ 73.22978797060361, 18.548923666357357 ], [ 73.229704498621075, 18.548950189896296 ], [ 73.229737061867013, 18.54900454139764 ] ] ] ] } },
{ "type": "Feature", "properties": { "id": null, "NAME": "TAALI", "NUMBER OF": null, "TYPOLOGY": null }, "geometry": { "type": "MultiPolygon", "coordinates": [ [ [ [ 73.229564155617496, 18.549080633470474 ], [ 73.229643041227362, 18.549070197988204 ], [ 73.229608643432371, 18.548951929144614 ], [ 73.229532968283365, 18.548969321626753 ], [ 73.229564155617496, 18.549080633470474 ] ] ] ] } },
{ "type": "Feature", "properties": { "id": null, "NAME": "TAALI", "NUMBER OF": null, "TYPOLOGY": null }, "geometry": { "type": "MultiPolygon", "coordinates": [ [ [ [ 73.22948802183123, 18.549087590458296 ], [ 73.229550855136765, 18.549077589788208 ], [ 73.229532968283365, 18.548981931175195 ], [ 73.229461420869768, 18.548989757790999 ], [ 73.22948802183123, 18.549087590458296 ] ] ] ] } },
{ "type": "Feature", "properties": { "id": null, "NAME": "TAALI", "NUMBER OF": null, "TYPOLOGY": null }, "geometry": { "type": "MultiPolygon", "coordinates": [ [ [ [ 73.229904923106645, 18.548792787850807 ], [ 73.229972801422107, 18.548735392593699 ], [ 73.229893915812255, 18.548677997317295 ], [ 73.22983154114398, 18.54871452158633 ], [ 73.229904923106645, 18.548792787850807 ] ] ] ] } },
{ "type": "Feature", "properties": { "id": null, "NAME": "TAALI", "NUMBER OF": null, "TYPOLOGY": null }, "geometry": { "type": "MultiPolygon", "coordinates": [ [ [ [ 73.230154880416976, 18.548774960538168 ], [ 73.230205330516299, 18.548769742787773 ], [ 73.230203954604505, 18.548702781643566 ], [ 73.230154421779702, 18.548708434208702 ], [ 73.230154880416976, 18.548774960538168 ] ] ] ] } },
{ "type": "Feature", "properties": { "id": null, "NAME": "TAALI", "NUMBER OF": null, "TYPOLOGY": null }, "geometry": { "type": "MultiPolygon", "coordinates": [ [ [ [ 73.229445368565464, 18.5492906474155 ], [ 73.229518750528129, 18.549288908170638 ], [ 73.229512329606408, 18.549230643457562 ], [ 73.2294517894872, 18.549236730816574 ], [ 73.229445368565464, 18.5492906474155 ] ] ] ] } },
{ "type": "Feature", "properties": { "id": null, "NAME": "TAALI", "NUMBER OF": null, "TYPOLOGY": null }, "geometry": { "type": "MultiPolygon", "coordinates": [ [ [ [ 73.229637078942929, 18.549335867775664 ], [ 73.229718716376397, 18.549320214575424 ], [ 73.229679273571463, 18.549209772510725 ], [ 73.229616898903203, 18.549215859870483 ], [ 73.229637078942929, 18.549335867775664 ] ] ] ] } },
{ "type": "Feature", "properties": { "id": null, "NAME": "TAALI", "NUMBER OF": null, "TYPOLOGY": null }, "geometry": { "type": "MultiPolygon", "coordinates": [ [ [ [ 73.229717799101877, 18.549302822129032 ], [ 73.229828789320393, 18.549262819495596 ], [ 73.229795767437196, 18.54922542572109 ], [ 73.229701288160271, 18.549250644779217 ], [ 73.229717799101877, 18.549302822129032 ] ] ] ] } },
{ "type": "Feature", "properties": { "id": null, "NAME": "TAALI", "NUMBER OF": null, "TYPOLOGY": null }, "geometry": { "type": "MultiPolygon", "coordinates": [ [ [ [ 73.229498111851115, 18.549540663679934 ], [ 73.229587087480866, 18.549539794058781 ], [ 73.229575621549188, 18.549463267379803 ], [ 73.229490315017586, 18.549466311055191 ], [ 73.229498111851115, 18.549540663679934 ] ] ] ] } },
{ "type": "Feature", "properties": { "id": null, "NAME": "TAALI", "NUMBER OF": null, "TYPOLOGY": null }, "geometry": { "type": "MultiPolygon", "coordinates": [ [ [ [ 73.229466007242394, 18.549391740992604 ], [ 73.229525171449865, 18.54938804509943 ], [ 73.229522419626264, 18.549321084197697 ], [ 73.229464631330671, 18.549325432308994 ], [ 73.229466007242394, 18.549391740992604 ] ] ] ] } },
{ "type": "Feature", "properties": { "id": null, "NAME": "TAALI", "NUMBER OF": null, "TYPOLOGY": null }, "geometry": { "type": "MultiPolygon", "coordinates": [ [ [ [ 73.229502239586537, 18.549444570515522 ], [ 73.229620568001337, 18.549441092028921 ], [ 73.229617816177736, 18.549343694375242 ], [ 73.229515998704542, 18.549352390596578 ], [ 73.229502239586537, 18.549444570515522 ] ] ] ] } },
{ "type": "Feature", "properties": { "id": null, "NAME": "TAALI", "NUMBER OF": null, "TYPOLOGY": null }, "geometry": { "type": "MultiPolygon", "coordinates": [ [ [ [ 73.229488480468532, 18.549186727503972 ], [ 73.229584794294524, 18.549170204667025 ], [ 73.229578373372789, 18.549078024599964 ], [ 73.229473804075994, 18.549099765186302 ], [ 73.229488480468532, 18.549186727503972 ] ] ] ] } }
]
}
