{
"type": "FeatureCollection",
"name": "burmali house",
"crs": { "type": "name", "properties": { "name": "urn:ogc:def:crs:OGC:1.3:CRS84" } },
"features": [
{ "type": "Feature", "properties": { "fid": 1, "NAME": null, "TYPOLOGY": null, "NUMBER": null }, "geometry": { "type": "MultiPolygon", "coordinates": [ [ [ [ 73.22458520306138, 18.527524910057426 ], [ 73.224588965851481, 18.52743385053703 ], [ 73.224694558573347, 18.527438213872646 ], [ 73.224690795783246, 18.527529273393043 ], [ 73.22458520306138, 18.527524910057426 ] ] ] ] } },
{ "type": "Feature", "properties": { "fid": 2, "NAME": null, "TYPOLOGY": null, "NUMBER": null }, "geometry": { "type": "MultiPolygon", "coordinates": [ [ [ [ 73.224126142669277, 18.527421809608708 ], [ 73.2241231324372, 18.527374398453457 ], [ 73.224205750880046, 18.527369152838041 ], [ 73.224208761112124, 18.527416563993292 ], [ 73.224126142669277, 18.527421809608708 ] ] ] ] } },
{ "type": "Feature", "properties": { "fid": 3, "NAME": null, "TYPOLOGY": null, "NUMBER": null }, "geometry": { "type": "MultiPolygon", "coordinates": [ [ [ [ 73.22409378267443, 18.527489539830491 ], [ 73.224096792906508, 18.527567053306534 ], [ 73.224224995823647, 18.527562074552474 ], [ 73.224221985591569, 18.527484561076431 ], [ 73.22409378267443, 18.527489539830491 ] ] ] ] } },
{ "type": "Feature", "properties": { "fid": 4, "NAME": null, "TYPOLOGY": null, "NUMBER": null }, "geometry": { "type": "MultiPolygon", "coordinates": [ [ [ [ 73.224528008651873, 18.52810212205863 ], [ 73.224528008651873, 18.528012567654269 ], [ 73.224610161657665, 18.528012567654269 ], [ 73.224610161657665, 18.52810212205863 ], [ 73.224528008651873, 18.52810212205863 ] ] ] ] } },
{ "type": "Feature", "properties": { "fid": 5, "NAME": null, "TYPOLOGY": null, "NUMBER": null }, "geometry": { "type": "MultiPolygon", "coordinates": [ [ [ [ 73.224543812370285, 18.527982465333476 ], [ 73.224540049580185, 18.527909467205554 ], [ 73.2246306149259, 18.527904798888763 ], [ 73.224634377716001, 18.527977797016685 ], [ 73.224543812370285, 18.527982465333476 ] ] ] ] } },
{ "type": "Feature", "properties": { "fid": 6, "NAME": null, "TYPOLOGY": null, "NUMBER": null }, "geometry": { "type": "MultiPolygon", "coordinates": [ [ [ [ 73.224497906331081, 18.528112657870906 ], [ 73.224497153773058, 18.52802084579249 ], [ 73.224420303266726, 18.528021475714677 ], [ 73.224421055824749, 18.528113287793094 ], [ 73.224497906331081, 18.528112657870906 ] ] ] ] } },
{ "type": "Feature", "properties": { "fid": 7, "NAME": null, "TYPOLOGY": null, "NUMBER": null }, "geometry": { "type": "MultiPolygon", "coordinates": [ [ [ [ 73.224344384495026, 18.528011815096249 ], [ 73.224347394727104, 18.527899683951297 ], [ 73.224423230330117, 18.527901719806412 ], [ 73.22442022009804, 18.528013850951364 ], [ 73.224344384495026, 18.528011815096249 ] ] ] ] } },
{ "type": "Feature", "properties": { "fid": 8, "NAME": null, "TYPOLOGY": null, "NUMBER": null }, "geometry": { "type": "MultiPolygon", "coordinates": [ [ [ [ 73.224434691457404, 18.527964403941002 ], [ 73.22443619657345, 18.527909467205554 ], [ 73.224504756922499, 18.52791134557129 ], [ 73.224503251806453, 18.527966282306739 ], [ 73.224434691457404, 18.527964403941002 ] ] ] ] } },
{ "type": "Feature", "properties": { "fid": 9, "NAME": null, "TYPOLOGY": null, "NUMBER": null }, "geometry": { "type": "MultiPolygon", "coordinates": [ [ [ [ 73.224374486815833, 18.527716812352484 ], [ 73.224371476583755, 18.527621237483967 ], [ 73.224451805577985, 18.527618707436904 ], [ 73.224454815810063, 18.527714282305421 ], [ 73.224374486815833, 18.527716812352484 ] ] ] ] } },
{ "type": "Feature", "properties": { "fid": 10, "NAME": null, "TYPOLOGY": null, "NUMBER": null }, "geometry": { "type": "MultiPolygon", "coordinates": [ [ [ [ 73.224381259838012, 18.527814644895063 ], [ 73.224378249605934, 18.527728100722783 ], [ 73.224455408943086, 18.527725416919754 ], [ 73.224458419175164, 18.527811961092034 ], [ 73.224381259838012, 18.527814644895063 ] ] ] ] } },
{ "type": "Feature", "properties": { "fid": 11, "NAME": null, "TYPOLOGY": null, "NUMBER": null }, "geometry": { "type": "MultiPolygon", "coordinates": [ [ [ [ 73.224219459863747, 18.527841736983774 ], [ 73.224217202189692, 18.52774239932516 ], [ 73.224366339205432, 18.527739009847537 ], [ 73.224368596879486, 18.527838347506151 ], [ 73.224219459863747, 18.527841736983774 ] ] ] ] } },
{ "type": "Feature", "properties": { "fid": 12, "NAME": null, "TYPOLOGY": null, "NUMBER": null }, "geometry": { "type": "MultiPolygon", "coordinates": [ [ [ [ 73.224156997548107, 18.527989238355651 ], [ 73.224156997548107, 18.527903446741391 ], [ 73.224260558391322, 18.527903446741391 ], [ 73.224260558391322, 18.527989238355651 ], [ 73.224156997548107, 18.527989238355651 ] ] ] ] } },
{ "type": "Feature", "properties": { "fid": 13, "NAME": null, "TYPOLOGY": null, "NUMBER": null }, "geometry": { "type": "MultiPolygon", "coordinates": [ [ [ [ 73.224127271506333, 18.528030252767731 ], [ 73.224135173365539, 18.52794784766456 ], [ 73.224054069899623, 18.527940070619884 ], [ 73.224046168040417, 18.528022475723056 ], [ 73.224127271506333, 18.528030252767731 ] ] ] ] } },
{ "type": "Feature", "properties": { "fid": 14, "NAME": null, "TYPOLOGY": null, "NUMBER": null }, "geometry": { "type": "MultiPolygon", "coordinates": [ [ [ [ 73.224012882687305, 18.528013320212285 ], [ 73.224030191521763, 18.52794257975842 ], [ 73.223957719793447, 18.527924847314257 ], [ 73.223940410958988, 18.527995587768121 ], [ 73.224012882687305, 18.528013320212285 ] ] ] ] } },
{ "type": "Feature", "properties": { "fid": 15, "NAME": null, "TYPOLOGY": null, "NUMBER": null }, "geometry": { "type": "MultiPolygon", "coordinates": [ [ [ [ 73.224042232450074, 18.527715307236434 ], [ 73.224039974776019, 18.527637041202375 ], [ 73.223929384510242, 18.52764023130619 ], [ 73.223931642184297, 18.527718497340249 ], [ 73.224042232450074, 18.527715307236434 ] ] ] ] } },
{ "type": "Feature", "properties": { "fid": 16, "NAME": null, "TYPOLOGY": null, "NUMBER": null }, "geometry": { "type": "MultiPolygon", "coordinates": [ [ [ [ 73.223690035296798, 18.527673163987316 ], [ 73.22378259993323, 18.527666390965138 ], [ 73.223789623049967, 18.527762373560577 ], [ 73.223697058413535, 18.527769146582756 ], [ 73.223690035296798, 18.527673163987316 ] ] ] ] } },
{ "type": "Feature", "properties": { "fid": 17, "NAME": null, "TYPOLOGY": null, "NUMBER": null }, "geometry": { "type": "MultiPolygon", "coordinates": [ [ [ [ 73.223482329283343, 18.527667896081176 ], [ 73.223558337643354, 18.527666390965138 ], [ 73.223559974998963, 18.527749077423522 ], [ 73.223483966638952, 18.527750582539561 ], [ 73.223482329283343, 18.527667896081176 ] ] ] ] } },
{ "type": "Feature", "properties": { "fid": 18, "NAME": null, "TYPOLOGY": null, "NUMBER": null }, "geometry": { "type": "MultiPolygon", "coordinates": [ [ [ [ 73.223778837143158, 18.527466210531863 ], [ 73.223783352491282, 18.527381171475621 ], [ 73.223690979182336, 18.527376266698148 ], [ 73.223686463834213, 18.52746130575439 ], [ 73.223778837143158, 18.527466210531863 ] ] ] ] } },
{ "type": "Feature", "properties": { "fid": 19, "NAME": null, "TYPOLOGY": null, "NUMBER": null }, "geometry": { "type": "MultiPolygon", "coordinates": [ [ [ [ 73.223711859479394, 18.527591135163153 ], [ 73.223711859479394, 18.527506848664935 ], [ 73.223615485029455, 18.527506848664935 ], [ 73.223615485029455, 18.527591135163153 ], [ 73.223711859479394, 18.527591135163153 ] ] ] ] } },
{ "type": "Feature", "properties": { "fid": 20, "NAME": null, "TYPOLOGY": null, "NUMBER": null }, "geometry": { "type": "MultiPolygon", "coordinates": [ [ [ [ 73.22349135997959, 18.527574578886718 ], [ 73.223488349747512, 18.527503085874834 ], [ 73.223397594816575, 18.527506907135081 ], [ 73.223400605048653, 18.527578400146965 ], [ 73.22349135997959, 18.527574578886718 ] ] ] ] } },
{ "type": "Feature", "properties": { "fid": 21, "NAME": null, "TYPOLOGY": null, "NUMBER": null }, "geometry": { "type": "MultiPolygon", "coordinates": [ [ [ [ 73.22351017393008, 18.527464705415824 ], [ 73.223506411139979, 18.527387191939781 ], [ 73.223420165069555, 18.527391378642228 ], [ 73.223423927859656, 18.527468892118272 ], [ 73.22351017393008, 18.527464705415824 ] ] ] ] } },
{ "type": "Feature", "properties": { "fid": 22, "NAME": null, "TYPOLOGY": null, "NUMBER": null }, "geometry": { "type": "MultiPolygon", "coordinates": [ [ [ [ 73.223544791598997, 18.52747448867008 ], [ 73.223544791598997, 18.527381924033641 ], [ 73.223633161908097, 18.527381924033641 ], [ 73.223633161908097, 18.52747448867008 ], [ 73.223544791598997, 18.52747448867008 ] ] ] ] } },
{ "type": "Feature", "properties": { "fid": 23, "NAME": null, "TYPOLOGY": null, "NUMBER": null }, "geometry": { "type": "MultiPolygon", "coordinates": [ [ [ [ 73.223336709306466, 18.527585490978009 ], [ 73.223334451632411, 18.527504779130382 ], [ 73.223250919861343, 18.527507115683413 ], [ 73.223253177535398, 18.52758782753104 ], [ 73.223336709306466, 18.527585490978009 ] ] ] ] } },
{ "type": "Feature", "properties": { "fid": 24, "NAME": null, "TYPOLOGY": null, "NUMBER": null }, "geometry": { "type": "MultiPolygon", "coordinates": [ [ [ [ 73.223221567929428, 18.527594521674246 ], [ 73.223221567929428, 18.527524533778401 ], [ 73.223143063015215, 18.527524533778401 ], [ 73.223143063015215, 18.527594521674246 ], [ 73.223221567929428, 18.527594521674246 ] ] ] ] } },
{ "type": "Feature", "properties": { "fid": 25, "NAME": null, "TYPOLOGY": null, "NUMBER": null }, "geometry": { "type": "MultiPolygon", "coordinates": [ [ [ [ 73.223121665852304, 18.527561785400383 ], [ 73.223122230270818, 18.527513245408105 ], [ 73.2230488065765, 18.527512391644219 ], [ 73.223048242157986, 18.527560931636497 ], [ 73.223121665852304, 18.527561785400383 ] ] ] ] } },
{ "type": "Feature", "properties": { "fid": 26, "NAME": null, "TYPOLOGY": null, "NUMBER": null }, "geometry": { "type": "MultiPolygon", "coordinates": [ [ [ [ 73.223049984700907, 18.52779545466554 ], [ 73.223050549119421, 18.527687086310685 ], [ 73.223134007528571, 18.527687520989897 ], [ 73.223133443110058, 18.527795889344752 ], [ 73.223049984700907, 18.52779545466554 ] ] ] ] } },
{ "type": "Feature", "properties": { "fid": 27, "NAME": null, "TYPOLOGY": null, "NUMBER": null }, "geometry": { "type": "MultiPolygon", "coordinates": [ [ [ [ 73.223146500266949, 18.527794325828509 ], [ 73.223148757941004, 18.527688215147712 ], [ 73.223212320234282, 18.527689567536928 ], [ 73.223210062560227, 18.527795678217725 ], [ 73.223146500266949, 18.527794325828509 ] ] ] ] } },
{ "type": "Feature", "properties": { "fid": 28, "NAME": null, "TYPOLOGY": null, "NUMBER": null }, "geometry": { "type": "MultiPolygon", "coordinates": [ [ [ [ 73.22310727318019, 18.5274980061082 ], [ 73.223114046202369, 18.527426889375324 ], [ 73.223024356981199, 18.527418347544735 ], [ 73.22301758395902, 18.527489464277611 ], [ 73.22310727318019, 18.5274980061082 ] ] ] ] } },
{ "type": "Feature", "properties": { "fid": 29, "NAME": null, "TYPOLOGY": null, "NUMBER": null }, "geometry": { "type": "MultiPolygon", "coordinates": [ [ [ [ 73.223004549010483, 18.52749010424899 ], [ 73.223014144125244, 18.527398104031068 ], [ 73.22294786398659, 18.527391191378562 ], [ 73.222938268871829, 18.527483191596485 ], [ 73.223004549010483, 18.52749010424899 ] ] ] ] } },
{ "type": "Feature", "properties": { "fid": 30, "NAME": null, "TYPOLOGY": null, "NUMBER": null }, "geometry": { "type": "MultiPolygon", "coordinates": [ [ [ [ 73.222922143907326, 18.527631773296225 ], [ 73.222925530418422, 18.527505907967406 ], [ 73.223013056410792, 18.527508262926847 ], [ 73.223009669899696, 18.527634128255666 ], [ 73.222922143907326, 18.527631773296225 ] ] ] ] } },
{ "type": "Feature", "properties": { "fid": 31, "NAME": null, "TYPOLOGY": null, "NUMBER": null }, "geometry": { "type": "MultiPolygon", "coordinates": [ [ [ [ 73.222796278578514, 18.527434226816016 ], [ 73.222796842997028, 18.527372140779381 ], [ 73.222916014611059, 18.527373224157689 ], [ 73.222915450192545, 18.527435310194324 ], [ 73.222796278578514, 18.527434226816016 ] ] ] ] } },
{ "type": "Feature", "properties": { "fid": 32, "NAME": null, "TYPOLOGY": null, "NUMBER": null }, "geometry": { "type": "MultiPolygon", "coordinates": [ [ [ [ 73.222818290900591, 18.527607503300086 ], [ 73.222908033444455, 18.527605245626024 ], [ 73.222905516972958, 18.527505215884386 ], [ 73.222815774429094, 18.527507473558448 ], [ 73.222818290900591, 18.527607503300086 ] ] ] ] } },
{ "type": "Feature", "properties": { "fid": 33, "NAME": null, "TYPOLOGY": null, "NUMBER": null }, "geometry": { "type": "MultiPolygon", "coordinates": [ [ [ [ 73.222817162063564, 18.527444950767798 ], [ 73.222817726482077, 18.527493490760079 ], [ 73.222905352781183, 18.527492471849627 ], [ 73.222904788362669, 18.527443931857345 ], [ 73.222817162063564, 18.527444950767798 ] ] ] ] } },
{ "type": "Feature", "properties": { "fid": 34, "NAME": null, "TYPOLOGY": null, "NUMBER": null }, "geometry": { "type": "MultiPolygon", "coordinates": [ [ [ [ 73.22302317482152, 18.527804485361777 ], [ 73.223024303658548, 18.52772377351415 ], [ 73.222962354661121, 18.527722907094606 ], [ 73.222961225824093, 18.527803618942233 ], [ 73.22302317482152, 18.527804485361777 ] ] ] ] } },
{ "type": "Feature", "properties": { "fid": 35, "NAME": null, "TYPOLOGY": null, "NUMBER": null }, "geometry": { "type": "MultiPolygon", "coordinates": [ [ [ [ 73.222878683681699, 18.527784730713755 ], [ 73.222878119263186, 18.527705147703159 ], [ 73.222784908782501, 18.527705808770396 ], [ 73.222785473201014, 18.527785391780991 ], [ 73.222878683681699, 18.527784730713755 ] ] ] ] } },
{ "type": "Feature", "properties": { "fid": 36, "NAME": null, "TYPOLOGY": null, "NUMBER": null }, "geometry": { "type": "MultiPolygon", "coordinates": [ [ [ [ 73.222492056999016, 18.527723209095637 ], [ 73.222502780950805, 18.527661687477515 ], [ 73.222611217613789, 18.527680589281164 ], [ 73.222600493662, 18.527742110899286 ], [ 73.222492056999016, 18.527723209095637 ] ] ] ] } },
{ "type": "Feature", "properties": { "fid": 37, "NAME": null, "TYPOLOGY": null, "NUMBER": null }, "geometry": { "type": "MultiPolygon", "coordinates": [ [ [ [ 73.22248415513981, 18.527769491413856 ], [ 73.222489799324961, 18.527708534214248 ], [ 73.222345378007674, 18.527695161870049 ], [ 73.222339733822523, 18.527756119069657 ], [ 73.22248415513981, 18.527769491413856 ] ] ] ] } },
{ "type": "Feature", "properties": { "fid": 38, "NAME": null, "TYPOLOGY": null, "NUMBER": null }, "geometry": { "type": "MultiPolygon", "coordinates": [ [ [ [ 73.222459885143692, 18.52769809247172 ], [ 73.222490081534232, 18.527701761192066 ], [ 73.222495253562485, 18.527659191421051 ], [ 73.222465057171945, 18.527655522700705 ], [ 73.222459885143692, 18.52769809247172 ] ] ] ] } },
{ "type": "Feature", "properties": { "fid": 39, "NAME": null, "TYPOLOGY": null, "NUMBER": null }, "geometry": { "type": "MultiPolygon", "coordinates": [ [ [ [ 73.222540879200579, 18.527850767679993 ], [ 73.222543701293162, 18.527781908621179 ], [ 73.222432033043717, 18.527777332053564 ], [ 73.222429210951134, 18.527846191112378 ], [ 73.222540879200579, 18.527850767679993 ] ] ] ] } },
{ "type": "Feature", "properties": { "fid": 40, "NAME": null, "TYPOLOGY": null, "NUMBER": null }, "geometry": { "type": "MultiPolygon", "coordinates": [ [ [ [ 73.221527747966377, 18.527963651382972 ], [ 73.221519281688657, 18.527887454883462 ], [ 73.221614779521985, 18.527876844013097 ], [ 73.221623245799705, 18.527953040512607 ], [ 73.221527747966377, 18.527963651382972 ] ] ] ] } },
{ "type": "Feature", "properties": { "fid": 41, "NAME": null, "TYPOLOGY": null, "NUMBER": null }, "geometry": { "type": "MultiPolygon", "coordinates": [ [ [ [ 73.221896877675107, 18.528742548933508 ], [ 73.221809392805298, 18.52873238940024 ], [ 73.221819215459632, 18.528647805432335 ], [ 73.221906700329441, 18.528657964965603 ], [ 73.221896877675107, 18.528742548933508 ] ] ] ] } },
{ "type": "Feature", "properties": { "fid": 42, "NAME": null, "TYPOLOGY": null, "NUMBER": null }, "geometry": { "type": "MultiPolygon", "coordinates": [ [ [ [ 73.221924534182335, 18.528608781745479 ], [ 73.221804313038675, 18.52859241360855 ], [ 73.221816513312433, 18.528502804701308 ], [ 73.221936734456094, 18.528519172838237 ], [ 73.221924534182335, 18.528608781745479 ] ] ] ] } },
{ "type": "Feature", "properties": { "fid": 43, "NAME": null, "TYPOLOGY": null, "NUMBER": null }, "geometry": { "type": "MultiPolygon", "coordinates": [ [ [ [ 73.221954448363647, 18.528415750613391 ], [ 73.221845515590275, 18.528392609454283 ], [ 73.221862175031902, 18.528314188180271 ], [ 73.221971107805274, 18.528337329339379 ], [ 73.221954448363647, 18.528415750613391 ] ] ] ] } },
{ "type": "Feature", "properties": { "fid": 44, "NAME": null, "TYPOLOGY": null, "NUMBER": null }, "geometry": { "type": "MultiPolygon", "coordinates": [ [ [ [ 73.221975896267224, 18.5284236524726 ], [ 73.2219860558005, 18.528362695272993 ], [ 73.222079056212309, 18.528378195341638 ], [ 73.222068896679033, 18.528439152541246 ], [ 73.221975896267224, 18.5284236524726 ] ] ] ] } },
{ "type": "Feature", "properties": { "fid": 45, "NAME": null, "TYPOLOGY": null, "NUMBER": null }, "geometry": { "type": "MultiPolygon", "coordinates": [ [ [ [ 73.221996779752274, 18.528351971321211 ], [ 73.222006939285549, 18.528305124584474 ], [ 73.22208182851972, 18.528321365623221 ], [ 73.222071668986445, 18.528368212359958 ], [ 73.221996779752274, 18.528351971321211 ] ] ] ] } },
{ "type": "Feature", "properties": { "fid": 46, "NAME": null, "TYPOLOGY": null, "NUMBER": null }, "geometry": { "type": "MultiPolygon", "coordinates": [ [ [ [ 73.222041368814956, 18.528228928084957 ], [ 73.222054914859314, 18.528157811352084 ], [ 73.222103813458247, 18.528167125370931 ], [ 73.22209026741389, 18.528238242103804 ], [ 73.222041368814956, 18.528228928084957 ] ] ] ] } },
{ "type": "Feature", "properties": { "fid": 47, "NAME": null, "TYPOLOGY": null, "NUMBER": null }, "geometry": { "type": "MultiPolygon", "coordinates": [ [ [ [ 73.221968558826532, 18.528288756447537 ], [ 73.221981540452376, 18.528220461807237 ], [ 73.221908272179988, 18.528206534780253 ], [ 73.221895290554144, 18.528274829420553 ], [ 73.221968558826532, 18.528288756447537 ] ] ] ] } },
{ "type": "Feature", "properties": { "fid": 48, "NAME": null, "TYPOLOGY": null, "NUMBER": null }, "geometry": { "type": "MultiPolygon", "coordinates": [ [ [ [ 73.222045884163066, 18.5287916533443 ], [ 73.222049835092662, 18.528894941932521 ], [ 73.222148576429035, 18.52889116494152 ], [ 73.222144625499439, 18.528787876353299 ], [ 73.222045884163066, 18.5287916533443 ] ] ] ] } },
{ "type": "Feature", "properties": { "fid": 49, "NAME": null, "TYPOLOGY": null, "NUMBER": null }, "geometry": { "type": "MultiPolygon", "coordinates": [ [ [ [ 73.221931871623056, 18.528752708466776 ], [ 73.221936951389694, 18.528671996619149 ], [ 73.222059520172962, 18.52867971073838 ], [ 73.222054440406325, 18.528760422586007 ], [ 73.221931871623056, 18.528752708466776 ] ] ] ] } },
{ "type": "Feature", "properties": { "fid": 50, "NAME": null, "TYPOLOGY": null, "NUMBER": null }, "geometry": { "type": "MultiPolygon", "coordinates": [ [ [ [ 73.221953319526634, 18.528659014993309 ], [ 73.221955577200703, 18.528522990131222 ], [ 73.222044573224181, 18.528524467243653 ], [ 73.222042315550112, 18.52866049210574 ], [ 73.221953319526634, 18.528659014993309 ] ] ] ] } },
{ "type": "Feature", "properties": { "fid": 51, "NAME": null, "TYPOLOGY": null, "NUMBER": null }, "geometry": { "type": "MultiPolygon", "coordinates": [ [ [ [ 73.222998622616203, 18.528859383566093 ], [ 73.222986769827386, 18.528732389400247 ], [ 73.223071066243023, 18.528724521734784 ], [ 73.223082919031839, 18.52885151590063 ], [ 73.222998622616203, 18.528859383566093 ] ] ] ] } },
{ "type": "Feature", "properties": { "fid": 52, "NAME": null, "TYPOLOGY": null, "NUMBER": null }, "geometry": { "type": "MultiPolygon", "coordinates": [ [ [ [ 73.222226498087849, 18.528970574013528 ], [ 73.222233271110028, 18.528894941932535 ], [ 73.222335678460496, 18.52890411274004 ], [ 73.222328905438317, 18.528979744821033 ], [ 73.222226498087849, 18.528970574013528 ] ] ] ] } },
{ "type": "Feature", "properties": { "fid": 53, "NAME": null, "TYPOLOGY": null, "NUMBER": null }, "geometry": { "type": "MultiPolygon", "coordinates": [ [ [ [ 73.222228473552661, 18.528738880213176 ], [ 73.22223524657484, 18.528798144157236 ], [ 73.222345228652316, 18.528785574776951 ], [ 73.222338455630137, 18.528726310832891 ], [ 73.222228473552661, 18.528738880213176 ] ] ] ] } },
{ "type": "Feature", "properties": { "fid": 54, "NAME": null, "TYPOLOGY": null, "NUMBER": null }, "geometry": { "type": "MultiPolygon", "coordinates": [ [ [ [ 73.222256694478403, 18.528715174635551 ], [ 73.222253872385835, 18.528661554876638 ], [ 73.222150124638091, 18.528667015284402 ], [ 73.22215294673066, 18.528720635043314 ], [ 73.222256694478403, 18.528715174635551 ] ] ] ] } },
{ "type": "Feature", "properties": { "fid": 55, "NAME": null, "TYPOLOGY": null, "NUMBER": null }, "geometry": { "type": "MultiPolygon", "coordinates": [ [ [ [ 73.222287737496728, 18.528703886265252 ], [ 73.222275884707912, 18.528659297202577 ], [ 73.222370344907404, 18.528634187529288 ], [ 73.22238219769622, 18.528678776591963 ], [ 73.222287737496728, 18.528703886265252 ] ] ] ] } },
{ "type": "Feature", "properties": { "fid": 56, "NAME": null, "TYPOLOGY": null, "NUMBER": null }, "geometry": { "type": "MultiPolygon", "coordinates": [ [ [ [ 73.222213234252763, 18.528650830924853 ], [ 73.222201945882475, 18.528589309306732 ], [ 73.22230188688448, 18.528570971508213 ], [ 73.222313175254769, 18.528632493126334 ], [ 73.222213234252763, 18.528650830924853 ] ] ] ] } },
{ "type": "Feature", "properties": { "fid": 57, "NAME": null, "TYPOLOGY": null, "NUMBER": null }, "geometry": { "type": "MultiPolygon", "coordinates": [ [ [ [ 73.22215848565682, 18.52857068349574 ], [ 73.22216243658643, 18.52849787350732 ], [ 73.222268445335047, 18.528503625920045 ], [ 73.222264494405437, 18.528576435908466 ], [ 73.22215848565682, 18.52857068349574 ] ] ] ] } },
{ "type": "Feature", "properties": { "fid": 58, "NAME": null, "TYPOLOGY": null, "NUMBER": null }, "geometry": { "type": "MultiPolygon", "coordinates": [ [ [ [ 73.222330633303869, 18.528624303254656 ], [ 73.222321602607636, 18.528569554658713 ], [ 73.222392884960527, 18.528557796744842 ], [ 73.222401915656761, 18.528612545340785 ], [ 73.222330633303869, 18.528624303254656 ] ] ] ] } },
{ "type": "Feature", "properties": { "fid": 59, "NAME": null, "TYPOLOGY": null, "NUMBER": null }, "geometry": { "type": "MultiPolygon", "coordinates": [ [ [ [ 73.222293381681894, 18.528558266288414 ], [ 73.222290559589325, 18.528508033040588 ], [ 73.22239932232344, 18.528501922774637 ], [ 73.222402144416009, 18.528552156022464 ], [ 73.222293381681894, 18.528558266288414 ] ] ] ] } },
{ "type": "Feature", "properties": { "fid": 60, "NAME": null, "TYPOLOGY": null, "NUMBER": null }, "geometry": { "type": "MultiPolygon", "coordinates": [ [ [ [ 73.222188399838132, 18.528390633989495 ], [ 73.222205896812085, 18.528336449812066 ], [ 73.222293831940505, 18.528364845530604 ], [ 73.222276334966551, 18.528419029708033 ], [ 73.222188399838132, 18.528390633989495 ] ] ] ] } },
{ "type": "Feature", "properties": { "fid": 61, "NAME": null, "TYPOLOGY": null, "NUMBER": null }, "geometry": { "type": "MultiPolygon", "coordinates": [ [ [ [ 73.222663640227623, 18.52800231405125 ], [ 73.222682830457131, 18.527907491740752 ], [ 73.222563414155672, 18.52788332415593 ], [ 73.222544223926164, 18.527978146466427 ], [ 73.222663640227623, 18.52800231405125 ] ] ] ] } },
{ "type": "Feature", "properties": { "fid": 62, "NAME": null, "TYPOLOGY": null, "NUMBER": null }, "geometry": { "type": "MultiPolygon", "coordinates": [ [ [ [ 73.222407394221875, 18.528050289625014 ], [ 73.222421504684746, 18.527986510332831 ], [ 73.222515463946067, 18.528007297780025 ], [ 73.222501353483196, 18.528071077072209 ], [ 73.222407394221875, 18.528050289625014 ] ] ] ] } },
{ "type": "Feature", "properties": { "fid": 63, "NAME": null, "TYPOLOGY": null, "NUMBER": null }, "geometry": { "type": "MultiPolygon", "coordinates": [ [ [ [ 73.22242150468476, 18.527972964288473 ], [ 73.22243392189209, 18.527913135925896 ], [ 73.22251713432648, 18.52793040643115 ], [ 73.222504717119151, 18.527990234793727 ], [ 73.22242150468476, 18.527972964288473 ] ] ] ] } },
{ "type": "Feature", "properties": { "fid": 64, "NAME": null, "TYPOLOGY": null, "NUMBER": null }, "geometry": { "type": "MultiPolygon", "coordinates": [ [ [ [ 73.222669284412788, 18.528110117987588 ], [ 73.222590830239227, 18.528090363339569 ], [ 73.222613526719016, 18.528000225891287 ], [ 73.222691980892577, 18.528019980539305 ], [ 73.222669284412788, 18.528110117987588 ] ] ] ] } },
{ "type": "Feature", "properties": { "fid": 65, "NAME": null, "TYPOLOGY": null, "NUMBER": null }, "geometry": { "type": "MultiPolygon", "coordinates": [ [ [ [ 73.2225484988506, 18.528065528924916 ], [ 73.222563173731999, 18.52801078032897 ], [ 73.22259886076543, 18.528020345925569 ], [ 73.222584185884031, 18.528075094521515 ], [ 73.2225484988506, 18.528065528924916 ] ] ] ] } },
{ "type": "Feature", "properties": { "fid": 66, "NAME": null, "TYPOLOGY": null, "NUMBER": null }, "geometry": { "type": "MultiPolygon", "coordinates": [ [ [ [ 73.224916234520521, 18.528803788342376 ], [ 73.224910590335384, 18.528716867891085 ], [ 73.225077341346775, 18.528706039903355 ], [ 73.225082985531913, 18.528792960354647 ], [ 73.224916234520521, 18.528803788342376 ] ] ] ] } },
{ "type": "Feature", "properties": { "fid": 67, "NAME": null, "TYPOLOGY": null, "NUMBER": null }, "geometry": { "type": "MultiPolygon", "coordinates": [ [ [ [ 73.222939640881407, 18.528526658851572 ], [ 73.222928916929618, 18.528476990022263 ], [ 73.223078921012771, 18.528444602777018 ], [ 73.22308964496456, 18.528494271606327 ], [ 73.222939640881407, 18.528526658851572 ] ] ] ] } },
{ "type": "Feature", "properties": { "fid": 68, "NAME": null, "TYPOLOGY": null, "NUMBER": null }, "geometry": { "type": "MultiPolygon", "coordinates": [ [ [ [ 73.222937665416609, 18.528466830488991 ], [ 73.222924401581508, 18.528415186194881 ], [ 73.223110467645739, 18.528367398735757 ], [ 73.22312373148084, 18.528419043029867 ], [ 73.222937665416609, 18.528466830488991 ] ] ] ] } },
{ "type": "Feature", "properties": { "fid": 69, "NAME": null, "TYPOLOGY": null, "NUMBER": null }, "geometry": { "type": "MultiPolygon", "coordinates": [ [ [ [ 73.223097678065585, 18.528355922250821 ], [ 73.223085260858255, 18.52828649877349 ], [ 73.222954623665231, 18.528309864775498 ], [ 73.222967040872561, 18.528379288252829 ], [ 73.223097678065585, 18.528355922250821 ] ] ] ] } },
{ "type": "Feature", "properties": { "fid": 70, "NAME": null, "TYPOLOGY": null, "NUMBER": null }, "geometry": { "type": "MultiPolygon", "coordinates": [ [ [ [ 73.223141702709754, 18.528682156152424 ], [ 73.222995518314391, 18.528688929174603 ], [ 73.222988742824256, 18.528542691512378 ], [ 73.223134927219618, 18.528535918490199 ], [ 73.223141702709754, 18.528682156152424 ] ] ] ] } },
{ "type": "Feature", "properties": { "fid": 71, "NAME": null, "TYPOLOGY": null, "NUMBER": null }, "geometry": { "type": "MultiPolygon", "coordinates": [ [ [ [ 73.222812646715568, 18.528890991002932 ], [ 73.222814339971109, 18.528833420314413 ], [ 73.222879638148399, 18.528835340849035 ], [ 73.222877944892858, 18.528892911537554 ], [ 73.222812646715568, 18.528890991002932 ] ] ] ] } },
{ "type": "Feature", "properties": { "fid": 72, "NAME": null, "TYPOLOGY": null, "NUMBER": null }, "geometry": { "type": "MultiPolygon", "coordinates": [ [ [ [ 73.22280305160082, 18.528646597785986 ], [ 73.222801358345279, 18.528719407774403 ], [ 73.222880991845429, 18.528721259716264 ], [ 73.22288268510097, 18.528648449727847 ], [ 73.22280305160082, 18.528646597785986 ] ] ] ] } },
{ "type": "Feature", "properties": { "fid": 73, "NAME": null, "TYPOLOGY": null, "NUMBER": null }, "geometry": { "type": "MultiPolygon", "coordinates": [ [ [ [ 73.222939640881421, 18.528007111608623 ], [ 73.222934561114798, 18.527934301620203 ], [ 73.222818827315834, 18.527942376071277 ], [ 73.222823907082457, 18.528015186059697 ], [ 73.222939640881421, 18.528007111608623 ] ] ] ] } },
{ "type": "Feature", "properties": { "fid": 74, "NAME": null, "TYPOLOGY": null, "NUMBER": null }, "geometry": { "type": "MultiPolygon", "coordinates": [ [ [ [ 73.222999469244002, 18.528091774385853 ], [ 73.222997211569947, 18.528030252767731 ], [ 73.222783414059151, 18.528038098547928 ], [ 73.222785671733206, 18.528099620166049 ], [ 73.222999469244002, 18.528091774385853 ] ] ] ] } },
{ "type": "Feature", "properties": { "fid": 75, "NAME": null, "TYPOLOGY": null, "NUMBER": null }, "geometry": { "type": "MultiPolygon", "coordinates": [ [ [ [ 73.222793456486073, 18.528219332970217 ], [ 73.222792892067559, 18.528138056704073 ], [ 73.222939181856034, 18.528137040802765 ], [ 73.222939746274548, 18.528218317068909 ], [ 73.222793456486073, 18.528219332970217 ] ] ] ] } },
{ "type": "Feature", "properties": { "fid": 76, "NAME": null, "TYPOLOGY": null, "NUMBER": null }, "geometry": { "type": "MultiPolygon", "coordinates": [ [ [ [ 73.222120669616316, 18.527939381386837 ], [ 73.222169774027108, 18.527938252549809 ], [ 73.222173255886645, 18.528089713439854 ], [ 73.222124151475853, 18.528090842276882 ], [ 73.222120669616316, 18.527939381386837 ] ] ] ] } },
{ "type": "Feature", "properties": { "fid": 77, "NAME": null, "TYPOLOGY": null, "NUMBER": null }, "geometry": { "type": "MultiPolygon", "coordinates": [ [ [ [ 73.222181062397397, 18.528088952293281 ], [ 73.222180497978883, 18.528040412300999 ], [ 73.222279989128694, 18.528039255427167 ], [ 73.222280553547208, 18.528087795419449 ], [ 73.222181062397397, 18.528088952293281 ] ] ] ] } },
{ "type": "Feature", "properties": { "fid": 78, "NAME": null, "TYPOLOGY": null, "NUMBER": null }, "geometry": { "type": "MultiPolygon", "coordinates": [ [ [ [ 73.222303541215155, 18.528079357178523 ], [ 73.222303541215155, 18.528026866256639 ], [ 73.222398003360794, 18.528026866256639 ], [ 73.222398003360794, 18.528079357178523 ], [ 73.222303541215155, 18.528079357178523 ] ] ] ] } },
{ "type": "Feature", "properties": { "fid": 79, "NAME": null, "TYPOLOGY": null, "NUMBER": null }, "geometry": { "type": "MultiPolygon", "coordinates": [ [ [ [ 73.222383124225743, 18.528000903004955 ], [ 73.222384817481299, 18.527917933483266 ], [ 73.222289430752284, 18.527911724879605 ], [ 73.222288301915242, 18.527976068590299 ], [ 73.222307492144751, 18.527976633008816 ], [ 73.222306363307723, 18.527996952075352 ], [ 73.222383124225743, 18.528000903004955 ] ] ] ] } },
{ "type": "Feature", "properties": { "fid": 80, "NAME": null, "TYPOLOGY": null, "NUMBER": null }, "geometry": { "type": "MultiPolygon", "coordinates": [ [ [ [ 73.222685652549714, 18.528005418353075 ], [ 73.222689603479324, 18.527940510223864 ], [ 73.222745480912295, 18.527945025571981 ], [ 73.222743787656739, 18.528008804864164 ], [ 73.222685652549714, 18.528005418353075 ] ] ] ] } },
{ "type": "Feature", "properties": { "fid": 81, "NAME": null, "TYPOLOGY": null, "NUMBER": null }, "geometry": { "type": "MultiPolygon", "coordinates": [ [ [ [ 73.222218314019401, 18.528178130418627 ], [ 73.222223393786038, 18.528110964615355 ], [ 73.222293835176814, 18.528116292115502 ], [ 73.222288755410176, 18.528183457918775 ], [ 73.222218314019401, 18.528178130418627 ] ] ] ] } },
{ "type": "Feature", "properties": { "fid": 82, "NAME": null, "TYPOLOGY": null, "NUMBER": null }, "geometry": { "type": "MultiPolygon", "coordinates": [ [ [ [ 73.222346437022281, 18.52821594645912 ], [ 73.2223695781814, 18.528104191593176 ], [ 73.222445985948667, 18.528120013403576 ], [ 73.222422844789548, 18.528231768269521 ], [ 73.222346437022281, 18.52821594645912 ] ] ] ] } },
{ "type": "Feature", "properties": { "fid": 83, "NAME": null, "TYPOLOGY": null, "NUMBER": null }, "geometry": { "type": "MultiPolygon", "coordinates": [ [ [ [ 73.222683959294201, 18.527854154191079 ], [ 73.22268283045716, 18.527886890464945 ], [ 73.222732469783168, 18.527888602165859 ], [ 73.222733598620209, 18.527855865891993 ], [ 73.222683959294201, 18.527854154191079 ] ] ] ] } },
{ "type": "Feature", "properties": { "fid": 84, "NAME": null, "TYPOLOGY": null, "NUMBER": null }, "geometry": { "type": "MultiPolygon", "coordinates": [ [ [ [ 73.222670413249858, 18.528905101465792 ], [ 73.2226715420869, 18.528838500081036 ], [ 73.22274813621577, 18.528839798286626 ], [ 73.222747007378729, 18.528906399671381 ], [ 73.222670413249858, 18.528905101465792 ] ] ] ] } },
{ "type": "Feature", "properties": { "fid": 85, "NAME": null, "TYPOLOGY": null, "NUMBER": null }, "geometry": { "type": "MultiPolygon", "coordinates": [ [ [ [ 73.222541725828492, 18.528717150100338 ], [ 73.22253833931741, 18.52864829104152 ], [ 73.222586656559017, 18.528645914783741 ], [ 73.222590043070099, 18.528714773842559 ], [ 73.222541725828492, 18.528717150100338 ] ] ] ] } },
{ "type": "Feature", "properties": { "fid": 86, "NAME": null, "TYPOLOGY": null, "NUMBER": null }, "geometry": { "type": "MultiPolygon", "coordinates": [ [ [ [ 73.222610020468792, 18.528704732893008 ], [ 73.222604376283641, 18.528646033367462 ], [ 73.222649336510003, 18.528641710268772 ], [ 73.222654980695154, 18.528700409794318 ], [ 73.222610020468792, 18.528704732893008 ] ] ] ] } },
{ "type": "Feature", "properties": { "fid": 87, "NAME": null, "TYPOLOGY": null, "NUMBER": null }, "geometry": { "type": "MultiPolygon", "coordinates": [ [ [ [ 73.222843689733963, 18.528633616160135 ], [ 73.22284707624506, 18.528560241753201 ], [ 73.222908179689455, 18.52856306191218 ], [ 73.222904793178358, 18.528636436319115 ], [ 73.222843689733963, 18.528633616160135 ] ] ] ] } },
{ "type": "Feature", "properties": { "fid": 88, "NAME": null, "TYPOLOGY": null, "NUMBER": null }, "geometry": { "type": "MultiPolygon", "coordinates": [ [ [ [ 73.222775959512191, 18.528621763371323 ], [ 73.222775959512191, 18.528558548497656 ], [ 73.222836615466818, 18.528558548497656 ], [ 73.222836615466818, 18.528621763371323 ], [ 73.222775959512191, 18.528621763371323 ] ] ] ] } },
{ "type": "Feature", "properties": { "fid": 89, "NAME": null, "TYPOLOGY": null, "NUMBER": null }, "geometry": { "type": "MultiPolygon", "coordinates": [ [ [ [ 73.222667026738819, 18.528675383130235 ], [ 73.222765235560402, 18.528674818711721 ], [ 73.222764106723375, 18.528568143612407 ], [ 73.222590265820784, 18.528560241753201 ], [ 73.222589701402271, 18.528633616160135 ], [ 73.222666462320305, 18.528633616160135 ], [ 73.222667026738819, 18.528675383130235 ] ] ] ] } },
{ "type": "Feature", "properties": { "fid": 90, "NAME": null, "TYPOLOGY": null, "NUMBER": null }, "geometry": { "type": "MultiPolygon", "coordinates": [ [ [ [ 73.222640499068618, 18.528777542881429 ], [ 73.222783861371397, 18.528774156370339 ], [ 73.22278273253437, 18.528709248241128 ], [ 73.222637676976035, 18.528713199170731 ], [ 73.222640499068618, 18.528777542881429 ] ] ] ] } },
{ "type": "Feature", "properties": { "fid": 91, "NAME": null, "TYPOLOGY": null, "NUMBER": null }, "geometry": { "type": "MultiPolygon", "coordinates": [ [ [ [ 73.222758462538224, 18.528709248241128 ], [ 73.222759026956737, 18.528682156152414 ], [ 73.22277878160476, 18.528682720570927 ], [ 73.222779910441787, 18.528653370808154 ], [ 73.222802487182378, 18.528654499645185 ], [ 73.222800793926837, 18.528710377078156 ], [ 73.222758462538224, 18.528709248241128 ] ] ] ] } },
{ "type": "Feature", "properties": { "fid": 92, "NAME": null, "TYPOLOGY": null, "NUMBER": null }, "geometry": { "type": "MultiPolygon", "coordinates": [ [ [ [ 73.222541725828563, 18.528943199715535 ], [ 73.222632597209468, 18.528899739489891 ], [ 73.222693554409076, 18.52903519993346 ], [ 73.222608327213322, 18.529071887136929 ], [ 73.222541725828563, 18.528943199715535 ] ] ] ] } },
{ "type": "Feature", "properties": { "fid": 93, "NAME": null, "TYPOLOGY": null, "NUMBER": null }, "geometry": { "type": "MultiPolygon", "coordinates": [ [ [ [ 73.222373529111152, 18.528741137887209 ], [ 73.222373529111152, 18.528696548824531 ], [ 73.222439001658884, 18.52869993533562 ], [ 73.222436743984815, 18.528745088816812 ], [ 73.222373529111152, 18.528741137887209 ] ] ] ] } },
{ "type": "Feature", "properties": { "fid": 94, "NAME": null, "TYPOLOGY": null, "NUMBER": null }, "geometry": { "type": "MultiPolygon", "coordinates": [ [ [ [ 73.222436743984829, 18.528683002780173 ], [ 73.222436743984829, 18.528611886047301 ], [ 73.222521971180569, 18.52861075721027 ], [ 73.222520842343542, 18.528684696035718 ], [ 73.222436743984829, 18.528683002780173 ] ] ] ] } },
{ "type": "Feature", "properties": { "fid": 95, "NAME": null, "TYPOLOGY": null, "NUMBER": null }, "geometry": { "type": "MultiPolygon", "coordinates": [ [ [ [ 73.222435050729274, 18.528603984188095 ], [ 73.22243448631076, 18.528576327680867 ], [ 73.222414167244224, 18.528576327680867 ], [ 73.222413602825711, 18.528552057684724 ], [ 73.222427713288582, 18.528550364429179 ], [ 73.222428842125609, 18.528525530014527 ], [ 73.222545676758202, 18.528519321410862 ], [ 73.222546241176715, 18.528601726514037 ], [ 73.222435050729274, 18.528603984188095 ] ] ] ] } },
{ "type": "Feature", "properties": { "fid": 96, "NAME": null, "TYPOLOGY": null, "NUMBER": null }, "geometry": { "type": "MultiPolygon", "coordinates": [ [ [ [ 73.2224920569993, 18.528893530886236 ], [ 73.222623566513263, 18.528898046234353 ], [ 73.222620180002181, 18.528787984623953 ], [ 73.222439001658898, 18.528777260672168 ], [ 73.222438437240385, 18.528817334386726 ], [ 73.222493750254841, 18.528821849734847 ], [ 73.2224920569993, 18.528893530886236 ] ] ] ] } },
{ "type": "Feature", "properties": { "fid": 97, "NAME": null, "TYPOLOGY": null, "NUMBER": null }, "geometry": { "type": "MultiPolygon", "coordinates": [ [ [ [ 73.222559787221101, 18.528725334168801 ], [ 73.222606069539324, 18.528725898587318 ], [ 73.222607198376352, 18.528783469275833 ], [ 73.222563173732198, 18.528782340438806 ], [ 73.222559787221101, 18.528725334168801 ] ] ] ] } },
{ "type": "Feature", "properties": { "fid": 98, "NAME": null, "TYPOLOGY": null, "NUMBER": null }, "geometry": { "type": "MultiPolygon", "coordinates": [ [ [ [ 73.222573333265458, 18.528539640477408 ], [ 73.222571640009917, 18.528461750722354 ], [ 73.222652351857548, 18.528461750722354 ], [ 73.222651787439034, 18.52854246256998 ], [ 73.222573333265458, 18.528539640477408 ] ] ] ] } },
{ "type": "Feature", "properties": { "fid": 99, "NAME": null, "TYPOLOGY": null, "NUMBER": null }, "geometry": { "type": "MultiPolygon", "coordinates": [ [ [ [ 73.222674364179625, 18.528541333732953 ], [ 73.222677186272207, 18.528473603511166 ], [ 73.22271556673121, 18.528476425603742 ], [ 73.222719517660821, 18.528438045144728 ], [ 73.222762413467947, 18.528438609563246 ], [ 73.222757898119838, 18.52854584908107 ], [ 73.222674364179625, 18.528541333732953 ] ] ] ] } },
{ "type": "Feature", "properties": { "fid": 100, "NAME": null, "TYPOLOGY": null, "NUMBER": null }, "geometry": { "type": "MultiPolygon", "coordinates": [ [ [ [ 73.222802487182506, 18.528537382803346 ], [ 73.222801358345478, 18.528445382585421 ], [ 73.222894487400438, 18.528445947003938 ], [ 73.222892794144883, 18.528536818384833 ], [ 73.222802487182506, 18.528537382803346 ] ] ] ] } },
{ "type": "Feature", "properties": { "fid": 101, "NAME": null, "TYPOLOGY": null, "NUMBER": null }, "geometry": { "type": "MultiPolygon", "coordinates": [ [ [ [ 73.222490363743788, 18.528513677225725 ], [ 73.222558658384088, 18.528509726296118 ], [ 73.222552449780423, 18.52844030281879 ], [ 73.222483590721609, 18.528446511422452 ], [ 73.222490363743788, 18.528513677225725 ] ] ] ] } },
{ "type": "Feature", "properties": { "fid": 102, "NAME": null, "TYPOLOGY": null, "NUMBER": null }, "geometry": { "type": "MultiPolygon", "coordinates": [ [ [ [ 73.222419247010919, 18.528523272340475 ], [ 73.222418682592405, 18.528493358159185 ], [ 73.222357725392797, 18.528496180251761 ], [ 73.222355467718742, 18.528457799792747 ], [ 73.222409651896172, 18.528457799792747 ], [ 73.222409651896172, 18.5284408672373 ], [ 73.222474560025375, 18.528439173981756 ], [ 73.222473995606862, 18.52852129687567 ], [ 73.222419247010919, 18.528523272340475 ] ] ] ] } },
{ "type": "Feature", "properties": { "fid": 103, "NAME": null, "TYPOLOGY": null, "NUMBER": null }, "geometry": { "type": "MultiPolygon", "coordinates": [ [ [ [ 73.22250024106782, 18.528435505261406 ], [ 73.222404289920291, 18.528434376424379 ], [ 73.222404932469161, 18.528379759770459 ], [ 73.222500883616689, 18.528380888607487 ], [ 73.22250024106782, 18.528435505261406 ] ] ] ] } },
{ "type": "Feature", "properties": { "fid": 104, "NAME": null, "TYPOLOGY": null, "NUMBER": null }, "geometry": { "type": "MultiPolygon", "coordinates": [ [ [ [ 73.222420658057231, 18.528368903876654 ], [ 73.2224229157313, 18.528327701325068 ], [ 73.222540118613594, 18.528334123400835 ], [ 73.222537860939525, 18.528375325952421 ], [ 73.222420658057231, 18.528368903876654 ] ] ] ] } },
{ "type": "Feature", "properties": { "fid": 105, "NAME": null, "TYPOLOGY": null, "NUMBER": null }, "geometry": { "type": "MultiPolygon", "coordinates": [ [ [ [ 73.222657149414971, 18.528454695490915 ], [ 73.222659971507539, 18.52838922294319 ], [ 73.222714950539853, 18.528391592729061 ], [ 73.222712128447284, 18.528457065276786 ], [ 73.222657149414971, 18.528454695490915 ] ] ] ] } },
{ "type": "Feature", "properties": { "fid": 106, "NAME": null, "TYPOLOGY": null, "NUMBER": null }, "geometry": { "type": "MultiPolygon", "coordinates": [ [ [ [ 73.222633443837353, 18.528455824327946 ], [ 73.222632879418825, 18.528391480617248 ], [ 73.222563401278578, 18.528392090074632 ], [ 73.222563965697105, 18.52845643378533 ], [ 73.222633443837353, 18.528455824327946 ] ] ] ] } },
{ "type": "Feature", "properties": { "fid": 107, "NAME": null, "TYPOLOGY": null, "NUMBER": null }, "geometry": { "type": "MultiPolygon", "coordinates": [ [ [ [ 73.222551038734167, 18.528372854806257 ], [ 73.222554989663777, 18.528291014121599 ], [ 73.222637726412842, 18.528295008309492 ], [ 73.222633775483231, 18.528376848994149 ], [ 73.222551038734167, 18.528372854806257 ] ] ] ] } },
{ "type": "Feature", "properties": { "fid": 108, "NAME": null, "TYPOLOGY": null, "NUMBER": null }, "geometry": { "type": "MultiPolygon", "coordinates": [ [ [ [ 73.222754229399541, 18.528288756447541 ], [ 73.222799947299251, 18.528310204351108 ], [ 73.222766653831172, 18.52838117200676 ], [ 73.222720935931463, 18.528359724103193 ], [ 73.222754229399541, 18.528288756447541 ] ] ] ] } },
{ "type": "Feature", "properties": { "fid": 109, "NAME": null, "TYPOLOGY": null, "NUMBER": null }, "geometry": { "type": "MultiPolygon", "coordinates": [ [ [ [ 73.222309467609833, 18.52833447434724 ], [ 73.222421222475774, 18.528338425276843 ], [ 73.222425737823897, 18.528261099940305 ], [ 73.222372118064982, 18.528255455755154 ], [ 73.222368731553885, 18.528275210403176 ], [ 73.222313982957942, 18.528272388310601 ], [ 73.222309467609833, 18.52833447434724 ] ] ] ] } },
{ "type": "Feature", "properties": { "fid": 110, "NAME": null, "TYPOLOGY": null, "NUMBER": null }, "geometry": { "type": "MultiPolygon", "coordinates": [ [ [ [ 73.222443799216364, 18.528320928302882 ], [ 73.222447750145975, 18.528272952729115 ], [ 73.222525639901022, 18.52827916133278 ], [ 73.222521124552898, 18.528326008069516 ], [ 73.222443799216364, 18.528320928302882 ] ] ] ] } },
{ "type": "Feature", "properties": { "fid": 111, "NAME": null, "TYPOLOGY": null, "NUMBER": null }, "geometry": { "type": "MultiPolygon", "coordinates": [ [ [ [ 73.222652634066876, 18.528379627828429 ], [ 73.22265884267054, 18.528297787143771 ], [ 73.222723750799759, 18.528307382258525 ], [ 73.222710769173915, 18.528384143176549 ], [ 73.222652634066876, 18.528379627828429 ] ] ] ] } },
{ "type": "Feature", "properties": { "fid": 112, "NAME": null, "TYPOLOGY": null, "NUMBER": null }, "geometry": { "type": "MultiPolygon", "coordinates": [ [ [ [ 73.222464118282929, 18.528257713429216 ], [ 73.222540879200949, 18.528271823892087 ], [ 73.222555554082334, 18.528140878796638 ], [ 73.222498547812336, 18.528126203915249 ], [ 73.222488952697574, 18.528200142740697 ], [ 73.222466940375497, 18.528195627392581 ], [ 73.222464118282929, 18.528257713429216 ] ] ] ] } },
{ "type": "Feature", "properties": { "fid": 113, "NAME": null, "TYPOLOGY": null, "NUMBER": null }, "geometry": { "type": "MultiPolygon", "coordinates": [ [ [ [ 73.222559505011972, 18.528263357614364 ], [ 73.222561762686027, 18.528205786925845 ], [ 73.22261199593386, 18.528208044599907 ], [ 73.222610302678305, 18.528264486451395 ], [ 73.222559505011972, 18.528263357614364 ] ] ] ] } },
{ "type": "Feature", "properties": { "fid": 114, "NAME": null, "TYPOLOGY": null, "NUMBER": null }, "geometry": { "type": "MultiPolygon", "coordinates": [ [ [ [ 73.222565149197123, 18.528197320648122 ], [ 73.222567406871178, 18.52814370088921 ], [ 73.222617191677628, 18.528145797091582 ], [ 73.222614934003573, 18.528199416850494 ], [ 73.222565149197123, 18.528197320648122 ] ] ] ] } },
{ "type": "Feature", "properties": { "fid": 115, "NAME": null, "TYPOLOGY": null, "NUMBER": null }, "geometry": { "type": "MultiPolygon", "coordinates": [ [ [ [ 73.22263739476702, 18.528287627610503 ], [ 73.22272205754426, 18.528285369936444 ], [ 73.222711333592471, 18.528113222289406 ], [ 73.222650940811377, 18.528118866474554 ], [ 73.222654891740987, 18.528189983207429 ], [ 73.222624977559704, 18.528193934137033 ], [ 73.22263739476702, 18.528287627610503 ] ] ] ] } },
{ "type": "Feature", "properties": { "fid": 116, "NAME": null, "TYPOLOGY": null, "NUMBER": null }, "geometry": { "type": "MultiPolygon", "coordinates": [ [ [ [ 73.222532412923258, 18.528125639496729 ], [ 73.22253975036395, 18.528079357178509 ], [ 73.222630621744855, 18.528105884848706 ], [ 73.222625259768975, 18.528141725424401 ], [ 73.222532412923258, 18.528125639496729 ] ] ] ] } },
{ "type": "Feature", "properties": { "fid": 117, "NAME": null, "TYPOLOGY": null, "NUMBER": null }, "geometry": { "type": "MultiPolygon", "coordinates": [ [ [ [ 73.222681983829716, 18.528833420314385 ], [ 73.22268254824823, 18.528783187066562 ], [ 73.222787530091992, 18.528783187066562 ], [ 73.222788094510506, 18.528869543099336 ], [ 73.22275084288853, 18.528867285425278 ], [ 73.222752536144071, 18.528833984732898 ], [ 73.222681983829716, 18.528833420314385 ] ] ] ] } },
{ "type": "Feature", "properties": { "fid": 118, "NAME": null, "TYPOLOGY": null, "NUMBER": null }, "geometry": { "type": "MultiPolygon", "coordinates": [ [ [ [ 73.223320905588594, 18.526352800941488 ], [ 73.2233288074478, 18.526187990735142 ], [ 73.223398038882166, 18.526191310050489 ], [ 73.22339013702296, 18.526356120256835 ], [ 73.223320905588594, 18.526352800941488 ] ] ] ] } },
{ "type": "Feature", "properties": { "fid": 119, "NAME": null, "TYPOLOGY": null, "NUMBER": null }, "geometry": { "type": "MultiPolygon", "coordinates": [ [ [ [ 73.226474123691645, 18.525022654641404 ], [ 73.226532823217198, 18.525033190453684 ], [ 73.226544218199734, 18.524969704122384 ], [ 73.226485518674181, 18.524959168310104 ], [ 73.226474123691645, 18.525022654641404 ] ] ] ] } },
{ "type": "Feature", "properties": { "fid": 120, "NAME": null, "TYPOLOGY": null, "NUMBER": null }, "geometry": { "type": "MultiPolygon", "coordinates": [ [ [ [ 73.226150523743129, 18.52511597183587 ], [ 73.226172347925697, 18.525043726265963 ], [ 73.226078833857912, 18.525015477224663 ], [ 73.226057009675344, 18.52508772279457 ], [ 73.226150523743129, 18.52511597183587 ] ] ] ] } },
{ "type": "Feature", "properties": { "fid": 121, "NAME": null, "TYPOLOGY": null, "NUMBER": null }, "geometry": { "type": "MultiPolygon", "coordinates": [ [ [ [ 73.226529060427225, 18.529277241406614 ], [ 73.226527555311179, 18.529234345599484 ], [ 73.226600073045645, 18.529231801117561 ], [ 73.226601578161691, 18.529274696924691 ], [ 73.226529060427225, 18.529277241406614 ] ] ] ] } },
{ "type": "Feature", "properties": { "fid": 122, "NAME": null, "TYPOLOGY": null, "NUMBER": null }, "geometry": { "type": "MultiPolygon", "coordinates": [ [ [ [ 73.222324706909973, 18.528444724097181 ], [ 73.222321320398891, 18.52840258084807 ], [ 73.222370775621314, 18.528398606767706 ], [ 73.222374162132397, 18.528440750016816 ], [ 73.222324706909973, 18.528444724097181 ] ] ] ] } }
]
}
