{
"type": "FeatureCollection",
"name": "dumping site",
"crs": { "type": "name", "properties": { "name": "urn:ogc:def:crs:OGC:1.3:CRS84" } },
"features": [
{ "type": "Feature", "properties": { "fid": 1 }, "geometry": { "type": "MultiPolygon", "coordinates": [ [ [ [ 73.215230566776924, 18.532093304249219 ], [ 73.215013736038998, 18.531651106130141 ], [ 73.215023980010855, 18.531589642298918 ], [ 73.215097395142593, 18.531432568063561 ], [ 73.215194712875359, 18.531159395480344 ], [ 73.215268128007096, 18.530918662141385 ], [ 73.215298859922697, 18.530768417220617 ], [ 73.215317640537805, 18.530626708943075 ], [ 73.216015937953628, 18.530807685779457 ], [ 73.216248134649362, 18.53083500303778 ], [ 73.216649356880964, 18.530779514856814 ], [ 73.216584478392448, 18.530986101622869 ], [ 73.216575941749227, 18.531167078459251 ], [ 73.216521307232583, 18.531389031183114 ], [ 73.216446184772195, 18.531472690286723 ], [ 73.216278866564977, 18.531496592887752 ], [ 73.215952766793762, 18.531638301165295 ], [ 73.215601910757186, 18.53183037563787 ], [ 73.215259591363846, 18.532072816305476 ], [ 73.215230566776924, 18.532093304249219 ] ] ] ] } }
]
}
