{
"type": "FeatureCollection",
"name": "ecosensitiven zone",
"crs": { "type": "name", "properties": { "name": "urn:ogc:def:crs:OGC:1.3:CRS84" } },
"features": [
{ "type": "Feature", "properties": { "fid": 2, "survey no": null, "ownership": null, "PLOT NO": null, "PLOT TYPE": "FOREST-1/1/अ/1", "SR NO.": 1, "PLOT NO.": null, "PLOT NO. O": 1, "PLOT O.": null, "SR NO": null, "layer": "GS 1", "path": "D:/PLOTS GHERASARASGAD 1.gpkg|layername=PLOTS GHERASARASGAD 1", "SR.NO": null }, "geometry": { "type": "MultiPolygon", "coordinates": [ [ [ [ 73.230823209140951, 18.542842179750487 ], [ 73.230565305238244, 18.54299645840085 ], [ 73.230165698331376, 18.543243051043365 ], [ 73.229804011946754, 18.543446437021387 ], [ 73.229503752373006, 18.543607881059604 ], [ 73.229466940637977, 18.543631064917093 ], [ 73.22962838005428, 18.54401928869293 ], [ 73.229753451250431, 18.544344704701857 ], [ 73.229883844625149, 18.544668434017407 ], [ 73.229899755721476, 18.544710270086448 ], [ 73.229745634300684, 18.546135641116834 ], [ 73.229581977309962, 18.546179900566806 ], [ 73.229533190673166, 18.546382650856515 ], [ 73.229796638511871, 18.546707851714455 ], [ 73.229438056731411, 18.547201974609763 ], [ 73.230142801875701, 18.546870135779272 ], [ 73.230384961000169, 18.546843580215331 ], [ 73.232607635821196, 18.54450414567977 ], [ 73.2321146690321, 18.543964806743723 ], [ 73.231918413697699, 18.543763739751622 ], [ 73.231746108166831, 18.543599977471096 ], [ 73.231571806819005, 18.543460241967797 ], [ 73.231263120462529, 18.543194048686903 ], [ 73.230818718552797, 18.54284059902588 ], [ 73.230823209140951, 18.542842179750487 ] ] ] ] } },
{ "type": "Feature", "properties": { "fid": 3, "survey no": null, "ownership": null, "PLOT NO": null, "PLOT TYPE": "GOVT FOREST", "SR NO.": 3, "PLOT NO.": null, "PLOT NO. O": 3, "PLOT O.": null, "SR NO": null, "layer": "GS 1", "path": "D:/PLOTS GHERASARASGAD 1.gpkg|layername=PLOTS GHERASARASGAD 1", "SR.NO": null }, "geometry": { "type": "MultiPolygon", "coordinates": [ ] } },
{ "type": "Feature", "properties": { "fid": 6, "survey no": null, "ownership": null, "PLOT NO": null, "PLOT TYPE": "GOVT FOREST", "SR NO.": 15, "PLOT NO.": null, "PLOT NO. O": null, "PLOT O.": 15, "SR NO": null, "layer": "GS 15", "path": "C:\\Users\\chris\\Downloads\\GS 15.gpkg|layername=GS 15", "SR.NO": null }, "geometry": { "type": "MultiPolygon", "coordinates": [ [ [ [ 73.228672238202194, 18.541201854178968 ], [ 73.228679348300105, 18.541205410842526 ], [ 73.228246754974052, 18.538936244810639 ], [ 73.227891998509421, 18.539121193612704 ], [ 73.227535745182081, 18.539381544287735 ], [ 73.226570268727727, 18.542300148455563 ], [ 73.226878622448027, 18.542627359149247 ], [ 73.227085937934746, 18.542873478094233 ], [ 73.227232256265609, 18.54299867141328 ], [ 73.227365477047684, 18.54308545309329 ], [ 73.2274754964576, 18.543178636652623 ], [ 73.227664849591676, 18.543244789836404 ], [ 73.228672238202194, 18.541201854178968 ] ] ] ] } },
{ "type": "Feature", "properties": { "fid": 8, "survey no": null, "ownership": null, "PLOT NO": 8, "PLOT TYPE": "RESERVED FOREST", "SR NO.": null, "PLOT NO.": null, "PLOT NO. O": null, "PLOT O.": null, "SR NO": null, "layer": null, "path": null, "SR.NO": null }, "geometry": { "type": "MultiPolygon", "coordinates": [ [ [ [ 73.226394002333791, 18.551150389226436 ], [ 73.227754376140652, 18.552369044102338 ], [ 73.228369289502695, 18.551551293991093 ], [ 73.228669425786535, 18.550387131268611 ], [ 73.228605982344419, 18.549496611130778 ], [ 73.228610862609202, 18.549292532961136 ], [ 73.228740189625825, 18.549195131932656 ], [ 73.228826814325629, 18.548015879466409 ], [ 73.228970782136571, 18.547872095928174 ], [ 73.229087908491252, 18.547371751485596 ], [ 73.228100874939898, 18.547049396718833 ], [ 73.228040901061007, 18.548494553146824 ], [ 73.227440628493312, 18.548834298334949 ], [ 73.227688301930797, 18.549454650475571 ], [ 73.227615097959131, 18.550032097782257 ], [ 73.227524813060739, 18.550475037999579 ], [ 73.226394002333791, 18.551150389226436 ] ] ] ] } },
{ "type": "Feature", "properties": { "fid": 9, "survey no": null, "ownership": null, "PLOT NO": 9, "PLOT TYPE": "RESERVED FOREST", "SR NO.": null, "PLOT NO.": null, "PLOT NO. O": null, "PLOT O.": null, "SR NO": null, "layer": null, "path": null, "SR.NO": null }, "geometry": { "type": "MultiPolygon", "coordinates": [ [ [ [ 73.226394002333791, 18.551150389226436 ], [ 73.227461369618624, 18.550453006968134 ], [ 73.227530913391703, 18.550007747633096 ], [ 73.227607968197319, 18.549463564397865 ], [ 73.227359074693652, 18.548802628429371 ], [ 73.227976428188057, 18.548473319050498 ], [ 73.228100874939898, 18.547049396718833 ], [ 73.227986493734164, 18.547027945031651 ], [ 73.227722654419608, 18.547379868324601 ], [ 73.226478186901218, 18.54812197772738 ], [ 73.226042623269777, 18.548421139690674 ], [ 73.226024322276871, 18.549058886355471 ], [ 73.225442350702096, 18.549803307705343 ], [ 73.226394002333791, 18.551150389226436 ] ] ] ] } },
{ "type": "Feature", "properties": { "fid": 10, "survey no": null, "ownership": null, "PLOT NO": 10, "PLOT TYPE": "10/2-RESERVED FOREST", "SR NO.": null, "PLOT NO.": null, "PLOT NO. O": null, "PLOT O.": null, "SR NO": null, "layer": null, "path": null, "SR.NO": null }, "geometry": { "type": "MultiPolygon", "coordinates": [ [ [ [ 73.226478186901218, 18.54812197772738 ], [ 73.226037132971911, 18.547919637272472 ], [ 73.226034692839519, 18.547680770875683 ], [ 73.222713672658088, 18.547597283514516 ], [ 73.22225004750419, 18.547831511843643 ], [ 73.222289089622407, 18.548251266778149 ], [ 73.222570924913342, 18.548964963810764 ], [ 73.222953415665316, 18.549257167117812 ], [ 73.223321875656055, 18.550957618351148 ], [ 73.224080146795927, 18.550912976644469 ], [ 73.224732882209992, 18.550682231018058 ], [ 73.225442350702096, 18.549803307705336 ], [ 73.226024322276871, 18.549058886355471 ], [ 73.226042623269777, 18.548421139690674 ], [ 73.226478186901218, 18.54812197772738 ] ] ] ] } },
{ "type": "Feature", "properties": { "fid": 11, "survey no": null, "ownership": null, "PLOT NO": 6, "PLOT TYPE": "GOVT FOREST", "SR NO.": 6, "PLOT NO.": null, "PLOT NO. O": null, "PLOT O.": null, "SR NO": null, "layer": "GS 6", "path": "C:\\Users\\chris\\Downloads\\GS 6.gpkg|layername=GS 6", "SR.NO": null }, "geometry": { "type": "MultiPolygon", "coordinates": [ [ [ [ 73.229908459701008, 18.541398814194824 ], [ 73.229905798611739, 18.541401343374975 ], [ 73.231816460714683, 18.537377371571143 ], [ 73.229714200183579, 18.537427956328457 ], [ 73.228388977722204, 18.537139623016103 ], [ 73.228245278901085, 18.538935375392736 ], [ 73.228671053185863, 18.541199008848068 ], [ 73.229908459701008, 18.541398814194824 ] ] ] ] } },
{ "type": "Feature", "properties": { "fid": 12, "survey no": null, "ownership": null, "PLOT NO": 7, "PLOT TYPE": "GOVT FOREST", "SR NO.": 7, "PLOT NO.": null, "PLOT NO. O": null, "PLOT O.": null, "SR NO": null, "layer": "GS 7", "path": "C:\\Users\\chris\\Downloads\\GS 7.gpkg|layername=GS 7", "SR.NO": null }, "geometry": { "type": "MultiPolygon", "coordinates": [ [ [ [ 73.228246609445733, 18.538937904608463 ], [ 73.228245278901085, 18.538941698431969 ], [ 73.228378333365086, 18.537148475361715 ], [ 73.226906750993308, 18.536225299768677 ], [ 73.226784340886439, 18.536235416787843 ], [ 73.226648625333169, 18.536384642752665 ], [ 73.225678658290647, 18.53857369716923 ], [ 73.227536098607999, 18.539381781401119 ], [ 73.227896676205432, 18.539125066470152 ], [ 73.228246609445733, 18.538937904608463 ] ] ] ] } },
{ "type": "Feature", "properties": { "fid": 13, "survey no": null, "ownership": null, "PLOT NO": 8, "PLOT TYPE": "GOVT FOREST", "SR NO.": null, "PLOT NO.": null, "PLOT NO. O": null, "PLOT O.": null, "SR NO": 8, "layer": "GS 8", "path": "C:\\Users\\chris\\Downloads\\GS 8.gpkg|layername=GS 8", "SR.NO": null }, "geometry": { "type": "MultiPolygon", "coordinates": [ [ [ [ 73.226480644072367, 18.545155396811698 ], [ 73.226483637797799, 18.545158242078326 ], [ 73.22589387388615, 18.542115203010429 ], [ 73.226571952698279, 18.542298725799032 ], [ 73.227537429152633, 18.539373719546308 ], [ 73.225693294281683, 18.538568480650916 ], [ 73.223858140587041, 18.542587524836605 ], [ 73.224594597045254, 18.546063034518721 ], [ 73.225142448800739, 18.545940688644492 ], [ 73.226480644072367, 18.545155396811698 ] ] ] ] } },
{ "type": "Feature", "properties": { "fid": 14, "survey no": null, "ownership": null, "PLOT NO": 9, "PLOT TYPE": "GOVT FOREST", "SR NO.": null, "PLOT NO.": null, "PLOT NO. O": null, "PLOT O.": null, "SR NO": 9, "layer": "GS 9", "path": "C:\\Users\\chris\\Downloads\\GS 9.gpkg|layername=gs_9", "SR.NO": null }, "geometry": { "type": "MultiPolygon", "coordinates": [ [ [ [ 73.225818032841673, 18.547695727284975 ], [ 73.225919819506629, 18.547481386843199 ], [ 73.22647665243845, 18.547348609446754 ], [ 73.227460590199684, 18.545081894074627 ], [ 73.228961444553534, 18.543628904603231 ], [ 73.228904563770172, 18.543632698325116 ], [ 73.228200040383328, 18.543444908992893 ], [ 73.227664163529596, 18.543244789836393 ], [ 73.227474560918395, 18.543179347977301 ], [ 73.227366786802563, 18.543088298393535 ], [ 73.227227079615375, 18.542997248762425 ], [ 73.227087372428173, 18.542873952311506 ], [ 73.226973610861464, 18.542739274550538 ], [ 73.226879807464343, 18.542629256021048 ], [ 73.226738104460196, 18.542485093705377 ], [ 73.226570455835557, 18.542301096893237 ], [ 73.225887886435274, 18.542113306133057 ], [ 73.226482639889326, 18.545150180489429 ], [ 73.225149434160102, 18.545931678673632 ], [ 73.224586613777404, 18.546067302396512 ], [ 73.225817533887437, 18.547691933651119 ], [ 73.225818032841673, 18.547695727284975 ] ] ] ] } },
{ "type": "Feature", "properties": { "fid": 23, "survey no": null, "ownership": null, "PLOT NO": null, "PLOT TYPE": "GOVT FOREST", "SR NO.": null, "PLOT NO.": 107, "PLOT NO. O": null, "PLOT O.": null, "SR NO": null, "layer": "ZAP lhs final — zap_lhs_1__zap_village_qgis", "path": "D:\\ZAP lhs final.gpkg|layername=zap_lhs_1__zap_village_qgis", "SR.NO": 107 }, "geometry": { "type": "MultiPolygon", "coordinates": [ [ [ [ 73.227681533559561, 18.536758273312429 ], [ 73.227846084388219, 18.534514283989612 ], [ 73.225993098969923, 18.534194683172032 ], [ 73.227681533559561, 18.536758273312429 ] ] ] ] } },
{ "type": "Feature", "properties": { "fid": 24, "survey no": null, "ownership": null, "PLOT NO": null, "PLOT TYPE": "GOVT FOREST", "SR NO.": null, "PLOT NO.": 108, "PLOT NO. O": null, "PLOT O.": null, "SR NO": null, "layer": "ZAP lhs final — zap_lhs_1__zap_village_qgis", "path": "D:\\ZAP lhs final.gpkg|layername=zap_lhs_1__zap_village_qgis", "SR.NO": 108 }, "geometry": { "type": "MultiPolygon", "coordinates": [ [ [ [ 73.227681533559561, 18.536763373255422 ], [ 73.227688687943413, 18.536753173369288 ], [ 73.228418435096557, 18.537154368443165 ], [ 73.2296990698065, 18.537426364580785 ], [ 73.231775606389903, 18.537378513777888 ], [ 73.231816460714683, 18.537377371571143 ], [ 73.232053965883622, 18.535157492922714 ], [ 73.230729301081524, 18.536385977072637 ], [ 73.230006708312231, 18.536698773966503 ], [ 73.228525750854374, 18.534733584213349 ], [ 73.227838930004353, 18.534577184081854 ], [ 73.227681533559561, 18.536763373255422 ] ] ] ] } },
{ "type": "Feature", "properties": { "fid": 37, "survey no": null, "ownership": null, "PLOT NO": null, "PLOT TYPE": "GOVT FOREST", "SR NO.": null, "PLOT NO.": 106, "PLOT NO. O": null, "PLOT O.": null, "SR NO": null, "layer": "ZAP lhs final — zap_lhs_1__zap_village_qgis", "path": "D:\\ZAP lhs final.gpkg|layername=zap_lhs_1__zap_village_qgis", "SR.NO": 106 }, "geometry": { "type": "MultiPolygon", "coordinates": [ [ [ [ 73.232579130110892, 18.53562143525463 ], [ 73.232577504448358, 18.535601522075812 ], [ 73.23238868330975, 18.533201224348886 ], [ 73.231592814439679, 18.533611074859742 ], [ 73.230570196140292, 18.533508182418938 ], [ 73.230285386879089, 18.533027493180324 ], [ 73.230112870988975, 18.533082316922489 ], [ 73.229983775202356, 18.533913402245616 ], [ 73.230031687040693, 18.534529440116156 ], [ 73.229941186901627, 18.534390294174599 ], [ 73.229927878057637, 18.534152480855028 ], [ 73.229572531923353, 18.536125183172324 ], [ 73.230004403910542, 18.536698205074906 ], [ 73.230728405023115, 18.536389557748798 ], [ 73.232053965883622, 18.535157492922714 ], [ 73.232579130110892, 18.53562143525463 ] ] ] ] } },
{ "type": "Feature", "properties": { "fid": 259, "survey no": null, "ownership": null, "PLOT NO": null, "PLOT TYPE": "GOVT FOREST", "SR NO.": null, "PLOT NO.": 109, "PLOT NO. O": null, "PLOT O.": null, "SR NO": null, "layer": "ZAP VILLAGE QGIS (1) — ZAP VILLAGE QGIS", "path": "C:/Users/chris/Downloads/ZAP VILLAGE QGIS (1).gpkg|layername=ZAP VILLAGE QGIS", "SR.NO": 109 }, "geometry": { "type": "MultiPolygon", "coordinates": [ [ [ [ 73.231816460714683, 18.537377371571143 ], [ 73.231813994329116, 18.537383512207473 ], [ 73.23326056989805, 18.53890167964974 ], [ 73.234258141545212, 18.539792870417035 ], [ 73.234990764585888, 18.540029718413752 ], [ 73.236638664630803, 18.538235293760707 ], [ 73.236598520902547, 18.537781669631407 ], [ 73.236810279069104, 18.537787189394045 ], [ 73.237408420620113, 18.537237220316943 ], [ 73.235060012517124, 18.536647107511577 ], [ 73.234857286689433, 18.536340007990422 ], [ 73.232579130110892, 18.53562143525463 ], [ 73.232053965883622, 18.535157492922714 ], [ 73.231816460714683, 18.537377371571143 ] ] ] ] } }
]
}
