{
"type": "FeatureCollection",
"name": "LOCAL RD -HH",
"crs": { "type": "name", "properties": { "name": "urn:ogc:def:crs:OGC:1.3:CRS84" } },
"features": [
{ "type": "Feature", "properties": { "fid": 1, "id": null }, "geometry": { "type": "MultiLineString", "coordinates": [ [ [ 73.22073708915859, 18.544218134621509 ], [ 73.220943449626105, 18.544220419054732 ], [ 73.220999798978866, 18.544244786342414 ], [ 73.22110945177343, 18.544395558934937 ], [ 73.221142956793983, 18.544418403267141 ], [ 73.22127697687624, 18.5444138344007 ], [ 73.221410996958483, 18.544394035979458 ], [ 73.221462777444799, 18.544406219623301 ], [ 73.221644770624664, 18.544541001183287 ], [ 73.221701119977439, 18.544681113087453 ], [ 73.221725487265118, 18.54487757434438 ], [ 73.221771175929518, 18.545087742200629 ] ] ] } },
{ "type": "Feature", "properties": { "fid": 2, "id": null }, "geometry": { "type": "MultiLineString", "coordinates": [ [ [ 73.221628018114373, 18.544533386405895 ], [ 73.221784882528823, 18.544413072922971 ], [ 73.221931847732634, 18.544323218549646 ], [ 73.222075005547765, 18.544271438063326 ], [ 73.222416147575288, 18.544204428022201 ], [ 73.222559305390419, 18.544027765186517 ], [ 73.222819730777488, 18.544023196320072 ] ] ] } },
{ "type": "Feature", "properties": { "fid": 3, "id": null }, "geometry": { "type": "MultiLineString", "coordinates": [ [ [ 73.22241462461983, 18.544216611666041 ], [ 73.222376550732832, 18.544504450251772 ] ] ] } },
{ "type": "Feature", "properties": { "fid": 4, "id": null }, "geometry": { "type": "MultiLineString", "coordinates": [ [ [ 73.222946136082399, 18.543429243682851 ], [ 73.2228151619111, 18.544033857008433 ], [ 73.222690279561746, 18.54451815685109 ], [ 73.222745105959021, 18.544850161145742 ] ] ] } },
{ "type": "Feature", "properties": { "fid": 5, "id": null }, "geometry": { "type": "MultiLineString", "coordinates": [ [ [ 73.222695609905927, 18.544510542073684 ], [ 73.222608801443556, 18.544461046020583 ] ] ] } },
{ "type": "Feature", "properties": { "fid": 6, "id": null }, "geometry": { "type": "MultiLineString", "coordinates": [ [ [ 73.218865376873651, 18.542156814379254 ], [ 73.219020718332615, 18.542143107779935 ], [ 73.219147123637455, 18.542175089845017 ], [ 73.219360337404666, 18.542184227577895 ], [ 73.219613148014361, 18.542147676646376 ], [ 73.219934491620648, 18.542042592718246 ], [ 73.220019777127533, 18.54196035312232 ] ] ] } },
{ "type": "Feature", "properties": { "fid": 7, "id": null }, "geometry": { "type": "MultiLineString", "coordinates": [ [ [ 73.220272587737227, 18.542053253406607 ], [ 73.220027391904935, 18.541964921988761 ], [ 73.219716708987008, 18.541759322998953 ], [ 73.21939688833622, 18.541663376803712 ], [ 73.219201950034744, 18.541576568341355 ], [ 73.219022241288101, 18.541456254858431 ], [ 73.218892790072289, 18.541393813683751 ], [ 73.218632364685206, 18.541323757731668 ], [ 73.218484638003673, 18.541255986212796 ], [ 73.21809171548982, 18.541010790380508 ], [ 73.217873932856179, 18.540891999853066 ], [ 73.217650058400594, 18.540794530702339 ], [ 73.217406385523788, 18.540716859972857 ], [ 73.216970820256506, 18.540611776044734 ], [ 73.216885534749665, 18.540589693190292 ], [ 73.216692119403689, 18.540568371813571 ], [ 73.216413418550829, 18.540501361772446 ], [ 73.216248939358991, 18.540455673108038 ], [ 73.216207819561049, 18.540445773897421 ], [ 73.216078368345251, 18.540393231933361 ], [ 73.215886475954733, 18.540330029280941 ], [ 73.215621481701206, 18.540296524260381 ], [ 73.215484415707991, 18.540302616082297 ], [ 73.215354964492192, 18.540342212924777 ], [ 73.214765580721405, 18.540611776044752 ], [ 73.214454897803478, 18.540757979770838 ], [ 73.214348290919872, 18.540773209325636 ], [ 73.214162490351271, 18.540713814061913 ], [ 73.213941661806643, 18.540618629344408 ], [ 73.213694943018865, 18.540534866793003 ], [ 73.213615749333911, 18.540516591327243 ], [ 73.21318627588856, 18.540472425618329 ], [ 73.212927373456949, 18.54049983881697 ], [ 73.212510083655417, 18.540548573392332 ], [ 73.212475055679377, 18.54054095861493 ], [ 73.212349411852273, 18.540482324828947 ], [ 73.212291539544026, 18.540457196063528 ], [ 73.212166657194658, 18.54046633379641 ] ] ] } },
{ "type": "Feature", "properties": { "fid": 8, "id": null }, "geometry": { "type": "MultiLineString", "coordinates": [ [ [ 73.219423540057122, 18.542162906201202 ], [ 73.219429631879024, 18.541884205348353 ], [ 73.219452476211231, 18.541841562594911 ], [ 73.219514917385908, 18.541821764173669 ], [ 73.219559083094822, 18.541701450690745 ] ] ] } },
{ "type": "Feature", "properties": { "fid": 9, "id": null }, "geometry": { "type": "MultiLineString", "coordinates": [ [ [ 73.219691580221621, 18.541763891865426 ], [ 73.219720516375745, 18.541585706074262 ], [ 73.219836260992224, 18.541433410526253 ], [ 73.219881949656624, 18.541208013115206 ], [ 73.219956574475162, 18.540792246269145 ], [ 73.219947436742288, 18.540627767077297 ], [ 73.219892610344999, 18.540588170234816 ], [ 73.219831692125823, 18.540579793979674 ], [ 73.219752498440855, 18.54049374699505 ], [ 73.219697672043566, 18.540323175981285 ] ] ] } },
{ "type": "Feature", "properties": { "fid": 10, "id": null }, "geometry": { "type": "MultiLineString", "coordinates": [ [ [ 73.220701299704984, 18.543995021643717 ], [ 73.220829227965311, 18.543824450629952 ], [ 73.220914513472195, 18.543624943462063 ], [ 73.220949541448235, 18.543282278479051 ], [ 73.220943449626319, 18.543133028842004 ], [ 73.220908421650279, 18.542829960701468 ], [ 73.220902329828348, 18.54261826988974 ], [ 73.220905375739335, 18.54216747506765 ], [ 73.2208855773181, 18.541961876077842 ], [ 73.220881008451656, 18.541857553627452 ], [ 73.220952587359221, 18.541686982613683 ], [ 73.22100969818969, 18.541567430608506 ], [ 73.22121682013497, 18.541300913399496 ], [ 73.22120311353568, 18.540994799348006 ], [ 73.221140672361003, 18.540787677402719 ], [ 73.221125442806212, 18.54056532590263 ], [ 73.221175700337071, 18.540486132217662 ], [ 73.22144221754607, 18.540230275697013 ], [ 73.221509227587205, 18.540001070897265 ], [ 73.221529787486148, 18.539815270328699 ], [ 73.221645532102656, 18.539562459719008 ], [ 73.221660761657461, 18.539463467612801 ], [ 73.221663807568419, 18.539065976232511 ], [ 73.221651623924586, 18.538572538656972 ], [ 73.221636394369824, 18.537945080999187 ] ] ] } },
{ "type": "Feature", "properties": { "fid": 11, "id": null }, "geometry": { "type": "MultiLineString", "coordinates": [ [ [ 73.220900806873161, 18.542137777435784 ], [ 73.221176461815048, 18.542153006990581 ], [ 73.221401859226106, 18.542061629661781 ], [ 73.221601366393983, 18.542017463952856 ], [ 73.221717111010477, 18.54203421646314 ] ] ] } },
{ "type": "Feature", "properties": { "fid": 12, "id": null }, "geometry": { "type": "MultiLineString", "coordinates": [ [ [ 73.221100314041053, 18.541488998401274 ], [ 73.221368354205552, 18.541548393664996 ] ] ] } },
{ "type": "Feature", "properties": { "fid": 13, "id": null }, "geometry": { "type": "MultiLineString", "coordinates": [ [ [ 73.221223673434963, 18.541082369288105 ], [ 73.221581567972777, 18.541131103863467 ], [ 73.221803919472876, 18.541083892243584 ] ] ] } },
{ "type": "Feature", "properties": { "fid": 14, "id": null }, "geometry": { "type": "MultiLineString", "coordinates": [ [ [ 73.221583090928263, 18.541134149774429 ], [ 73.221727771698866, 18.542102749459747 ], [ 73.221785644007099, 18.542349468247515 ], [ 73.22181762607218, 18.542401248733835 ], [ 73.221998857774309, 18.5425261310832 ] ] ] } },
{ "type": "Feature", "properties": { "fid": 15, "id": null }, "geometry": { "type": "MultiLineString", "coordinates": [ [ [ 73.221184076592479, 18.540482324828972 ], [ 73.221101836996567, 18.540272156972723 ], [ 73.220996753068434, 18.540238651952162 ] ] ] } },
{ "type": "Feature", "properties": { "fid": 16, "id": null }, "geometry": { "type": "MultiLineString", "coordinates": [ [ [ 73.221342463962415, 18.540337644058365 ], [ 73.221526741575502, 18.540465572318691 ], [ 73.22195926093184, 18.540502884727953 ] ] ] } },
{ "type": "Feature", "properties": { "fid": 17, "id": null }, "geometry": { "type": "MultiLineString", "coordinates": [ [ [ 73.221471915178213, 18.540138898368223 ], [ 73.221586136839221, 18.540204385453865 ] ] ] } },
{ "type": "Feature", "properties": { "fid": 18, "id": null }, "geometry": { "type": "MultiLineString", "coordinates": [ [ [ 73.22152750305321, 18.539800040773912 ], [ 73.221926517388994, 18.539868573770516 ], [ 73.221955453543117, 18.539871619681474 ] ] ] } },
{ "type": "Feature", "properties": { "fid": 19, "id": null }, "geometry": { "type": "MultiLineString", "coordinates": [ [ [ 73.221582329450499, 18.539711709356077 ], [ 73.221372161594246, 18.539673635469075 ] ] ] } },
{ "type": "Feature", "properties": { "fid": 20, "id": null }, "geometry": { "type": "MultiLineString", "coordinates": [ [ [ 73.221663046090967, 18.539486311945026 ], [ 73.222380358122081, 18.53955027607519 ], [ 73.222421477920037, 18.539582258140271 ], [ 73.222423000875523, 18.539694956845793 ], [ 73.222445845207716, 18.539749783243078 ], [ 73.22249610273856, 18.539777196441719 ], [ 73.222656013063954, 18.539985841342482 ], [ 73.22277328063592, 18.540192963287769 ], [ 73.22281287747839, 18.540232560130253 ], [ 73.222898162985288, 18.540301093126846 ], [ 73.223009338735324, 18.540372672034408 ], [ 73.223231690235409, 18.540474710051573 ], [ 73.223449472869063, 18.540553903736534 ], [ 73.223543896108822, 18.540576748068734 ], [ 73.223575878173904, 18.540564564424894 ], [ 73.223725127810994, 18.540445012419717 ], [ 73.223890368480582, 18.540374194989894 ], [ 73.223955094088467, 18.540330790758716 ], [ 73.223987076153549, 18.540289670960753 ], [ 73.223993167975465, 18.540261496284373 ], [ 73.223980222853882, 18.540222660919632 ], [ 73.223889607002803, 18.540057420250044 ] ] ] } },
{ "type": "Feature", "properties": { "fid": 21, "id": null }, "geometry": { "type": "MultiLineString", "coordinates": [ [ [ 73.221653908358093, 18.539222840646975 ], [ 73.222145822978149, 18.539228932468898 ], [ 73.222166002138238, 18.539228170991155 ] ] ] } },
{ "type": "Feature", "properties": { "fid": 22, "id": null }, "geometry": { "type": "MultiLineString", "coordinates": [ [ [ 73.221644009147468, 18.538206267864044 ], [ 73.221892250890718, 18.538203221953086 ], [ 73.222197603464423, 18.538113367579758 ], [ 73.222436707474785, 18.538085954381117 ] ] ] } },
{ "type": "Feature", "properties": { "fid": 23, "id": null }, "geometry": { "type": "MultiLineString", "coordinates": [ [ [ 73.221931847733131, 18.537518653464797 ], [ 73.222044546438653, 18.537642012858683 ], [ 73.222102418746886, 18.537686178567604 ], [ 73.222204456764061, 18.537928328488931 ], [ 73.222230347007212, 18.538123266790379 ] ] ] } },
{ "type": "Feature", "properties": { "fid": 24, "id": null }, "geometry": { "type": "MultiLineString", "coordinates": [ [ [ 73.222192273120214, 18.537893300512891 ], [ 73.222262329072294, 18.537864364358771 ], [ 73.222780133935515, 18.53787197913617 ], [ 73.223025329767793, 18.537949649865656 ] ] ] } },
{ "type": "Feature", "properties": { "fid": 25, "id": null }, "geometry": { "type": "MultiLineString", "coordinates": [ [ [ 73.222073482592748, 18.537380825993861 ], [ 73.222347614579121, 18.537409762147981 ], [ 73.222767950291626, 18.537508754254183 ] ] ] } },
{ "type": "Feature", "properties": { "fid": 26, "id": null }, "geometry": { "type": "MultiLineString", "coordinates": [ [ [ 73.217731536519125, 18.54085925631033 ], [ 73.217663003522517, 18.540936927039812 ], [ 73.217487863642319, 18.541034396190536 ], [ 73.217346228782674, 18.541133388296739 ] ] ] } },
{ "type": "Feature", "properties": { "fid": 27, "id": null }, "geometry": { "type": "MultiLineString", "coordinates": [ [ [ 73.217565534371843, 18.540767878981544 ], [ 73.217532029351247, 18.540584362846175 ], [ 73.217530506395775, 18.540368103168007 ], [ 73.217599039392354, 18.540004116808273 ], [ 73.21769041672114, 18.539798517818461 ], [ 73.217661480567031, 18.539559413808096 ], [ 73.217649296923184, 18.539230455424402 ], [ 73.217720875830764, 18.53872026533859 ], [ 73.217646251012269, 18.538517712259743 ], [ 73.217608177125257, 18.538277085293892 ], [ 73.217635590323894, 18.537951172821153 ], [ 73.217726967652709, 18.537677040834744 ], [ 73.217733059474639, 18.537495809132619 ] ] ] } },
{ "type": "Feature", "properties": { "fid": 28, "id": null }, "geometry": { "type": "MultiLineString", "coordinates": [ [ [ 73.217557158116747, 18.540256165940242 ], [ 73.21724038337689, 18.540205908409401 ] ] ] } },
{ "type": "Feature", "properties": { "fid": 29, "id": null }, "geometry": { "type": "MultiLineString", "coordinates": [ [ [ 73.217668333866783, 18.539617286116346 ], [ 73.218033081704263, 18.539576166318387 ], [ 73.218230304438947, 18.539551799030701 ], [ 73.218428288651324, 18.539525908787546 ], [ 73.218734402702822, 18.539472605345747 ], [ 73.218967414891296, 18.539446715102578 ], [ 73.218987213312559, 18.539444049930495 ], [ 73.219588019249429, 18.539244162023731 ] ] ] } },
{ "type": "Feature", "properties": { "fid": 30, "id": null }, "geometry": { "type": "MultiLineString", "coordinates": [ [ [ 73.220751557236198, 18.538152202944538 ], [ 73.220647234785815, 18.538034935372576 ], [ 73.220492654804616, 18.537934420310886 ], [ 73.220372341321692, 18.537858272536884 ], [ 73.220325129701806, 18.537809537961522 ], [ 73.220235275328491, 18.537619168526511 ], [ 73.220171311198328, 18.537456212290145 ], [ 73.220105824112693, 18.537061766820816 ], [ 73.220095163424332, 18.536812002122087 ], [ 73.220099732290777, 18.536629247464479 ], [ 73.220081456825014, 18.536511979892516 ], [ 73.220069273181153, 18.53638405163219 ], [ 73.220069273181153, 18.536304857947229 ], [ 73.220086025691444, 18.536202819930072 ], [ 73.220185017797661, 18.536050524382066 ] ] ] } },
{ "type": "Feature", "properties": { "fid": 31, "id": null }, "geometry": { "type": "MultiLineString", "coordinates": [ [ [ 73.220350258467292, 18.537833143771483 ], [ 73.220159889032288, 18.537956503165368 ], [ 73.22007003465896, 18.537996100007849 ], [ 73.219884234090401, 18.538032650939371 ], [ 73.219639038258109, 18.538133166001057 ], [ 73.21937708991554, 18.538276323816181 ], [ 73.219366429227165, 18.538353994545663 ], [ 73.219396126858996, 18.538631172443029 ], [ 73.219371759571331, 18.539048462244569 ], [ 73.219405264591899, 18.539152023217213 ], [ 73.219492834531991, 18.539228932468955 ], [ 73.219632184958385, 18.539271575222404 ], [ 73.220107347068165, 18.539343154129966 ] ] ] } },
{ "type": "Feature", "properties": { "fid": 32, "id": null }, "geometry": { "type": "MultiLineString", "coordinates": [ [ [ 73.220204816218981, 18.537556727351848 ], [ 73.220383002010152, 18.537331329940798 ], [ 73.220517022092395, 18.537099840707828 ], [ 73.220520068003339, 18.536942976293382 ] ] ] } },
{ "type": "Feature", "properties": { "fid": 33, "id": null }, "geometry": { "type": "MultiLineString", "coordinates": [ [ [ 73.222171713221499, 18.537016078156423 ], [ 73.222095565447489, 18.536921654916657 ], [ 73.221976774920051, 18.536257646327357 ], [ 73.222049876783117, 18.535051465587149 ], [ 73.22202246358448, 18.534242776227227 ], [ 73.222080335892699, 18.533814825737338 ], [ 73.222087189192365, 18.533325957028236 ], [ 73.222126786034849, 18.533149294192548 ], [ 73.222108510569086, 18.532881254028059 ], [ 73.222151153322528, 18.532442642849805 ], [ 73.222209025630775, 18.53197052665098 ], [ 73.222236438829412, 18.531714670130331 ], [ 73.222239484740371, 18.531589787780963 ], [ 73.222190750165012, 18.531434446321999 ], [ 73.222175520610193, 18.531336977171279 ], [ 73.222199887897872, 18.531132901136949 ], [ 73.222282127493798, 18.53084353959574 ], [ 73.2224207164425, 18.530441479349005 ], [ 73.222621746565864, 18.529873416954949 ], [ 73.222739775615551, 18.52954065118255 ], [ 73.222777849502577, 18.529428713954772 ], [ 73.222755005170384, 18.529180472211522 ], [ 73.222447368163401, 18.52885912860523 ], [ 73.222218924841386, 18.528776889009308 ], [ 73.222139731156403, 18.528668759170223 ], [ 73.222214355974927, 18.528269744834446 ], [ 73.222508286382592, 18.528237762769361 ], [ 73.222859327620725, 18.528287258822473 ], [ 73.222921768795402, 18.528640584493843 ] ] ] } },
{ "type": "Feature", "properties": { "fid": 34, "id": null }, "geometry": { "type": "MultiLineString", "coordinates": [ [ [ 73.216576374787763, 18.538778899124605 ], [ 73.217666049433745, 18.5391345092292 ] ] ] } },
{ "type": "Feature", "properties": { "fid": 35, "id": null }, "geometry": { "type": "MultiLineString", "coordinates": [ [ [ 73.217097987039693, 18.539364475506687 ], [ 73.217187841413008, 18.538974598903792 ] ] ] } },
{ "type": "Feature", "properties": { "fid": 36, "id": null }, "geometry": { "type": "MultiLineString", "coordinates": [ [ [ 73.219370236615958, 18.538336480557646 ], [ 73.219202711513148, 18.538333434646685 ], [ 73.219201188557676, 18.538280131204882 ], [ 73.219097627585029, 18.538200937519921 ], [ 73.219065645519947, 18.538129358612355 ], [ 73.218652924584845, 18.53799381557463 ], [ 73.21879912831092, 18.537768418163594 ], [ 73.21887527608493, 18.537608507838186 ], [ 73.219134939994262, 18.536785350401214 ] ] ] } },
{ "type": "Feature", "properties": { "fid": 37, "id": null }, "geometry": { "type": "MultiLineString", "coordinates": [ [ [ 73.220103158940702, 18.537016458895316 ], [ 73.219795521933733, 18.537019504806278 ], [ 73.219391938731533, 18.536955540676111 ], [ 73.218997493262194, 18.536689023467098 ], [ 73.218740875263777, 18.536631912636601 ], [ 73.218542129573649, 18.536510076198208 ], [ 73.218445421900654, 18.536351688828283 ], [ 73.218350237183159, 18.536022730444596 ], [ 73.21829084191944, 18.535418117119008 ], [ 73.218223831878305, 18.535209472218249 ], [ 73.218079151107702, 18.53502671756064 ], [ 73.217832432319938, 18.534857669502355 ], [ 73.217410573651961, 18.534653593468025 ], [ 73.217279599480676, 18.534554601361823 ], [ 73.217148625309392, 18.534397736947376 ], [ 73.217064862757979, 18.534243918443892 ], [ 73.216960540307582, 18.534042126842785 ], [ 73.216923227898334, 18.533976639757139 ], [ 73.216860025245921, 18.533887546861553 ], [ 73.216664325466709, 18.533763425989925 ], [ 73.216617875324573, 18.533736012791284 ], [ 73.216578278482089, 18.533700223337501 ], [ 73.21648766263101, 18.533596662364854 ], [ 73.216335367083005, 18.533531175279212 ], [ 73.216180025624041, 18.533471780015489 ], [ 73.216030775986994, 18.533388017464087 ], [ 73.215924169103388, 18.533322530378449 ], [ 73.215717808635901, 18.533249428515411 ], [ 73.215658413372182, 18.533224299749989 ], [ 73.215611963230032, 18.533155766753389 ], [ 73.215559421265979, 18.532977580962221 ], [ 73.21552439328994, 18.532802441082016 ], [ 73.215474135759095, 18.532651668489489 ], [ 73.215336689027012, 18.532347458132346 ], [ 73.215225132538123, 18.532153281308648 ], [ 73.215139847031239, 18.531950728229798 ], [ 73.215017629853946, 18.531711243480562 ], [ 73.215008492121072, 18.531633572751076 ], [ 73.215160787669063, 18.531194961572819 ], [ 73.215300899573222, 18.530619284401357 ], [ 73.215352680059553, 18.530299463750545 ], [ 73.215360294836955, 18.530081681116897 ], [ 73.215354203015025, 18.529964413544931 ], [ 73.215328312771874, 18.52985780666133 ], [ 73.215276532285543, 18.529763383421564 ], [ 73.215165356535522, 18.529674290525978 ], [ 73.215124236737566, 18.529636216638977 ], [ 73.215097585016665, 18.529597381274236 ], [ 73.215086162850611, 18.529478590746795 ], [ 73.215084639895124, 18.529350662486468 ], [ 73.215125759693095, 18.529064346856217 ], [ 73.215156980280412, 18.52897677691611 ], [ 73.215221705888311, 18.528851894566746 ], [ 73.215284147063002, 18.528785646003357 ], [ 73.215318413561306, 18.528755186893758 ], [ 73.215379331780511, 18.528691984241334 ], [ 73.215404460545926, 18.52861202907863 ], [ 73.215412075323314, 18.528550349381689 ], [ 73.215464617287381, 18.528487146729269 ], [ 73.215549902794265, 18.528413283388485 ], [ 73.215701436864521, 18.528273932962058 ], [ 73.215821750347445, 18.528194739277094 ], [ 73.215907035854329, 18.528149050612694 ], [ 73.215949678607771, 18.52808508648253 ], [ 73.215967954073562, 18.528036351907165 ], [ 73.215980137717395, 18.527906900691359 ], [ 73.215990036928019, 18.527774403564592 ], [ 73.215980899195131, 18.527724907511491 ], [ 73.215960339296146, 18.527678457369351 ], [ 73.215953485996479, 18.527593933340206 ], [ 73.21596338520709, 18.527466766557616 ], [ 73.21600907387149, 18.527335792386332 ], [ 73.216048670713974, 18.527239846191087 ], [ 73.216051716624932, 18.527180450927364 ], [ 73.216036487070127, 18.527125624530083 ], [ 73.215894852210511, 18.52680580387927 ], [ 73.215821750347459, 18.526659600153184 ], [ 73.215760070650532, 18.526536240759295 ], [ 73.215737226318325, 18.526496643916811 ], [ 73.215713620508396, 18.52644714786371 ], [ 73.215715143463868, 18.526404505110268 ], [ 73.215752455873115, 18.52634282541333 ], [ 73.215799667492988, 18.526287237538309 ], [ 73.215856778323499, 18.526236980007464 ], [ 73.216084460167735, 18.52611818948002 ], [ 73.216244370493143, 18.526052702394377 ], [ 73.216325848611319, 18.526020720329296 ], [ 73.216453776871646, 18.525952187332702 ], [ 73.216519263957295, 18.525889746158022 ], [ 73.21654972306689, 18.525789231096336 ], [ 73.216548200111447, 18.525705468544935 ], [ 73.21661216424161, 18.525487685911287 ], [ 73.216700495659452, 18.525253150767355 ], [ 73.216752276145755, 18.525113038863203 ], [ 73.216814717320432, 18.524957697404236 ], [ 73.216840607563597, 18.524904393962434 ], [ 73.216878681450595, 18.524819108455556 ], [ 73.216889342138955, 18.524747529547994 ] ] ] } },
{ "type": "Feature", "properties": { "fid": 38, "id": null }, "geometry": { "type": "MultiLineString", "coordinates": [ [ [ 73.222847143977006, 18.53631894528548 ], [ 73.223226359891541, 18.536420983302641 ], [ 73.223297938799107, 18.536558049295849 ], [ 73.223826404350689, 18.536734712131526 ], [ 73.223843156860966, 18.53679715330621 ], [ 73.223768532042484, 18.536949448854223 ], [ 73.223727412244514, 18.536958586587104 ], [ 73.223276617422428, 18.536778877840458 ], [ 73.223297938799149, 18.536555003384887 ] ] ] } },
{ "type": "Feature", "properties": { "fid": 39, "id": null }, "geometry": { "type": "MultiLineString", "coordinates": [ [ [ 73.223061880699703, 18.535957243358961 ], [ 73.223437289225558, 18.53612781437273 ], [ 73.22344490400296, 18.536005977934327 ] ] ] } },
{ "type": "Feature", "properties": { "fid": 40, "id": null }, "geometry": { "type": "MultiLineString", "coordinates": [ [ [ 73.223048174100427, 18.53594810562609 ], [ 73.223310122442996, 18.535717377870856 ], [ 73.223569024874593, 18.535411263819366 ], [ 73.223692384268489, 18.535289427380967 ] ] ] } },
{ "type": "Feature", "properties": { "fid": 41, "id": null }, "geometry": { "type": "MultiLineString", "coordinates": [ [ [ 73.223607098761605, 18.535373189932368 ], [ 73.223555318275288, 18.535263537137805 ] ] ] } },
{ "type": "Feature", "properties": { "fid": 42, "id": null }, "geometry": { "type": "MultiLineString", "coordinates": [ [ [ 73.223575116696523, 18.535426493374171 ], [ 73.223666494025323, 18.535479796815974 ], [ 73.223760917265096, 18.535487411593373 ], [ 73.224047232895344, 18.535345776733728 ], [ 73.224138610224145, 18.53545086066185 ], [ 73.224129472491271, 18.535527008435857 ], [ 73.22403542999038, 18.535639707141375 ], [ 73.224019058218957, 18.535685015066907 ], [ 73.224036572206984, 18.535756593974469 ], [ 73.224094444515202, 18.53581218184949 ], [ 73.224309181237885, 18.535947724887215 ], [ 73.224734847294556, 18.536247747116786 ], [ 73.224765306404166, 18.536259930760625 ], [ 73.22481480245726, 18.536255361894185 ], [ 73.224866582943591, 18.536209673229784 ], [ 73.22515213709606, 18.535966000352978 ], [ 73.225270927623512, 18.535742125897407 ], [ 73.225324231065315, 18.535691868366566 ], [ 73.225423223171546, 18.535410121602755 ], [ 73.225494802079083, 18.53523422024481 ], [ 73.225491756168111, 18.535173302025608 ], [ 73.225447590459197, 18.535069741052965 ], [ 73.225452159325641, 18.535024052388561 ], [ 73.225526784144179, 18.534890032306311 ], [ 73.225569426897621, 18.534781902467227 ], [ 73.225581610541482, 18.53465092829595 ], [ 73.225586179407927, 18.534558028011666 ], [ 73.225546582565443, 18.534483403193143 ], [ 73.225502416856514, 18.534402686552699 ], [ 73.225479572524321, 18.534347860155417 ] ] ] } },
{ "type": "Feature", "properties": { "fid": 43, "id": null }, "geometry": { "type": "MultiLineString", "coordinates": [ [ [ 73.225308620771685, 18.535713570482155 ], [ 73.2255576239927, 18.535784768650853 ], [ 73.225581229802643, 18.535811420371754 ], [ 73.225481476218675, 18.536055854726307 ], [ 73.225404566966901, 18.536256123371942 ], [ 73.225352786480585, 18.536376436854866 ], [ 73.225237041864091, 18.536543961957673 ], [ 73.225121297247611, 18.536662752485118 ], [ 73.22505885607292, 18.536671890217999 ], [ 73.225000983764673, 18.536700064894379 ], [ 73.224966717266355, 18.536790680745437 ], [ 73.224870771071082, 18.537085372630841 ], [ 73.224809852851877, 18.537230053401444 ], [ 73.224652988437455, 18.537565103607061 ], [ 73.224564657019613, 18.537738720531788 ], [ 73.224421499204496, 18.537951934298995 ], [ 73.224401700783233, 18.537996861485652 ], [ 73.224413122949358, 18.538212359686089 ], [ 73.224372003151402, 18.538390545477252 ] ] ] } },
{ "type": "Feature", "properties": { "fid": 44, "id": null }, "geometry": { "type": "MultiLineString", "coordinates": [ [ [ 73.223301746187829, 18.535728419298103 ], [ 73.223412921937907, 18.535812943327244 ], [ 73.22368400801335, 18.535977422519089 ] ] ] } },
{ "type": "Feature", "properties": { "fid": 45, "id": null }, "geometry": { "type": "MultiLineString", "coordinates": [ [ [ 73.224370860934854, 18.535985037296498 ], [ 73.22448355964039, 18.535847971303291 ], [ 73.224486605551348, 18.535695675755285 ], [ 73.224450054619822, 18.53558906887168 ], [ 73.224352585469106, 18.535503783364799 ], [ 73.224200289921086, 18.535452002878475 ], [ 73.224133279879965, 18.535452002878475 ] ] ] } },
{ "type": "Feature", "properties": { "fid": 46, "id": null }, "geometry": { "type": "MultiLineString", "coordinates": [ [ [ 73.225318139243498, 18.534309024790691 ], [ 73.225246560335933, 18.534407255419154 ], [ 73.225012786669723, 18.534577826432919 ], [ 73.224852876344315, 18.534675295583643 ], [ 73.224740177638793, 18.534702708782284 ], [ 73.224566560714095, 18.534784948378199 ], [ 73.224403604477729, 18.534815407487802 ], [ 73.224277199172889, 18.534844343641922 ], [ 73.22415231682352, 18.534912876638526 ], [ 73.224045709939915, 18.535005776922809 ] ] ] } },
{ "type": "Feature", "properties": { "fid": 47, "id": null }, "geometry": { "type": "MultiLineString", "coordinates": [ [ [ 73.223925396457005, 18.534238207360868 ], [ 73.22357054783015, 18.534024993593661 ], [ 73.223530950987666, 18.53395189173062 ], [ 73.223573593741136, 18.533685374521614 ], [ 73.223590346251413, 18.533485867353725 ], [ 73.223718274511768, 18.532727435524659 ] ] ] } },
{ "type": "Feature", "properties": { "fid": 48, "id": null }, "geometry": { "type": "MultiLineString", "coordinates": [ [ [ 73.228137891314901, 18.532363449164915 ], [ 73.228727275085703, 18.533027457754226 ], [ 73.228768394883659, 18.533310727473513 ] ] ] } },
{ "type": "Feature", "properties": { "fid": 49, "id": null }, "geometry": { "type": "MultiLineString", "coordinates": [ [ [ 73.224904276091848, 18.534013190688697 ], [ 73.225047433907051, 18.533690324126933 ], [ 73.22510682917077, 18.533356796876799 ], [ 73.225169270345432, 18.532963874362949 ], [ 73.225230188564666, 18.532225240955114 ], [ 73.225286537917441, 18.532112542249589 ] ] ] } },
{ "type": "Feature", "properties": { "fid": 50, "id": null }, "geometry": { "type": "MultiLineString", "coordinates": [ [ [ 73.22357778186884, 18.533507569469322 ], [ 73.223233593930345, 18.533379641209006 ], [ 73.22288331416992, 18.533305016390482 ] ] ] } },
{ "type": "Feature", "properties": { "fid": 51, "id": null }, "geometry": { "type": "MultiLineString", "coordinates": [ [ [ 73.222085285498366, 18.533327860722686 ], [ 73.222424904570431, 18.533375072342569 ], [ 73.222724926800012, 18.533445128294652 ], [ 73.222805643440452, 18.53342989873985 ], [ 73.22287874530349, 18.533376595298051 ], [ 73.222968599676818, 18.533081141934918 ], [ 73.222980783320651, 18.533033930315035 ], [ 73.222951847166527, 18.532857267479347 ], [ 73.22288940599185, 18.532720201486143 ], [ 73.2227767072863, 18.532537446828542 ], [ 73.222749294087663, 18.53246586792098 ], [ 73.222775184330828, 18.532219149133208 ], [ 73.22281782708427, 18.531966338523514 ], [ 73.222863515748685, 18.531861254595391 ], [ 73.222968599676804, 18.531477469814416 ] ] ] } },
{ "type": "Feature", "properties": { "fid": 52, "id": null }, "geometry": { "type": "MultiLineString", "coordinates": [ [ [ 73.222231489224455, 18.531558186454859 ], [ 73.222746248176719, 18.53155057167746 ], [ 73.222945755344611, 18.531576461920622 ] ] ] } },
{ "type": "Feature", "properties": { "fid": 53, "id": null }, "geometry": { "type": "MultiLineString", "coordinates": [ [ [ 73.222138588940169, 18.532564860027179 ], [ 73.222292407443661, 18.53255724524978 ], [ 73.222411197971113, 18.532517648407296 ], [ 73.22244927185811, 18.532450638366175 ], [ 73.222507144166329, 18.531932833502953 ] ] ] } },
{ "type": "Feature", "properties": { "fid": 54, "id": null }, "geometry": { "type": "MultiLineString", "coordinates": [ [ [ 73.222817827084256, 18.531972430345434 ], [ 73.222513235988245, 18.531929787591995 ], [ 73.222229966268955, 18.531884098927591 ], [ 73.221824860111269, 18.531896282571431 ] ] ] } },
{ "type": "Feature", "properties": { "fid": 55, "id": null }, "geometry": { "type": "MultiLineString", "coordinates": [ [ [ 73.222132497118238, 18.532471959742896 ], [ 73.221709115494775, 18.532444546544255 ], [ 73.220959821398594, 18.532514602496338 ], [ 73.220576036617658, 18.532555722294298 ] ] ] } },
{ "type": "Feature", "properties": { "fid": 56, "id": null }, "geometry": { "type": "MultiLineString", "coordinates": [ [ [ 73.220909563867778, 18.532135386581807 ], [ 73.220997895285635, 18.532843560880035 ], [ 73.22037652944978, 18.53297453505132 ], [ 73.220430594369333, 18.533295117179875 ], [ 73.221355028345741, 18.533168711875039 ], [ 73.221452497496472, 18.533112362522278 ], [ 73.221513415715663, 18.533028599970873 ], [ 73.221560627335549, 18.532934176731111 ], [ 73.221600224178033, 18.532816909159145 ], [ 73.221626114421198, 18.532457491665845 ] ] ] } },
{ "type": "Feature", "properties": { "fid": 57, "id": null }, "geometry": { "type": "MultiLineString", "coordinates": [ [ [ 73.221172273688154, 18.532139193970515 ], [ 73.220857021903782, 18.532166607169156 ], [ 73.220459530523485, 18.532245800854117 ] ] ] } },
{ "type": "Feature", "properties": { "fid": 58, "id": null }, "geometry": { "type": "MultiLineString", "coordinates": [ [ [ 73.222085285498466, 18.536910613489542 ], [ 73.22200913772447, 18.536901475756665 ], [ 73.221958118715889, 18.536873301080281 ], [ 73.221926136650808, 18.536838273104241 ], [ 73.2218781635532, 18.536744611342211 ], [ 73.221855319220992, 18.536628866725728 ], [ 73.221838566710701, 18.536257265588599 ], [ 73.22180201577919, 18.535375474365647 ], [ 73.221798969868217, 18.535150076954594 ] ] ] } },
{ "type": "Feature", "properties": { "fid": 59, "id": null }, "geometry": { "type": "MultiLineString", "coordinates": [ [ [ 73.222025128757039, 18.535349584122486 ], [ 73.221917760395698, 18.535399841653327 ], [ 73.221851511832313, 18.535430300762929 ], [ 73.221720537661028, 18.535437915540328 ], [ 73.221664949786017, 18.535431823718405 ], [ 73.221597559006014, 18.535408217908465 ], [ 73.22155263181935, 18.535382708404175 ], [ 73.221430795380954, 18.535373951410165 ], [ 73.221113639902185, 18.535432585196155 ], [ 73.220839507915784, 18.535495026370835 ], [ 73.220647615525309, 18.535533100257837 ], [ 73.220492274066345, 18.5356199087202 ], [ 73.220502173276998, 18.535792002689444 ], [ 73.220497604410568, 18.535912316172372 ], [ 73.220450392790696, 18.536069180586818 ], [ 73.220182352626196, 18.536060042853936 ], [ 73.220090975297396, 18.535948867103897 ], [ 73.219915835417197, 18.535827030665491 ], [ 73.21949549970472, 18.535726515603809 ], [ 73.219506160393081, 18.535580311877723 ], [ 73.219446765129362, 18.535484365682478 ], [ 73.219297515492315, 18.535391465398195 ], [ 73.219286854803954, 18.535316840579672 ], [ 73.219352341889604, 18.534935340231911 ], [ 73.219487884927318, 18.534512720086195 ] ] ] } },
{ "type": "Feature", "properties": { "fid": 60, "id": null }, "geometry": { "type": "MultiLineString", "coordinates": [ [ [ 73.23152380208623, 18.531456148437709 ], [ 73.231596903949281, 18.531695252448081 ], [ 73.232270050271453, 18.532493281119638 ], [ 73.23296756388136, 18.53299890233902 ], [ 73.233089400319756, 18.533513661291288 ], [ 73.233001068901913, 18.533824344209219 ] ] ] } },
{ "type": "Feature", "properties": { "fid": 61, "id": null }, "geometry": { "type": "MultiLineString", "coordinates": [ [ [ 73.233034573922481, 18.53333090663368 ], [ 73.232291371648216, 18.533717737325617 ], [ 73.232072066059075, 18.533681186394094 ] ] ] } },
{ "type": "Feature", "properties": { "fid": 62, "id": null }, "geometry": { "type": "MultiLineString", "coordinates": [ [ [ 73.222081478109871, 18.533847188541419 ], [ 73.221822575678274, 18.533816729431816 ], [ 73.221572810979538, 18.533825867164698 ], [ 73.221173796643768, 18.5339134371048 ], [ 73.221204255753349, 18.534080962207607 ] ] ] } },
{ "type": "Feature", "properties": { "fid": 63, "id": null }, "geometry": { "type": "MultiLineString", "coordinates": [ [ [ 73.22202512875711, 18.534248487310414 ], [ 73.221703785150808, 18.534257625043296 ] ] ] } },
{ "type": "Feature", "properties": { "fid": 64, "id": null }, "geometry": { "type": "MultiLineString", "coordinates": [ [ [ 73.219707190516431, 18.535807993721996 ], [ 73.219672162540391, 18.535888710362439 ], [ 73.219615813187602, 18.536234421256413 ] ] ] } },
{ "type": "Feature", "properties": { "fid": 65, "id": null }, "geometry": { "type": "MultiLineString", "coordinates": [ [ [ 73.21978638420137, 18.535795810078156 ], [ 73.219850348331533, 18.535558229023266 ], [ 73.219877761530185, 18.535381566187581 ] ] ] } },
{ "type": "Feature", "properties": { "fid": 66, "id": null }, "geometry": { "type": "MultiLineString", "coordinates": [ [ [ 73.22197867861496, 18.536261834455047 ], [ 73.221483718083945, 18.536211576924206 ], [ 73.221431937597615, 18.536202439191324 ], [ 73.221372542333896, 18.536130860283762 ], [ 73.2213420832243, 18.536024253400157 ], [ 73.221364927556493, 18.535914600605594 ], [ 73.221530929703832, 18.535640468619182 ], [ 73.221564434724385, 18.535384612098532 ] ] ] } },
{ "type": "Feature", "properties": { "fid": 67, "id": null }, "geometry": { "type": "MultiLineString", "coordinates": [ [ [ 73.221346652090688, 18.536031868177556 ], [ 73.220798388117871, 18.536082125708397 ], [ 73.220609541638353, 18.535328262745775 ], [ 73.220544054552732, 18.534865284279835 ], [ 73.220489228155458, 18.53474040193047 ], [ 73.220484659288971, 18.53437793852622 ], [ 73.220470952689652, 18.534161678848054 ], [ 73.220422218114265, 18.533596662364953 ], [ 73.220400896737544, 18.533401724063506 ], [ 73.220422218114265, 18.533289025357981 ] ] ] } },
{ "type": "Feature", "properties": { "fid": 68, "id": null }, "geometry": { "type": "MultiLineString", "coordinates": [ [ [ 73.220455723134833, 18.533901253460968 ], [ 73.220828847227452, 18.533893638683566 ] ] ] } },
{ "type": "Feature", "properties": { "fid": 69, "id": null }, "geometry": { "type": "MultiLineString", "coordinates": [ [ [ 73.220460292001277, 18.534039842409651 ], [ 73.219686630617446, 18.534106852450773 ] ] ] } },
{ "type": "Feature", "properties": { "fid": 70, "id": null }, "geometry": { "type": "MultiLineString", "coordinates": [ [ [ 73.220484659288985, 18.534394691036514 ], [ 73.219924211672335, 18.534412966502273 ], [ 73.219915073939447, 18.534681006666766 ] ] ] } },
{ "type": "Feature", "properties": { "fid": 71, "id": null }, "geometry": { "type": "MultiLineString", "coordinates": [ [ [ 73.220482374855791, 18.534397736947472 ], [ 73.220590504694883, 18.534358140104992 ], [ 73.22081970949462, 18.53434367202793 ] ] ] } },
{ "type": "Feature", "properties": { "fid": 72, "id": null }, "geometry": { "type": "MultiLineString", "coordinates": [ [ [ 73.220818186539148, 18.534488352798533 ], [ 73.220807525850788, 18.534336057250528 ], [ 73.22082580131655, 18.534156348503881 ] ] ] } },
{ "type": "Feature", "properties": { "fid": 73, "id": null }, "geometry": { "type": "MultiLineString", "coordinates": [ [ [ 73.221055006116288, 18.533213639061724 ], [ 73.221102979213896, 18.533415430662831 ] ] ] } },
{ "type": "Feature", "properties": { "fid": 74, "id": null }, "geometry": { "type": "MultiLineString", "coordinates": [ [ [ 73.220432878802683, 18.533727636536241 ], [ 73.220193013314571, 18.533733728358161 ] ] ] } },
{ "type": "Feature", "properties": { "fid": 75, "id": null }, "geometry": { "type": "MultiLineString", "coordinates": [ [ [ 73.220598880950021, 18.535284858514608 ], [ 73.220519687265053, 18.535273436348508 ], [ 73.220310280886551, 18.535301611024888 ] ] ] } },
{ "type": "Feature", "properties": { "fid": 76, "id": null }, "geometry": { "type": "MultiLineString", "coordinates": [ [ [ 73.220394043437992, 18.536085933097123 ], [ 73.220429071414031, 18.536296100953372 ], [ 73.220832654616245, 18.536283917309532 ] ] ] } },
{ "type": "Feature", "properties": { "fid": 77, "id": null }, "geometry": { "type": "MultiLineString", "coordinates": [ [ [ 73.222542933620346, 18.535728038559309 ], [ 73.222606897750495, 18.535514824792099 ], [ 73.22265258641491, 18.535459998394817 ], [ 73.223008957997237, 18.535417355641375 ] ] ] } },
{ "type": "Feature", "properties": { "fid": 78, "id": null }, "geometry": { "type": "MultiLineString", "coordinates": [ [ [ 73.222031220579041, 18.535444768840019 ], [ 73.222427189003852, 18.535657982607226 ], [ 73.2227135046341, 18.535846829086754 ], [ 73.222737871921794, 18.535898609573074 ], [ 73.222381500339466, 18.536315899374614 ], [ 73.222083001065386, 18.536788015573432 ] ] ] } },
{ "type": "Feature", "properties": { "fid": 79, "id": null }, "geometry": { "type": "MultiLineString", "coordinates": [ [ [ 73.222427189003881, 18.53565798260723 ], [ 73.222119551996897, 18.536066134675885 ], [ 73.22197639418178, 18.536200154758131 ] ] ] } },
{ "type": "Feature", "properties": { "fid": 80, "id": null }, "geometry": { "type": "MultiLineString", "coordinates": [ [ [ 73.222265755722987, 18.530921591064246 ], [ 73.222177424305144, 18.530936820619047 ], [ 73.221958118716017, 18.530906361509444 ], [ 73.22112658502391, 18.530909407420406 ], [ 73.220857021903925, 18.530869810577922 ], [ 73.21934929597866, 18.53085001215668 ], [ 73.218959419375764, 18.530773864382677 ] ] ] } },
{ "type": "Feature", "properties": { "fid": 81, "id": null }, "geometry": { "type": "MultiLineString", "coordinates": [ [ [ 73.223464321685739, 18.534681768144505 ], [ 73.22331811795965, 18.534547748062259 ], [ 73.223263291562375, 18.534447233000577 ], [ 73.222754624432028, 18.534508151219779 ] ] ] } },
{ "type": "Feature", "properties": { "fid": 82, "id": null }, "geometry": { "type": "MultiLineString", "coordinates": [ [ [ 73.221205778708836, 18.536041767388195 ], [ 73.221074804537537, 18.535447814750981 ] ] ] } },
{ "type": "Feature", "properties": { "fid": 83, "id": null }, "geometry": { "type": "MultiLineString", "coordinates": [ [ [ 73.220098590074826, 18.536651711057971 ], [ 73.219941725660391, 18.536668463568251 ] ] ] } },
{ "type": "Feature", "properties": { "fid": 84, "id": null }, "geometry": { "type": "MultiLineString", "coordinates": [ [ [ 73.220582889917495, 18.540209335059394 ], [ 73.220194536270085, 18.540061608377826 ], [ 73.220139709872811, 18.540025057446307 ], [ 73.220138186917325, 18.539955001494224 ], [ 73.219993506146722, 18.5398575323435 ] ] ] } },
{ "type": "Feature", "properties": { "fid": 85, "id": null }, "geometry": { "type": "MultiLineString", "coordinates": [ [ [ 73.220885958058076, 18.541852604022385 ], [ 73.220372722061299, 18.541820621957303 ] ] ] } },
{ "type": "Feature", "properties": { "fid": 86, "id": null }, "geometry": { "type": "MultiLineString", "coordinates": [ [ [ 73.218881748646311, 18.537609650054943 ], [ 73.219085824680661, 18.537681990440245 ] ] ] } },
{ "type": "Feature", "properties": { "fid": 87, "id": null }, "geometry": { "type": "MultiLineString", "coordinates": [ [ [ 73.217833955276035, 18.540852022271988 ], [ 73.217846138919882, 18.540746938343865 ], [ 73.218109610217908, 18.54061139530614 ] ] ] } },
{ "type": "Feature", "properties": { "fid": 88, "id": null }, "geometry": { "type": "MultiLineString", "coordinates": [ [ [ 73.218802554961329, 18.537766514469389 ], [ 73.218199464591223, 18.537535025236419 ], [ 73.218074582241854, 18.537440601996657 ], [ 73.218041077221301, 18.537297444181533 ] ] ] } },
{ "type": "Feature", "properties": { "fid": 89, "id": null }, "geometry": { "type": "MultiLineString", "coordinates": [ [ [ 73.218077628152813, 18.537437556085695 ], [ 73.217846138919853, 18.537662953496746 ], [ 73.217724302481443, 18.537723871715947 ], [ 73.217642062885517, 18.537690366695387 ], [ 73.217489767337511, 18.537598989366582 ], [ 73.217243048549776, 18.537245663695206 ], [ 73.217188222152487, 18.536438497290774 ], [ 73.216530305385092, 18.535862820119316 ], [ 73.216049051453382, 18.53567092772883 ], [ 73.215528200679202, 18.535649606352113 ] ] ] } },
{ "type": "Feature", "properties": { "fid": 90, "id": null }, "geometry": { "type": "MultiLineString", "coordinates": [ [ [ 73.218200987546666, 18.537545685924787 ], [ 73.218165959570626, 18.537681228962512 ], [ 73.21815986774871, 18.537807634267359 ], [ 73.218208602324083, 18.538115271274332 ], [ 73.218211648235041, 18.53825842908946 ], [ 73.218263428721372, 18.538486872411472 ], [ 73.218299979652883, 18.538764050308842 ], [ 73.218278658276162, 18.538831060349967 ], [ 73.218153775926808, 18.538913299945889 ], [ 73.21812027090624, 18.538983355897972 ], [ 73.218047169043203, 18.53917829419942 ], [ 73.218047169043203, 18.539272717439182 ], [ 73.218080674063756, 18.539358002946067 ] ] ] } },
{ "type": "Feature", "properties": { "fid": 91, "id": null }, "geometry": { "type": "MultiLineString", "coordinates": [ [ [ 73.219005108040221, 18.541450543775674 ], [ 73.218927437310739, 18.541886870520713 ] ] ] } },
{ "type": "Feature", "properties": { "fid": 92, "id": null }, "geometry": { "type": "MultiLineString", "coordinates": [ [ [ 73.219961524081711, 18.540778158931236 ], [ 73.220454961657239, 18.540776635975757 ] ] ] } },
{ "type": "Feature", "properties": { "fid": 93, "id": null }, "geometry": { "type": "MultiLineString", "coordinates": [ [ [ 73.222416528315563, 18.533375072342668 ], [ 73.222450033336131, 18.533260850681661 ], [ 73.222477446534768, 18.532976058006891 ] ] ] } },
{ "type": "Feature", "properties": { "fid": 94, "id": null }, "geometry": { "type": "MultiLineString", "coordinates": [ [ [ 73.222145442240134, 18.532937984119886 ], [ 73.222606897750595, 18.53298976460621 ], [ 73.222640402771148, 18.53277502788352 ] ] ] } },
{ "type": "Feature", "properties": { "fid": 95, "id": null }, "geometry": { "type": "MultiLineString", "coordinates": [ [ [ 73.222535318843057, 18.530114424659857 ], [ 73.222914534757592, 18.53020732494414 ] ] ] } },
{ "type": "Feature", "properties": { "fid": 96, "id": null }, "geometry": { "type": "MultiLineString", "coordinates": [ [ [ 73.222704366901326, 18.529639262550077 ], [ 73.223056169617223, 18.529607280484996 ], [ 73.22323587836388, 18.529563114776074 ], [ 73.223592249946208, 18.529660583926795 ] ] ] } }
]
}
