{
"type": "FeatureCollection",
"name": "PALI-SUDHAGAD FORT -HH",
"crs": { "type": "name", "properties": { "name": "urn:ogc:def:crs:OGC:1.3:CRS84" } },
"features": [
{ "type": "Feature", "properties": { "fid": 1, "id": null }, "geometry": { "type": "MultiPolygon", "coordinates": [ [ [ [ 73.226686931382076, 18.544515958160883 ], [ 73.226584477096353, 18.543679248160746 ], [ 73.226772309953517, 18.542569326731996 ], [ 73.227438262810765, 18.540998361017454 ], [ 73.228001761382288, 18.541100815303185 ], [ 73.228070064239446, 18.542227812446225 ], [ 73.227967609953708, 18.543474339589284 ], [ 73.227574868525082, 18.54422567101798 ], [ 73.227147975667862, 18.544686715303769 ], [ 73.226686931382076, 18.544515958160883 ] ] ] ] } },
{ "type": "Feature", "properties": { "fid": 2, "id": null }, "geometry": { "type": "MultiPolygon", "coordinates": [ [ [ [ 73.226191735667669, 18.550338776733255 ], [ 73.22547455566756, 18.548767811018717 ], [ 73.224859829953175, 18.546308908161173 ], [ 73.224689072810293, 18.544498882446593 ], [ 73.224791527096016, 18.542893765303475 ], [ 73.225542858524705, 18.54101543673174 ], [ 73.225952675667642, 18.539137108160006 ], [ 73.227079672810675, 18.538351625302735 ], [ 73.22796760995368, 18.537463688159736 ], [ 73.228992152810989, 18.537395385302581 ], [ 73.229709332811098, 18.538454079588469 ], [ 73.229162909953871, 18.542108282446204 ], [ 73.229026304239568, 18.544123216732245 ], [ 73.228070064239404, 18.546752876732672 ], [ 73.227250429953557, 18.548357993875793 ], [ 73.227147975667833, 18.549519142447409 ], [ 73.226191735667669, 18.550338776733255 ] ] ] ] } }
]
}
