{
"type": "FeatureCollection",
"name": "PaliBnd_Reprojected",
"crs": { "type": "name", "properties": { "name": "urn:ogc:def:crs:OGC:1.3:CRS84" } },
"features": [
{ "type": "Feature", "properties": { "MAHA_GVMP_": 37294, "MAHA_GVMP1": 8, "CCODE": "240009000202938200", "NAME": "Dapode", "OTHERS": null, "VIL_CD": "02938200", "DST": "24", "TQ": "0009", "CEN_CD": "02938600", "NAME_E": "Dapode", "T_CODE": "272409", "D_NAME": "Raigad", "T_NAME": "Sudhagad", "T_Name_Old": "Sudhagad", "D_Name_Old": "RAIGAD", "D_CODE": "2724", "Remarks": null, "Type": null, "Disputed": 0, "Shape_Leng": 0.03557325341, "Shape_Area": 7.200144e-05 }, "geometry": { "type": "MultiPolygon", "coordinates": [ [ [ [ 73.223534802151889, 18.559820998473128 ], [ 73.224167443984697, 18.559739687521187 ], [ 73.224266238778895, 18.559726989619094 ], [ 73.22439255806124, 18.55970948844686 ], [ 73.224499676630558, 18.55969464740912 ], [ 73.224500261396543, 18.559694542452348 ], [ 73.225061761224197, 18.559566540887083 ], [ 73.225096385965799, 18.559551718500416 ], [ 73.225321653005324, 18.559455284490639 ], [ 73.225536412781366, 18.559378693757591 ], [ 73.225637107614602, 18.559342782404087 ], [ 73.226054130380646, 18.559172969540036 ], [ 73.226108646467182, 18.559081946084579 ], [ 73.226116227223315, 18.559069288773113 ], [ 73.226364538332049, 18.55890048255327 ], [ 73.226260396216333, 18.558678767174797 ], [ 73.226421028955428, 18.558404655446449 ], [ 73.226455154681503, 18.55834150102163 ], [ 73.226593890988738, 18.557825609934472 ], [ 73.226617677005848, 18.557814066402614 ], [ 73.226810165238973, 18.557720650255984 ], [ 73.226895029549212, 18.557679464802899 ], [ 73.227024646248978, 18.557556292420198 ], [ 73.227230557977407, 18.557315358350021 ], [ 73.227264153281496, 18.557233929356524 ], [ 73.227447227951814, 18.556790187705985 ], [ 73.227695478631006, 18.55597322640272 ], [ 73.227841706469007, 18.555592269158126 ], [ 73.227989746960873, 18.555004816315147 ], [ 73.227995613030984, 18.554985511499467 ], [ 73.227995100454891, 18.554983572553738 ], [ 73.227768463209543, 18.554126256727216 ], [ 73.227731170181869, 18.553985185051658 ], [ 73.227730811446406, 18.55398382802974 ], [ 73.227736725492946, 18.553976745498058 ], [ 73.227822571017711, 18.553873938701713 ], [ 73.228078309715897, 18.553459416010014 ], [ 73.228256355759584, 18.553228281922827 ], [ 73.228443494072053, 18.55301352742066 ], [ 73.228508158788472, 18.552786894970776 ], [ 73.228585467593874, 18.55251594756794 ], [ 73.228778214785805, 18.551782244270726 ], [ 73.228788690510044, 18.551546229002952 ], [ 73.228755143000384, 18.551195892283317 ], [ 73.228736680955024, 18.551003092484962 ], [ 73.22876189182432, 18.550614678664427 ], [ 73.228846160016744, 18.550547312059503 ], [ 73.228884664084944, 18.550516530683812 ], [ 73.228886449960726, 18.550489105480722 ], [ 73.228928188409895, 18.549848137082222 ], [ 73.229002000043465, 18.549250519272217 ], [ 73.229041661533586, 18.549229291073967 ], [ 73.229107761041291, 18.54919391230618 ], [ 73.22911929418126, 18.549154581078085 ], [ 73.229279960240206, 18.548606662986572 ], [ 73.229199045834548, 18.548576087308618 ], [ 73.229199833074176, 18.548570376896919 ], [ 73.228247514118195, 18.548240342908286 ], [ 73.228120505273125, 18.54819632648633 ], [ 73.228098875987428, 18.548222685593029 ], [ 73.227930746300331, 18.548427580964642 ], [ 73.227799144373634, 18.548587960435952 ], [ 73.227597909751282, 18.548706931745187 ], [ 73.226516038060709, 18.549346535303073 ], [ 73.226065263024211, 18.549144389868612 ], [ 73.22606512672472, 18.548905493196571 ], [ 73.225895984954761, 18.548917247916787 ], [ 73.225812181411698, 18.548923071893114 ], [ 73.225814631262836, 18.548926417736197 ], [ 73.225855058349055, 18.548981630324988 ], [ 73.225847607959565, 18.548981029913538 ], [ 73.222878846102788, 18.548741759905113 ], [ 73.222572041208423, 18.548748721912826 ], [ 73.222212741444253, 18.548928897278984 ], [ 73.222040208505391, 18.549015415703931 ], [ 73.22072304693728, 18.549675911903361 ], [ 73.220654166623206, 18.54973057551814 ], [ 73.220602702735832, 18.549771417367708 ], [ 73.220494018775526, 18.550330090958482 ], [ 73.220589172836355, 18.550410204042123 ], [ 73.220645526893236, 18.550457650170358 ], [ 73.220509327062231, 18.551107168844222 ], [ 73.220403074298872, 18.551437704374223 ], [ 73.220249650907363, 18.55143869012096 ], [ 73.219961727345776, 18.551431795045001 ], [ 73.220051692347965, 18.551680937079144 ], [ 73.220291104188902, 18.552619257864304 ], [ 73.220847345344779, 18.554799278721813 ], [ 73.220919253210226, 18.555081095904537 ], [ 73.220992744226692, 18.555228836703179 ], [ 73.221080754451407, 18.555405765448938 ], [ 73.22252498317981, 18.558309069520934 ], [ 73.222754411692435, 18.558770274940397 ], [ 73.223534802151889, 18.559820998473128 ] ] ] ] } },
{ "type": "Feature", "properties": { "MAHA_GVMP_": 37359, "MAHA_GVMP1": 85, "CCODE": "240009000200000001", "NAME": "Kasbe Pali(Pali (CT))", "OTHERS": null, "VIL_CD": "00000001", "DST": "0", "TQ": null, "CEN_CD": "42419000", "NAME_E": "Kasbe Pali(Pali (CT))", "T_CODE": "272409", "D_NAME": "Raigad", "T_NAME": "Sudhagad", "T_Name_Old": null, "D_Name_Old": null, "D_CODE": "2724", "Remarks": "Town added", "Type": "Town", "Disputed": 0, "Shape_Leng": 0.10482078966, "Shape_Area": 0.0003305928 }, "geometry": { "type": "MultiPolygon", "coordinates": [ [ [ [ 73.220509327062231, 18.551107168844222 ], [ 73.220645526893236, 18.550457650170358 ], [ 73.220589172836355, 18.550410204042123 ], [ 73.220494018775526, 18.550330090958482 ], [ 73.220602702735832, 18.549771417367708 ], [ 73.220654166623206, 18.54973057551814 ], [ 73.22072304693728, 18.549675911903361 ], [ 73.222040208505391, 18.549015415703931 ], [ 73.222212741444253, 18.548928897278984 ], [ 73.222572041208423, 18.548748721912826 ], [ 73.222878846102788, 18.548741759905113 ], [ 73.225847607959565, 18.548981029913538 ], [ 73.225855058349055, 18.548981630324988 ], [ 73.225814631262836, 18.548926417736197 ], [ 73.225812181411698, 18.548923071893114 ], [ 73.225805235983273, 18.548913586290265 ], [ 73.225555320053161, 18.548572266911606 ], [ 73.224914564183507, 18.547697155296245 ], [ 73.224539425719556, 18.547184805179427 ], [ 73.224537970045219, 18.547177422003926 ], [ 73.223870325961911, 18.543791064908078 ], [ 73.223813750332212, 18.54346993943409 ], [ 73.223874254092948, 18.543394665374251 ], [ 73.225757521024548, 18.539240777865814 ], [ 73.225772577137661, 18.539207567980267 ], [ 73.226223803183345, 18.538218427535181 ], [ 73.226839320631768, 18.536869120813151 ], [ 73.226889872626714, 18.536830488819021 ], [ 73.226957828772811, 18.536778556468899 ], [ 73.22707999738742, 18.536773448918609 ], [ 73.227924880233616, 18.53736558782327 ], [ 73.227804352025359, 18.537177646917367 ], [ 73.226506271092134, 18.535153504505161 ], [ 73.226161655152438, 18.534625376611189 ], [ 73.226124864468375, 18.534568994233833 ], [ 73.226186096352293, 18.534233614770642 ], [ 73.226238289053626, 18.533753905806691 ], [ 73.226239352194682, 18.533744134329535 ], [ 73.226151440173581, 18.533758961380041 ], [ 73.225803277673307, 18.53384405636217 ], [ 73.225638641382361, 18.533884295142283 ], [ 73.225490018731136, 18.533920619886715 ], [ 73.225439431805739, 18.533943616734177 ], [ 73.225308473330202, 18.533774336473471 ], [ 73.225234143605803, 18.533750890380361 ], [ 73.225105125049765, 18.533710193507151 ], [ 73.225165974248682, 18.533399048849162 ], [ 73.22514505348795, 18.533114258534109 ], [ 73.225230042984776, 18.532874486240019 ], [ 73.225301212615875, 18.532813087017757 ], [ 73.225389307818247, 18.532690379851541 ], [ 73.225388232906766, 18.532555938195518 ], [ 73.225377348588196, 18.532418047658322 ], [ 73.225407427152959, 18.532368910411488 ], [ 73.225538210163165, 18.532155258972914 ], [ 73.22552676055102, 18.531768543772611 ], [ 73.225457247522954, 18.531674519710293 ], [ 73.225369959505073, 18.531556452824073 ], [ 73.225367916476614, 18.531464200490856 ], [ 73.225394073467314, 18.531286396353721 ], [ 73.225386675883769, 18.531240947597155 ], [ 73.225412906411748, 18.531158377746461 ], [ 73.225526906352286, 18.530383448918879 ], [ 73.22553223906489, 18.530346520250024 ], [ 73.225548135597123, 18.529983877059749 ], [ 73.225590251200401, 18.529630822387102 ], [ 73.225599386337464, 18.529554242431402 ], [ 73.225532311327058, 18.529428150596118 ], [ 73.225404603342611, 18.52918807649047 ], [ 73.225233545678577, 18.528914641386901 ], [ 73.225154735857117, 18.528793645784049 ], [ 73.225095373004933, 18.528312245363388 ], [ 73.225064965437397, 18.528065655480642 ], [ 73.224967359846048, 18.52727411900764 ], [ 73.224849525160266, 18.526819887153007 ], [ 73.224819952625054, 18.526735085466836 ], [ 73.224786126375704, 18.526638085795408 ], [ 73.224755391089943, 18.526529218025303 ], [ 73.224687266398291, 18.526287912345023 ], [ 73.224601695838032, 18.526035596449162 ], [ 73.224559307893671, 18.525890580845722 ], [ 73.224533948712804, 18.525751245355419 ], [ 73.224523261324237, 18.525003063292047 ], [ 73.224519031588159, 18.524706954295194 ], [ 73.224518888424996, 18.524696931919717 ], [ 73.224523747903902, 18.524655402331401 ], [ 73.224543386006019, 18.524487572955422 ], [ 73.224584238295037, 18.524257916120003 ], [ 73.224634674407923, 18.524045494442241 ], [ 73.223177988525606, 18.524281737863362 ], [ 73.22224775187135, 18.524649153582004 ], [ 73.221647334267004, 18.524886297349383 ], [ 73.221255567997261, 18.52504102981942 ], [ 73.221185821922575, 18.525068576697258 ], [ 73.221165772059123, 18.5250764955756 ], [ 73.221076925010834, 18.525111586502419 ], [ 73.221066030126337, 18.525123499733521 ], [ 73.221048278074989, 18.525142911066666 ], [ 73.220878315349296, 18.52532875987805 ], [ 73.220655077477545, 18.525572862512661 ], [ 73.220622331355855, 18.525608669145527 ], [ 73.22066403576946, 18.52577063576501 ], [ 73.220678744057352, 18.525827757980604 ], [ 73.220795977752275, 18.526060472598829 ], [ 73.220788194648534, 18.526168177442287 ], [ 73.22075792468371, 18.526587060685927 ], [ 73.220790577044326, 18.526911247945407 ], [ 73.220795445821352, 18.526959587238309 ], [ 73.221270996544604, 18.526683898612593 ], [ 73.22147283821721, 18.526677733613948 ], [ 73.221583310852168, 18.526686123697399 ], [ 73.221609606896095, 18.526603096535382 ], [ 73.221763753680307, 18.526372513190779 ], [ 73.222155790899194, 18.525995220489733 ], [ 73.222160068964172, 18.525991103308971 ], [ 73.22216547246903, 18.525988061093809 ], [ 73.222346533010352, 18.525854168958574 ], [ 73.222396719185213, 18.525877491893084 ], [ 73.222480768438629, 18.52591655191355 ], [ 73.222784316575812, 18.526396531772434 ], [ 73.222930614597885, 18.526645886429151 ], [ 73.222859930073355, 18.527396900537497 ], [ 73.222812778371065, 18.527701365397885 ], [ 73.222797705877767, 18.527737300606475 ], [ 73.222683180082868, 18.528010347684415 ], [ 73.222755473082032, 18.528198913870934 ], [ 73.222795575982943, 18.528329877266057 ], [ 73.222820745598654, 18.528412073165729 ], [ 73.222749800347003, 18.528837122383095 ], [ 73.222613939038865, 18.529501333655901 ], [ 73.222609396420864, 18.529505736312842 ], [ 73.22240395473375, 18.529686304976281 ], [ 73.222349259815815, 18.529597464426445 ], [ 73.222305723995518, 18.529526749438787 ], [ 73.22228194997416, 18.529488133400609 ], [ 73.222192865322882, 18.529436770760075 ], [ 73.221926132876604, 18.529282983083249 ], [ 73.221817895199123, 18.529273663593187 ], [ 73.221813779575939, 18.529273309228135 ], [ 73.221805777026702, 18.529277048048414 ], [ 73.221663371243878, 18.529343580467469 ], [ 73.221553577248287, 18.529422258235567 ], [ 73.221433150371297, 18.529804377674793 ], [ 73.221431460059591, 18.529805465490142 ], [ 73.221419075059544, 18.529846968523486 ], [ 73.221385402461507, 18.529835106260858 ], [ 73.221361611238976, 18.529826725027874 ], [ 73.221340473948473, 18.529864020378337 ], [ 73.221329346952814, 18.529883653218576 ], [ 73.221265684709863, 18.529912151568052 ], [ 73.221233387385254, 18.529926609426408 ], [ 73.220972239243224, 18.529866943230331 ], [ 73.220569714564533, 18.529760121238375 ], [ 73.220339734167851, 18.529685642877151 ], [ 73.22029844060728, 18.529688130002111 ], [ 73.219955549743531, 18.529708782082711 ], [ 73.21990466941314, 18.529712886837274 ], [ 73.219889074666114, 18.52965058229017 ], [ 73.219824872167905, 18.52953897116646 ], [ 73.219849271731164, 18.529496815334028 ], [ 73.219853248538854, 18.529489944485761 ], [ 73.219894637591196, 18.529418435359162 ], [ 73.219891990790927, 18.529387928328841 ], [ 73.219884128111502, 18.529297302990638 ], [ 73.219960667343329, 18.529149590875761 ], [ 73.219929883480063, 18.529085413394114 ], [ 73.219885856681685, 18.528993627257023 ], [ 73.219902798813109, 18.528666636899917 ], [ 73.219892998219393, 18.528661820340343 ], [ 73.219858576493834, 18.528644903573703 ], [ 73.219836675371639, 18.528634140128986 ], [ 73.219739499446575, 18.528631915032406 ], [ 73.219071893170678, 18.528559093263709 ], [ 73.21893415190857, 18.528611486139368 ], [ 73.218863787769678, 18.528638250613881 ], [ 73.218847324735577, 18.528615659566466 ], [ 73.21878456205252, 18.528529534744901 ], [ 73.21879349816605, 18.528392567973977 ], [ 73.218799900812314, 18.528294432359306 ], [ 73.21875482040673, 18.527911494477902 ], [ 73.218727189183198, 18.527676778737941 ], [ 73.218705848219713, 18.527562543930511 ], [ 73.218656218109231, 18.527296881184323 ], [ 73.218625172076244, 18.527105900293687 ], [ 73.218616708169733, 18.52700477157282 ], [ 73.218591506978726, 18.526703661177347 ], [ 73.21859128706717, 18.52670103361271 ], [ 73.218624423387155, 18.526624987795397 ], [ 73.218767749967284, 18.526491441434239 ], [ 73.217810014552242, 18.525714608762598 ], [ 73.217486539053354, 18.525546815677046 ], [ 73.215021690034959, 18.524268221144037 ], [ 73.213937051868683, 18.524303613578983 ], [ 73.213480129732105, 18.524943192604436 ], [ 73.213263811826337, 18.525113669992042 ], [ 73.212604634284617, 18.525356005359292 ], [ 73.2114654607131, 18.525522046408472 ], [ 73.211524086007046, 18.525700501448167 ], [ 73.210887917100706, 18.526249530444826 ], [ 73.210796925221231, 18.52656484993588 ], [ 73.210260028883411, 18.526769221613904 ], [ 73.209639898775038, 18.526478359408426 ], [ 73.209182321152696, 18.52604318360585 ], [ 73.208799705936542, 18.525813672651793 ], [ 73.208431595408001, 18.52551806335407 ], [ 73.208148015917445, 18.525290335091483 ], [ 73.207721065205533, 18.524947470746206 ], [ 73.207697248965701, 18.524928344957971 ], [ 73.207684487401991, 18.52494136580475 ], [ 73.207455932064136, 18.525174564333895 ], [ 73.206764205189245, 18.526318992069548 ], [ 73.20604329386623, 18.526419818323742 ], [ 73.205294772058323, 18.526189740751647 ], [ 73.20525380534707, 18.52617714846815 ], [ 73.204898927576494, 18.526668754502619 ], [ 73.20453647163265, 18.527170854836928 ], [ 73.204532205613134, 18.527176764415518 ], [ 73.204647092235632, 18.527314557858858 ], [ 73.204647431531328, 18.52731499862432 ], [ 73.204912277617538, 18.527659048861835 ], [ 73.20470565419464, 18.528236105735459 ], [ 73.204816306197259, 18.528511533833694 ], [ 73.204980364272103, 18.528754422806287 ], [ 73.205007406141306, 18.528794458377092 ], [ 73.206887740746481, 18.531892166673 ], [ 73.206927909531373, 18.531958340260474 ], [ 73.207201931997247, 18.532409760074696 ], [ 73.210240297002031, 18.535170762270866 ], [ 73.210900997158262, 18.537171812589175 ], [ 73.211361809066545, 18.539286150776029 ], [ 73.21191181366396, 18.540233158438863 ], [ 73.212119161375085, 18.540553791783847 ], [ 73.214302466824051, 18.543047868295385 ], [ 73.215893839464968, 18.544865694600844 ], [ 73.216238082883976, 18.545275975911974 ], [ 73.217833734195537, 18.54717769481562 ], [ 73.218108956463084, 18.547505702800265 ], [ 73.218674070414636, 18.548329805291242 ], [ 73.219248708398425, 18.549167786722133 ], [ 73.219552846906183, 18.550133508033241 ], [ 73.219961727345776, 18.551431795045001 ], [ 73.220249650907363, 18.55143869012096 ], [ 73.220403074298872, 18.551437704374223 ], [ 73.220509327062231, 18.551107168844222 ] ] ] ] } },
{ "type": "Feature", "properties": { "MAHA_GVMP_": 37376, "MAHA_GVMP1": 7, "CCODE": "240009000202938400", "NAME": "Ghera Sarasgad", "OTHERS": null, "VIL_CD": "02938400", "DST": "24", "TQ": "0009", "CEN_CD": "02938800", "NAME_E": "Ghera Sarasgad", "T_CODE": "272409", "D_NAME": "Raigad", "T_NAME": "Sudhagad", "T_Name_Old": "Sudhagad", "D_Name_Old": "RAIGAD", "D_CODE": "2724", "Remarks": null, "Type": null, "Disputed": 0, "Shape_Leng": 0.03835297647, "Shape_Area": 9.296813e-05 }, "geometry": { "type": "MultiPolygon", "coordinates": [ [ [ [ 73.225895984954761, 18.548917247916787 ], [ 73.22606512672472, 18.548905493196571 ], [ 73.226065263024211, 18.549144389868612 ], [ 73.226516038060709, 18.549346535303073 ], [ 73.227597909751282, 18.548706931745187 ], [ 73.227799144373634, 18.548587960435952 ], [ 73.227930746300331, 18.548427580964642 ], [ 73.228098875987428, 18.548222685593029 ], [ 73.228120505273125, 18.54819632648633 ], [ 73.228247514118195, 18.548240342908286 ], [ 73.229199833074176, 18.548570376896919 ], [ 73.229199045834548, 18.548576087308618 ], [ 73.229279960240206, 18.548606662986572 ], [ 73.229283717504018, 18.548608082768393 ], [ 73.229537943012247, 18.548660518375016 ], [ 73.229705459905915, 18.548563500287738 ], [ 73.229642754515154, 18.548425708172601 ], [ 73.22976538708042, 18.548367894959028 ], [ 73.230422257557393, 18.548058221579076 ], [ 73.230636782437543, 18.548041970950351 ], [ 73.231538567999507, 18.547076439355749 ], [ 73.231761889467521, 18.546831724553041 ], [ 73.231940855511596, 18.54665347042652 ], [ 73.23239304668715, 18.546203075628796 ], [ 73.2330147064947, 18.545583879781873 ], [ 73.233260910008084, 18.545283358632386 ], [ 73.23335450494983, 18.545169114330349 ], [ 73.233673552468915, 18.544779675534134 ], [ 73.233976909317718, 18.544493589611701 ], [ 73.234271376834045, 18.544049947271617 ], [ 73.234371748419733, 18.543927428913321 ], [ 73.234391240139075, 18.543063860324764 ], [ 73.234712604307603, 18.541765636252304 ], [ 73.235112512615672, 18.541344999314273 ], [ 73.235511049586009, 18.540925801889216 ], [ 73.2355848153083, 18.540873078733398 ], [ 73.235285263051708, 18.540785711104373 ], [ 73.234832313961704, 18.540640927807715 ], [ 73.23480503635129, 18.540632208590409 ], [ 73.234033610868892, 18.539949849759804 ], [ 73.233624302234261, 18.539534459937325 ], [ 73.233510146745289, 18.539418607896323 ], [ 73.232239426099625, 18.538032917296562 ], [ 73.232150260852336, 18.538034179664006 ], [ 73.232100060117205, 18.538035197001644 ], [ 73.230091839897042, 18.538068035437451 ], [ 73.228635710979674, 18.537767616707011 ], [ 73.228233984513722, 18.537550850802802 ], [ 73.227924880233616, 18.53736558782327 ], [ 73.22707999738742, 18.536773448918609 ], [ 73.226957828772811, 18.536778556468899 ], [ 73.226889872626714, 18.536830488819021 ], [ 73.226839320631768, 18.536869120813151 ], [ 73.226223803183345, 18.538218427535181 ], [ 73.225772577137661, 18.539207567980267 ], [ 73.225757521024548, 18.539240777865814 ], [ 73.223874254092948, 18.543394665374251 ], [ 73.223813750332212, 18.54346993943409 ], [ 73.223870325961911, 18.543791064908078 ], [ 73.224537970045219, 18.547177422003926 ], [ 73.224539425719556, 18.547184805179427 ], [ 73.224914564183507, 18.547697155296245 ], [ 73.225555320053161, 18.548572266911606 ], [ 73.225805235983273, 18.548913586290265 ], [ 73.225812181411698, 18.548923071893114 ], [ 73.225895984954761, 18.548917247916787 ] ] ] ] } },
{ "type": "Feature", "properties": { "MAHA_GVMP_": 37458, "MAHA_GVMP1": 201, "CCODE": "240009000202938100", "NAME": "Zap", "OTHERS": null, "VIL_CD": "02938100", "DST": "24", "TQ": "0009", "CEN_CD": "02938500", "NAME_E": "Zap", "T_CODE": "272409", "D_NAME": "Raigad", "T_NAME": "Sudhagad", "T_Name_Old": "Sudhagad", "D_Name_Old": "RAIGAD", "D_CODE": "2724", "Remarks": null, "Type": null, "Disputed": 0, "Shape_Leng": 0.06540502884, "Shape_Area": 0.00022563945 }, "geometry": { "type": "MultiPolygon", "coordinates": [ [ [ [ 73.2355848153083, 18.540873078733398 ], [ 73.236048201256381, 18.540371825461307 ], [ 73.23643566611814, 18.539972221176129 ], [ 73.237200877547707, 18.539172300349662 ], [ 73.237268463547068, 18.539051825321501 ], [ 73.237334391855541, 18.538980507572322 ], [ 73.237293178608681, 18.538532284088205 ], [ 73.23740940081143, 18.538530120695498 ], [ 73.237505495455991, 18.538528331909166 ], [ 73.238099261391824, 18.537992765355398 ], [ 73.238149245383681, 18.537947680424907 ], [ 73.238233006247697, 18.537937041018779 ], [ 73.238238964704919, 18.53793628416696 ], [ 73.238366542541371, 18.53790856116597 ], [ 73.239401175445153, 18.537683729191254 ], [ 73.239401167647316, 18.537679671136399 ], [ 73.239398227212732, 18.536149420662692 ], [ 73.239398099551693, 18.536082983149747 ], [ 73.239396413892379, 18.536074332411879 ], [ 73.239395035174823, 18.536017240689208 ], [ 73.239254215264623, 18.535301136196896 ], [ 73.239235288664247, 18.535247439864005 ], [ 73.239014698573328, 18.534621604869127 ], [ 73.239015099859955, 18.534616171926356 ], [ 73.239011740275359, 18.534607201323983 ], [ 73.239028625394781, 18.534343314040534 ], [ 73.23904868476852, 18.534086087038695 ], [ 73.239062077665082, 18.533835081886249 ], [ 73.239083892719577, 18.533514196177801 ], [ 73.239115386280886, 18.533196097026913 ], [ 73.239145870703908, 18.532888189492045 ], [ 73.239180380922221, 18.532317294177009 ], [ 73.239259427197325, 18.531810988454875 ], [ 73.239304163996508, 18.531530558844338 ], [ 73.239636027180893, 18.531536035761402 ], [ 73.239723583800981, 18.531537480658358 ], [ 73.239769128449439, 18.531509359660561 ], [ 73.239790282508679, 18.531496298332911 ], [ 73.239812653241188, 18.531482485780032 ], [ 73.239818951933216, 18.53133142646692 ], [ 73.239808539472506, 18.529999497252678 ], [ 73.239798892553992, 18.529954606961553 ], [ 73.239807472511188, 18.529863013741249 ], [ 73.239806646568354, 18.529757360687309 ], [ 73.239817160573807, 18.529609982897 ], [ 73.239835473106496, 18.529564099589891 ], [ 73.239851141948179, 18.529396829882273 ], [ 73.239866933109795, 18.529022099710403 ], [ 73.239873201266093, 18.528974929482843 ], [ 73.239979364058954, 18.528176010646348 ], [ 73.239980594577389, 18.528128123386523 ], [ 73.239982131044712, 18.528068329674682 ], [ 73.240001801612834, 18.527302819110901 ], [ 73.240029512194212, 18.527184685401544 ], [ 73.240072705162319, 18.527060422868654 ], [ 73.240082888194365, 18.526962499738943 ], [ 73.240099020488969, 18.526747270046538 ], [ 73.240129974975204, 18.526334287926943 ], [ 73.239975557994839, 18.525118907739678 ], [ 73.239961515424227, 18.525065111074639 ], [ 73.239918677286198, 18.524900999243808 ], [ 73.239797826312312, 18.524293674816306 ], [ 73.23979546616647, 18.524281814096238 ], [ 73.239794821276277, 18.524276809209766 ], [ 73.239683951947811, 18.523416366378285 ], [ 73.239675365948017, 18.523275058469835 ], [ 73.239659198277252, 18.523008971208075 ], [ 73.239632642324793, 18.522852216150795 ], [ 73.239586827051085, 18.522581255135549 ], [ 73.239594132864113, 18.522194749925177 ], [ 73.239607952838583, 18.521463616059176 ], [ 73.239604297055905, 18.521376691799727 ], [ 73.239607246825244, 18.521266735941818 ], [ 73.239608768793005, 18.521210002879116 ], [ 73.239600215872315, 18.521066761916529 ], [ 73.239590971260839, 18.521065256751847 ], [ 73.239584819544746, 18.520923024779847 ], [ 73.239584123152667, 18.520906923692451 ], [ 73.239600765285658, 18.520822494640978 ], [ 73.239602346259048, 18.520814474025713 ], [ 73.239615350573828, 18.520748500327894 ], [ 73.239147271299487, 18.520688860374658 ], [ 73.238244044018586, 18.520573772989163 ], [ 73.238208349839397, 18.520569224817564 ], [ 73.238029216667996, 18.520374911227119 ], [ 73.237749925772505, 18.520071950948701 ], [ 73.237018508239942, 18.519910087023447 ], [ 73.236947552156778, 18.51989438415654 ], [ 73.236703838320466, 18.519931616517173 ], [ 73.235364887263643, 18.519870402076549 ], [ 73.235350173416577, 18.519869729333099 ], [ 73.234855642429409, 18.520903228356524 ], [ 73.234909148585871, 18.522252180720553 ], [ 73.234912484478329, 18.522336281738088 ], [ 73.234541014019158, 18.522595330082822 ], [ 73.233326292558843, 18.522663302694184 ], [ 73.231469585562706, 18.52325804481535 ], [ 73.231363025020585, 18.523292177708978 ], [ 73.231303241531521, 18.523311327199167 ], [ 73.231301540080594, 18.523311872197326 ], [ 73.230293316789641, 18.523634816755358 ], [ 73.229937605745704, 18.523748753182069 ], [ 73.22967966772103, 18.523700516939869 ], [ 73.229521488328928, 18.523670936082624 ], [ 73.229230845857614, 18.523616583160845 ], [ 73.229199839156934, 18.523610784582846 ], [ 73.228452048791311, 18.52421569860752 ], [ 73.228014605511135, 18.524569558560245 ], [ 73.227786910562017, 18.524564868741038 ], [ 73.22763154500764, 18.52456166852869 ], [ 73.226998955369012, 18.524548637158716 ], [ 73.22669558643139, 18.52454238699659 ], [ 73.224915225816915, 18.524062577514481 ], [ 73.224634674407923, 18.524045494442241 ], [ 73.224584238295037, 18.524257916120003 ], [ 73.224543386006019, 18.524487572955422 ], [ 73.224523747903902, 18.524655402331401 ], [ 73.224518888424996, 18.524696931919717 ], [ 73.224519031588159, 18.524706954295194 ], [ 73.224523261324237, 18.525003063292047 ], [ 73.224533948712804, 18.525751245355419 ], [ 73.224559307893671, 18.525890580845722 ], [ 73.224601695838032, 18.526035596449162 ], [ 73.224687266398291, 18.526287912345023 ], [ 73.224755391089943, 18.526529218025303 ], [ 73.224786126375704, 18.526638085795408 ], [ 73.224819952625054, 18.526735085466836 ], [ 73.224849525160266, 18.526819887153007 ], [ 73.224967359846048, 18.52727411900764 ], [ 73.225064965437397, 18.528065655480642 ], [ 73.225095373004933, 18.528312245363388 ], [ 73.225154735857117, 18.528793645784049 ], [ 73.225233545678577, 18.528914641386901 ], [ 73.225404603342611, 18.52918807649047 ], [ 73.225532311327058, 18.529428150596118 ], [ 73.225599386337464, 18.529554242431402 ], [ 73.225590251200401, 18.529630822387102 ], [ 73.225548135597123, 18.529983877059749 ], [ 73.22553223906489, 18.530346520250024 ], [ 73.225526906352286, 18.530383448918879 ], [ 73.225412906411748, 18.531158377746461 ], [ 73.225386675883769, 18.531240947597155 ], [ 73.225394073467314, 18.531286396353721 ], [ 73.225367916476614, 18.531464200490856 ], [ 73.225369959505073, 18.531556452824073 ], [ 73.225457247522954, 18.531674519710293 ], [ 73.22552676055102, 18.531768543772611 ], [ 73.225538210163165, 18.532155258972914 ], [ 73.225407427152959, 18.532368910411488 ], [ 73.225377348588196, 18.532418047658322 ], [ 73.225388232906766, 18.532555938195518 ], [ 73.225389307818247, 18.532690379851541 ], [ 73.225301212615875, 18.532813087017757 ], [ 73.225230042984776, 18.532874486240019 ], [ 73.22514505348795, 18.533114258534109 ], [ 73.225165974248682, 18.533399048849162 ], [ 73.225105125049765, 18.533710193507151 ], [ 73.225234143605803, 18.533750890380361 ], [ 73.225308473330202, 18.533774336473471 ], [ 73.225439431805739, 18.533943616734177 ], [ 73.225490018731136, 18.533920619886715 ], [ 73.225638641382361, 18.533884295142283 ], [ 73.225803277673307, 18.53384405636217 ], [ 73.226151440173581, 18.533758961380041 ], [ 73.226239352194682, 18.533744134329535 ], [ 73.226238289053626, 18.533753905806691 ], [ 73.226186096352293, 18.534233614770642 ], [ 73.226124864468375, 18.534568994233833 ], [ 73.226161655152438, 18.534625376611189 ], [ 73.226506271092134, 18.535153504505161 ], [ 73.227804352025359, 18.537177646917367 ], [ 73.227924880233616, 18.53736558782327 ], [ 73.228233984513722, 18.537550850802802 ], [ 73.228635710979674, 18.537767616707011 ], [ 73.230091839897042, 18.538068035437451 ], [ 73.232100060117205, 18.538035197001644 ], [ 73.232150260852336, 18.538034179664006 ], [ 73.232239426099625, 18.538032917296562 ], [ 73.233510146745289, 18.539418607896323 ], [ 73.233624302234261, 18.539534459937325 ], [ 73.234033610868892, 18.539949849759804 ], [ 73.23480503635129, 18.540632208590409 ], [ 73.234832313961704, 18.540640927807715 ], [ 73.235285263051708, 18.540785711104373 ], [ 73.2355848153083, 18.540873078733398 ] ] ] ] } },
{ "type": "Feature", "properties": { "MAHA_GVMP_": 37534, "MAHA_GVMP1": 14, "CCODE": "240009000202938000", "NAME": "Burmali", "OTHERS": null, "VIL_CD": "02938000", "DST": "24", "TQ": "0009", "CEN_CD": "02938400", "NAME_E": "Burmali", "T_CODE": "272409", "D_NAME": "Raigad", "T_NAME": "Sudhagad", "T_Name_Old": "Sudhagad", "D_Name_Old": "RAIGAD", "D_CODE": "2724", "Remarks": null, "Type": null, "Disputed": 0, "Shape_Leng": 0.02073644701, "Shape_Area": 1.570336e-05 }, "geometry": { "type": "MultiPolygon", "coordinates": [ [ [ [ 73.21859128706717, 18.52670103361271 ], [ 73.218591506978726, 18.526703661177347 ], [ 73.218616708169733, 18.52700477157282 ], [ 73.218625172076244, 18.527105900293687 ], [ 73.218656218109231, 18.527296881184323 ], [ 73.218705848219713, 18.527562543930511 ], [ 73.218727189183198, 18.527676778737941 ], [ 73.21875482040673, 18.527911494477902 ], [ 73.218799900812314, 18.528294432359306 ], [ 73.21879349816605, 18.528392567973977 ], [ 73.21878456205252, 18.528529534744901 ], [ 73.218847324735577, 18.528615659566466 ], [ 73.218863787769678, 18.528638250613881 ], [ 73.21893415190857, 18.528611486139368 ], [ 73.219071893170678, 18.528559093263709 ], [ 73.219739499446575, 18.528631915032406 ], [ 73.219836675371639, 18.528634140128986 ], [ 73.219858576493834, 18.528644903573703 ], [ 73.219892998219393, 18.528661820340343 ], [ 73.219902798813109, 18.528666636899917 ], [ 73.219885856681685, 18.528993627257023 ], [ 73.219929883480063, 18.529085413394114 ], [ 73.219960667343329, 18.529149590875761 ], [ 73.219884128111502, 18.529297302990638 ], [ 73.219891990790927, 18.529387928328841 ], [ 73.219894637591196, 18.529418435359162 ], [ 73.219853248538854, 18.529489944485761 ], [ 73.219849271731164, 18.529496815334028 ], [ 73.219824872167905, 18.52953897116646 ], [ 73.219889074666114, 18.52965058229017 ], [ 73.21990466941314, 18.529712886837274 ], [ 73.219955549743531, 18.529708782082711 ], [ 73.22029844060728, 18.529688130002111 ], [ 73.220339734167851, 18.529685642877151 ], [ 73.220569714564533, 18.529760121238375 ], [ 73.220972239243224, 18.529866943230331 ], [ 73.221233387385254, 18.529926609426408 ], [ 73.221265684709863, 18.529912151568052 ], [ 73.221329346952814, 18.529883653218576 ], [ 73.221340473948473, 18.529864020378337 ], [ 73.221361611238976, 18.529826725027874 ], [ 73.221385402461507, 18.529835106260858 ], [ 73.221419075059544, 18.529846968523486 ], [ 73.221431460059591, 18.529805465490142 ], [ 73.221433150371297, 18.529804377674793 ], [ 73.221553577248287, 18.529422258235567 ], [ 73.221663371243878, 18.529343580467469 ], [ 73.221805777026702, 18.529277048048414 ], [ 73.221813779575939, 18.529273309228135 ], [ 73.221817895199123, 18.529273663593187 ], [ 73.221926132876604, 18.529282983083249 ], [ 73.222192865322882, 18.529436770760075 ], [ 73.22228194997416, 18.529488133400609 ], [ 73.222305723995518, 18.529526749438787 ], [ 73.222349259815815, 18.529597464426445 ], [ 73.22240395473375, 18.529686304976281 ], [ 73.222609396420864, 18.529505736312842 ], [ 73.222613939038865, 18.529501333655901 ], [ 73.222749800347003, 18.528837122383095 ], [ 73.222820745598654, 18.528412073165729 ], [ 73.222795575982943, 18.528329877266057 ], [ 73.222755473082032, 18.528198913870934 ], [ 73.222683180082868, 18.528010347684415 ], [ 73.222797705877767, 18.527737300606475 ], [ 73.222812778371065, 18.527701365397885 ], [ 73.222859930073355, 18.527396900537497 ], [ 73.222930614597885, 18.526645886429151 ], [ 73.222784316575812, 18.526396531772434 ], [ 73.222480768438629, 18.52591655191355 ], [ 73.222396719185213, 18.525877491893084 ], [ 73.222346533010352, 18.525854168958574 ], [ 73.22216547246903, 18.525988061093809 ], [ 73.222160068964172, 18.525991103308971 ], [ 73.222155790899194, 18.525995220489733 ], [ 73.221763753680307, 18.526372513190779 ], [ 73.221609606896095, 18.526603096535382 ], [ 73.221583310852168, 18.526686123697399 ], [ 73.22147283821721, 18.526677733613948 ], [ 73.221270996544604, 18.526683898612593 ], [ 73.220795445821352, 18.526959587238309 ], [ 73.220790577044326, 18.526911247945407 ], [ 73.22075792468371, 18.526587060685927 ], [ 73.220788194648534, 18.526168177442287 ], [ 73.220795977752275, 18.526060472598829 ], [ 73.220678744057352, 18.525827757980604 ], [ 73.22066403576946, 18.52577063576501 ], [ 73.220622331355855, 18.525608669145527 ], [ 73.220623355661246, 18.525602427752343 ], [ 73.220662106099141, 18.52542170308584 ], [ 73.220768388318945, 18.52511776432334 ], [ 73.220967289046484, 18.524837544732858 ], [ 73.220893534989784, 18.524837944601078 ], [ 73.220454841882542, 18.524840322445126 ], [ 73.220297065107957, 18.524845317208303 ], [ 73.220059149849249, 18.524842466338551 ], [ 73.219865416905236, 18.524843515698425 ], [ 73.219848739153804, 18.5248399447986 ], [ 73.219785672736464, 18.524826441533264 ], [ 73.219754716946341, 18.524838817970533 ], [ 73.219699868769339, 18.524860746808486 ], [ 73.219226629407842, 18.525049951640934 ], [ 73.218888108638737, 18.525100403908194 ], [ 73.218301600720039, 18.525181461833139 ], [ 73.217962823843664, 18.525410867999256 ], [ 73.217882924856667, 18.525464972222892 ], [ 73.217858174365574, 18.525481732197647 ], [ 73.217822285768079, 18.525655271413882 ], [ 73.217810014552242, 18.525714608762598 ], [ 73.218767749967284, 18.526491441434239 ], [ 73.218624423387155, 18.526624987795397 ], [ 73.21859128706717, 18.52670103361271 ] ] ] ] } }
]
}
