{
"type": "FeatureCollection",
"name": "PALI - AMBA RIVER-HH",
"crs": { "type": "name", "properties": { "name": "urn:ogc:def:crs:OGC:1.3:CRS84" } },
"features": [
{ "type": "Feature", "properties": { "fid": 1, "id": 2000 }, "geometry": { "type": "MultiLineString", "coordinates": [ [ [ 73.233196979517217, 18.570522306537509 ], [ 73.231152406948127, 18.568557913284863 ], [ 73.228927430917068, 18.566052309646285 ], [ 73.228045458436299, 18.565050068190853 ], [ 73.22795024549805, 18.564378566415712 ], [ 73.227784875657903, 18.563837356029779 ], [ 73.227469169599445, 18.563516638764042 ], [ 73.226251446231075, 18.56272486801425 ], [ 73.225259227190207, 18.561993231751785 ], [ 73.224888397851686, 18.561652469656938 ], [ 73.224216896076555, 18.561311707562091 ], [ 73.224036492614573, 18.561271617903873 ], [ 73.223550405508675, 18.560670273030613 ], [ 73.223034251159135, 18.55995367038998 ], [ 73.222508074395009, 18.559222034127512 ], [ 73.221931785558141, 18.558259882330297 ], [ 73.22157097863419, 18.557613436591545 ], [ 73.220623860458801, 18.554947474320102 ], [ 73.219872179367229, 18.552602229314392 ], [ 73.218789758595349, 18.550482488636149 ], [ 73.21737659814319, 18.547821537571981 ], [ 73.216083706665685, 18.545746897759237 ], [ 73.214490142751544, 18.543792526921145 ], [ 73.213061948677549, 18.542499635443633 ], [ 73.212174964989501, 18.541612651755575 ], [ 73.21131804854511, 18.540139356816091 ], [ 73.210912140755639, 18.53898176793507 ], [ 73.210491199344361, 18.538620961011116 ], [ 73.209844753605609, 18.538455591170969 ], [ 73.209574148412642, 18.538124851490679 ], [ 73.209559114790807, 18.53753854023925 ], [ 73.209799652740102, 18.536696657416687 ], [ 73.209769585496446, 18.536140413408923 ], [ 73.209604215656299, 18.535403765939179 ], [ 73.208957769917546, 18.534471681385625 ], [ 73.208236156069631, 18.533735033915885 ], [ 73.207213869785093, 18.532833016605995 ], [ 73.206394537395269, 18.532013684216178 ], [ 73.205988629605827, 18.531472473830242 ], [ 73.20522943170333, 18.530337435381966 ], [ 73.204793456670217, 18.529555687046727 ], [ 73.204567952342742, 18.528864140442479 ], [ 73.204342448015268, 18.527826820536109 ], [ 73.204252246284284, 18.527541181721311 ], [ 73.203440430705342, 18.526714332520577 ], [ 73.202297875446149, 18.525631911748711 ], [ 73.200899748615825, 18.524835129791644 ], [ 73.199666991625648, 18.524188684052891 ], [ 73.198389133769965, 18.523692574532451 ], [ 73.197171410401623, 18.52336183485216 ], [ 73.196374628444559, 18.523211498633845 ], [ 73.19450294252654, 18.523249082688423 ], [ 73.192368168226466, 18.523474587015894 ], [ 73.190849772421487, 18.523429486150402 ] ] ] } },
{ "type": "Feature", "properties": { "fid": 2, "id": null }, "geometry": { "type": "MultiLineString", "coordinates": [ [ [ 73.204337280207753, 18.527593799397774 ], [ 73.204562784535227, 18.527075139444591 ], [ 73.204652986266211, 18.52674815816976 ], [ 73.204901041026432, 18.526500103409543 ], [ 73.205273123166748, 18.526387351245805 ], [ 73.205870709634553, 18.52659030514053 ], [ 73.206366819154994, 18.52659030514053 ], [ 73.206975680839165, 18.526263323865695 ], [ 73.207347762979481, 18.525733388696139 ], [ 73.207516891225097, 18.525372581772185 ], [ 73.207900248581794, 18.525361306555812 ], [ 73.208328706803982, 18.52557553566691 ], [ 73.209095421517389, 18.526376076029432 ], [ 73.209659182336068, 18.526883460766243 ], [ 73.210076365341891, 18.527154065959206 ], [ 73.210561199645952, 18.527041313795472 ], [ 73.21087690570441, 18.526646681222399 ], [ 73.21112496046463, 18.526229498216576 ], [ 73.211463216955849, 18.525947617807237 ], [ 73.21183529909618, 18.525778489561635 ], [ 73.212466711213096, 18.525789764778008 ], [ 73.212917719868031, 18.525699563047016 ], [ 73.21338000373936, 18.525271104824824 ], [ 73.213594232850454, 18.524977949199112 ], [ 73.214022691072643, 18.524718619222519 ], [ 73.214530075809449, 18.524707344006146 ], [ 73.214935983598892, 18.524752444871652 ], [ 73.215516657242119, 18.52494976115819 ], [ 73.215990216329814, 18.525130164620169 ], [ 73.216277734347344, 18.525259829608462 ], [ 73.216790756692333, 18.525485333935933 ], [ 73.217704049218597, 18.526212585392024 ], [ 73.218098681791673, 18.526590305140537 ], [ 73.218329823727331, 18.526759433386143 ], [ 73.218527140013876, 18.526855272725317 ], [ 73.218837208464151, 18.526906011198999 ], [ 73.21926566668634, 18.526719970128834 ], [ 73.220128220738928, 18.526156209310155 ], [ 73.220635605475749, 18.525801039994391 ], [ 73.221205003902611, 18.525412045029501 ], [ 73.222073195563368, 18.524972311590936 ], [ 73.222693332463919, 18.524741169655279 ], [ 73.223234542849838, 18.524645330316105 ], [ 73.22418729863341, 18.524459289245939 ], [ 73.224666495329302, 18.524312711433083 ], [ 73.224976563779578, 18.524070294281053 ], [ 73.225247168972501, 18.523709487357099 ], [ 73.225472673299976, 18.522954047860072 ], [ 73.225630526329212, 18.522514314421503 ], [ 73.225856030656672, 18.522266259661286 ], [ 73.226261938446129, 18.522074580982935 ], [ 73.2268708001303, 18.522142232281176 ], [ 73.227434560948979, 18.522300085310405 ], [ 73.228201275662371, 18.52237901182502 ], [ 73.228686109966432, 18.522875121345457 ], [ 73.229294971650617, 18.523765863438967 ], [ 73.229464099896219, 18.524137945579294 ], [ 73.22979108117103, 18.524121032754739 ], [ 73.230383030030652, 18.524030831023747 ], [ 73.23171914317092, 18.523534721503307 ], [ 73.23235619289602, 18.523303579567649 ], [ 73.233230022164975, 18.523049887199253 ], [ 73.233788145375456, 18.522880758953651 ], [ 73.234402644667824, 18.522784919614477 ], [ 73.234645061819847, 18.522683442667113 ], [ 73.234831102890041, 18.522480488772391 ], [ 73.234881841363716, 18.52213095706481 ], [ 73.234887478971899, 18.521753237316297 ], [ 73.234881841363716, 18.521414980825092 ], [ 73.234966405486517, 18.521054173901138 ], [ 73.23509607047481, 18.520794843924545 ], [ 73.235225735463104, 18.52044531221696 ], [ 73.235327212410468, 18.520163431807621 ], [ 73.235609092819814, 18.520101418117569 ], [ 73.236505472521486, 18.520169069415807 ], [ 73.237057958123785, 18.520202895064926 ], [ 73.237700645457082, 18.520372023310532 ], [ 73.237926149784556, 18.520676454152618 ], [ 73.238512461035981, 18.52096960977833 ], [ 73.239042396205534, 18.521014710643822 ], [ 73.239493404860482, 18.521014710643822 ], [ 73.239865487000799, 18.520935784129207 ] ] ] } },
{ "type": "Feature", "properties": { "fid": 3, "id": null }, "geometry": { "type": "MultiLineString", "coordinates": [ [ [ 73.224858174007636, 18.524278181082934 ], [ 73.225371901053663, 18.524531873451341 ], [ 73.2262725089615, 18.524772881201326 ], [ 73.227020901448299, 18.524950465859209 ], [ 73.227515601566679, 18.524950465859209 ], [ 73.227883455500873, 18.524950465859209 ], [ 73.228042013231118, 18.52491241200395 ], [ 73.22851134411269, 18.524588954234233 ], [ 73.228847486500825, 18.524271838773728 ], [ 73.229151917342918, 18.523859588675069 ], [ 73.229196313507387, 18.523751769418496 ] ] ] } }
]
}
