{
"type": "FeatureCollection",
"name": "PALI - ROAD",
"crs": { "type": "name", "properties": { "name": "urn:ogc:def:crs:OGC:1.3:CRS84" } },
"features": [
{ "type": "Feature", "properties": { "fid": 1, "id": null }, "geometry": { "type": "MultiLineString", "coordinates": [ [ [ 73.234780521016816, 18.563626885324172 ], [ 73.233066688128048, 18.56281506974527 ], [ 73.232395186352903, 18.562504374894086 ], [ 73.231894065625184, 18.562454262821316 ], [ 73.231352855239251, 18.562444240406759 ], [ 73.229438574059373, 18.562584554210517 ], [ 73.228496467091261, 18.562484330064972 ], [ 73.227845010145231, 18.562203702457452 ], [ 73.226552118667726, 18.561482088609541 ], [ 73.225953727798569, 18.561068729725516 ], [ 73.225644814935364, 18.560598644933666 ], [ 73.225429919030518, 18.559994250201289 ], [ 73.224919541256497, 18.559013787635436 ], [ 73.224449456464654, 18.557986316590394 ], [ 73.224268138044934, 18.55760353325989 ], [ 73.223737613779832, 18.556643217185119 ], [ 73.223455562904732, 18.556139554908135 ], [ 73.223150007790025, 18.555548591169813 ], [ 73.222965331621793, 18.555269898043218 ], [ 73.22259597928533, 18.55481324424542 ], [ 73.222381083380498, 18.554584917346524 ], [ 73.222035235283627, 18.554255857992228 ], [ 73.221627268839285, 18.553886505655775 ], [ 73.221415730682963, 18.553664894253902 ], [ 73.221189082658285, 18.553379485630277 ], [ 73.22095404026237, 18.552949693820587 ], [ 73.220836519064406, 18.552600487975212 ], [ 73.220818186537656, 18.551536697180882 ], [ 73.220824278359572, 18.551024984139584 ], [ 73.22078163560613, 18.550513271098282 ], [ 73.220775543784214, 18.550111210851547 ], [ 73.220757268318451, 18.549544671412967 ], [ 73.220757268318451, 18.549294906714238 ], [ 73.220787727428061, 18.546922142076305 ], [ 73.220787727428061, 18.546154572514357 ], [ 73.220799911071893, 18.545374819308567 ], [ 73.220519687263575, 18.544655984321974 ], [ 73.220324748962128, 18.544351393225963 ], [ 73.219849586852348, 18.543827496540821 ], [ 73.219569363044016, 18.543681292814735 ], [ 73.219106384578083, 18.543449803581765 ], [ 73.218765242550546, 18.543461987225605 ], [ 73.218058591207793, 18.54353508908865 ], [ 73.217546878166502, 18.543681292814735 ], [ 73.216718390385353, 18.544144271280672 ], [ 73.215853351672678, 18.544741269828858 ], [ 73.215122333042245, 18.545240799226317 ], [ 73.214172008822686, 18.545874348706022 ], [ 73.213684663069074, 18.546069287007469 ], [ 73.213294786466179, 18.546093654295149 ] ] ] } }
]
}
