{
"type": "FeatureCollection",
"name": "pali gaothan",
"crs": { "type": "name", "properties": { "name": "urn:ogc:def:crs:OGC:1.3:CRS84" } },
"features": [
{ "type": "Feature", "properties": { "fid": 1, "NAME": "PALI GAOTHAN" }, "geometry": { "type": "MultiPolygon", "coordinates": [ [ [ [ 73.219152190913789, 18.544505411194553 ], [ 73.219529266171307, 18.543968558285542 ], [ 73.219024368792589, 18.543808780634052 ], [ 73.219062715428961, 18.543556331944696 ], [ 73.21880387563354, 18.543287905490189 ], [ 73.218755942338092, 18.542482626126674 ], [ 73.217948335865941, 18.542436814935218 ], [ 73.218257436065443, 18.541428093626834 ], [ 73.218618203395422, 18.5415320849227 ], [ 73.21881346229263, 18.540632400922405 ], [ 73.218679249065389, 18.540469427717884 ], [ 73.219810474837942, 18.539712081649817 ], [ 73.219772128201583, 18.539395721899865 ], [ 73.219992621360646, 18.539117708786268 ], [ 73.219896754769749, 18.538916388945388 ], [ 73.219930308076556, 18.538772589059047 ], [ 73.220030967996991, 18.538652755820429 ], [ 73.220098074610618, 18.538566475888622 ], [ 73.220649307508268, 18.538393916025008 ], [ 73.221234093712724, 18.538422676002277 ], [ 73.221540866803593, 18.538317222752294 ], [ 73.221780533280821, 18.538173422865949 ], [ 73.221866813212628, 18.537904996411445 ], [ 73.221914746508077, 18.53755987668422 ], [ 73.222211932939814, 18.537603016650127 ], [ 73.222279039553442, 18.537444836775148 ], [ 73.222643332598849, 18.53723872360472 ], [ 73.223439025303279, 18.536490964195739 ], [ 73.223324628836778, 18.535984916046864 ], [ 73.22356365187143, 18.535920557979917 ], [ 73.22360240661456, 18.535838311108591 ], [ 73.223817698337314, 18.535724031468582 ], [ 73.223745798394134, 18.535608991559506 ], [ 73.224316204609948, 18.535455605014075 ], [ 73.225083137337108, 18.534827678843712 ], [ 73.225546851059008, 18.534842940668778 ], [ 73.22577412378628, 18.535398496293777 ], [ 73.226593859606012, 18.535120718515998 ], [ 73.22638018439234, 18.535676274043777 ], [ 73.226013043268807, 18.536059564536707 ], [ 73.225269073281225, 18.536112782008065 ], [ 73.224622977700832, 18.536232124400318 ], [ 73.224435739947893, 18.536602199997482 ], [ 73.224431244519039, 18.536874430559315 ], [ 73.224644073281226, 18.537065162960445 ], [ 73.224776364246253, 18.537219550286537 ], [ 73.224431244519039, 18.537334590195613 ], [ 73.22438331122359, 18.537535910036492 ], [ 73.224344964587232, 18.537746816536462 ], [ 73.224362222301721, 18.537947000509782 ], [ 73.223865631632762, 18.537746816536462 ], [ 73.223386298678278, 18.537679709922834 ], [ 73.223098698905602, 18.537775576513727 ], [ 73.222935725701078, 18.537986483013697 ], [ 73.222878205746539, 18.538504162604532 ], [ 73.223098698905602, 18.538600029195425 ], [ 73.223347952041919, 18.539443655195303 ], [ 73.223556110318256, 18.539565162960443 ], [ 73.22360240661456, 18.539981829580814 ], [ 73.223498239947887, 18.540398496293779 ], [ 73.223793378836774, 18.540676274071554 ], [ 73.223463517710243, 18.540676274071554 ], [ 73.223089586101736, 18.540676274071554 ], [ 73.222880184392338, 18.540954051849333 ], [ 73.222853614344032, 18.541231829627112 ], [ 73.222834432758347, 18.54150960740489 ], [ 73.223106426897999, 18.541549725918191 ], [ 73.22293093237154, 18.5416390001268 ], [ 73.222715232542015, 18.541662966774524 ], [ 73.222470772735235, 18.541797180001776 ], [ 73.222418046110249, 18.542003293172201 ], [ 73.222427632769339, 18.542199819683535 ], [ 73.222494739382967, 18.542439486160774 ], [ 73.222672092576119, 18.542717499274367 ], [ 73.222758372507926, 18.542846919172078 ], [ 73.222557052667042, 18.542827745853899 ], [ 73.222384492803442, 18.542813365865261 ], [ 73.222029786417139, 18.542880472478885 ], [ 73.221957886473959, 18.543091378978854 ], [ 73.221935739808998, 18.543176274071556 ], [ 73.222344236679916, 18.543454051849334 ], [ 73.219152190913789, 18.544505411194553 ] ] ] ] } }
]
}
