{
"type": "FeatureCollection",
"name": "WELLS AND WATER BODIES OF PALI",
"crs": { "type": "name", "properties": { "name": "urn:ogc:def:crs:OGC:1.3:CRS84" } },
"features": [
{ "type": "Feature", "properties": { "fid": 1, "NAME OF WATER BODY": null, "LOCATION": null, "IMAGES": null }, "geometry": { "type": "Polygon", "coordinates": [ [ [ 73.219042981248819, 18.54294777277379 ], [ 73.219045306797057, 18.542947973211849 ], [ 73.219050697840743, 18.542946971021539 ], [ 73.219060634274157, 18.542942962260238 ], [ 73.21906665955828, 18.542937851089448 ], [ 73.21907226201543, 18.542929633128246 ], [ 73.219074164736725, 18.542923118890432 ], [ 73.219074376150203, 18.542915301804719 ], [ 73.219071839188459, 18.542907584937709 ], [ 73.21906803374587, 18.542898765660691 ], [ 73.219060000033721, 18.542894356022021 ], [ 73.219053657629402, 18.542889545506963 ], [ 73.219044778263338, 18.542887942001919 ], [ 73.219029979319942, 18.542888743754443 ], [ 73.219021945607793, 18.542893955145765 ], [ 73.219015180376502, 18.54290277442303 ], [ 73.219008837972197, 18.542915201585672 ], [ 73.219009260799155, 18.54292402086184 ], [ 73.219011374933913, 18.542932439261385 ], [ 73.219018140165204, 18.542940857660525 ], [ 73.219029133666012, 18.542946469926381 ], [ 73.219041395647707, 18.542948474307003 ], [ 73.219045623917268, 18.542948474307003 ], [ 73.219042981248819, 18.54294777277379 ] ] ] } },
{ "type": "Feature", "properties": { "fid": 2, "NAME OF WATER BODY": null, "LOCATION": null, "IMAGES": null }, "geometry": { "type": "Polygon", "coordinates": [ [ [ 73.220699194430594, 18.54318509127388 ], [ 73.220690103651066, 18.543145605026048 ], [ 73.220741477126055, 18.543135382696438 ], [ 73.220749722251668, 18.543177073762372 ], [ 73.220699194430594, 18.54318509127388 ] ] ] } },
{ "type": "Feature", "properties": { "fid": 3, "NAME OF WATER BODY": null, "LOCATION": null, "IMAGES": null }, "geometry": { "type": "Polygon", "coordinates": [ [ [ 73.217369432161803, 18.541878432367923 ], [ 73.217552093406255, 18.541928141311153 ], [ 73.217699237186508, 18.541918520226496 ], [ 73.217812554810394, 18.541945779964951 ], [ 73.217996907362661, 18.541897674541211 ], [ 73.218054411828533, 18.541812688259494 ], [ 73.218130520680376, 18.541604231163035 ], [ 73.218196481685297, 18.541405394926308 ], [ 73.217966463821924, 18.54130918376093 ], [ 73.217837924427684, 18.54121778310363 ], [ 73.217731372035075, 18.541147228176836 ], [ 73.217628202258126, 18.541092708440708 ], [ 73.217540254251517, 18.541097519006367 ], [ 73.217467528015305, 18.541136003526702 ], [ 73.21740156701037, 18.541248249994826 ], [ 73.21738296262437, 18.541426240671665 ], [ 73.217354210391434, 18.541459914562633 ], [ 73.217350827775803, 18.5415016060375 ], [ 73.217367740853987, 18.541540090466793 ], [ 73.21738296262437, 18.541564143230708 ], [ 73.217369432161803, 18.541875225338835 ], [ 73.217369432161803, 18.541878432367923 ] ] ] } },
{ "type": "Feature", "properties": { "fid": 4, "NAME OF WATER BODY": "B", "LOCATION": null, "IMAGES": null }, "geometry": { "type": "Polygon", "coordinates": [ [ [ 73.220019605807366, 18.540563846053256 ], [ 73.220024468317334, 18.540564848257546 ], [ 73.220029119413823, 18.540564848257546 ], [ 73.220033347683398, 18.540563645612398 ], [ 73.220038421606844, 18.540560037676901 ], [ 73.220039478674209, 18.540557231504781 ], [ 73.220042015635968, 18.54055101783781 ], [ 73.220041381395518, 18.540544403288841 ], [ 73.220039267260745, 18.540539993589395 ], [ 73.220035884645114, 18.540535984771605 ], [ 73.22003229061599, 18.540533579480901 ], [ 73.220028062346429, 18.540531775512836 ], [ 73.220024679730813, 18.540531775512836 ], [ 73.220017491672579, 18.540532978158208 ], [ 73.220012840576075, 18.540534581685364 ], [ 73.220009880787373, 18.540538189621394 ], [ 73.22000649817177, 18.540544002407085 ], [ 73.220005229690884, 18.540548412106432 ], [ 73.220004806863926, 18.540553623569146 ], [ 73.220006709585235, 18.540557632386523 ], [ 73.220010937854767, 18.54056124032207 ], [ 73.220015588951284, 18.540563645612398 ], [ 73.220017914499522, 18.540564046494111 ], [ 73.220019605807366, 18.540563846053256 ] ] ] } },
{ "type": "Feature", "properties": { "fid": 5, "NAME OF WATER BODY": "C", "LOCATION": null, "IMAGES": null }, "geometry": { "type": "Polygon", "coordinates": [ [ [ 73.221130583630867, 18.541289039541255 ], [ 73.221141154304746, 18.541289440421263 ], [ 73.221145805401264, 18.541288638661236 ], [ 73.221152147805583, 18.541284629861011 ], [ 73.22115975869076, 18.541279418420594 ], [ 73.221161872825519, 18.541270198179461 ], [ 73.221163986960292, 18.54125737001706 ], [ 73.221157644555987, 18.541243339213331 ], [ 73.221151724978625, 18.541236123370958 ], [ 73.221139885823888, 18.541235722490811 ], [ 73.22112973797698, 18.541233718090098 ], [ 73.221122127091789, 18.541235722490811 ], [ 73.221114516206612, 18.541242938333198 ], [ 73.221109865110108, 18.541252559455909 ], [ 73.221109865110108, 18.541263784098383 ], [ 73.221109865110108, 18.541273004339864 ], [ 73.221115361860498, 18.541281823700814 ], [ 73.221125932534378, 18.541287836901194 ], [ 73.221132274938711, 18.541289841301278 ], [ 73.221130583630867, 18.541289039541255 ] ] ] } },
{ "type": "Feature", "properties": { "fid": 6, "NAME OF WATER BODY": "D", "LOCATION": null, "IMAGES": null }, "geometry": { "type": "Polygon", "coordinates": [ [ [ 73.221313879115741, 18.540410308286386 ], [ 73.221315147596599, 18.540415519753317 ], [ 73.221316838904428, 18.540419929455982 ], [ 73.221323604135705, 18.540424740040578 ], [ 73.221335020463485, 18.540426744450784 ], [ 73.221347705272137, 18.540424339158541 ], [ 73.221355316157315, 18.540417925045695 ], [ 73.221358275945988, 18.540408704758061 ], [ 73.221358275945988, 18.540399885352041 ], [ 73.221354047676428, 18.540390665063438 ], [ 73.221349819406896, 18.54038465183147 ], [ 73.221339671559988, 18.54038264742076 ], [ 73.221328678059152, 18.540384250949334 ], [ 73.221321067173974, 18.540386255360016 ], [ 73.221316838904428, 18.540390665063438 ], [ 73.221312610634868, 18.540398682705728 ], [ 73.221312610634868, 18.540404695937198 ], [ 73.221312610634868, 18.540408303875985 ], [ 73.221313879115741, 18.540410308286386 ] ] ] } },
{ "type": "Feature", "properties": { "fid": 7, "NAME OF WATER BODY": "E", "LOCATION": null, "IMAGES": null }, "geometry": { "type": "Polygon", "coordinates": [ [ [ 73.221381531428506, 18.539251755152836 ], [ 73.22156799811556, 18.539276209123678 ], [ 73.221614509080581, 18.539007616137358 ], [ 73.221433539143945, 18.538995589575862 ], [ 73.221381531428506, 18.539251755152836 ] ] ] } },
{ "type": "Feature", "properties": { "fid": 8, "NAME OF WATER BODY": "F", "LOCATION": null, "IMAGES": null }, "geometry": { "type": "Polygon", "coordinates": [ [ [ 73.220678264495959, 18.540180502480638 ], [ 73.22070204851218, 18.540188119250196 ], [ 73.220712407772538, 18.54016186143792 ], [ 73.220687778102445, 18.54015504643256 ], [ 73.220678264495959, 18.540180502480638 ] ] ] } },
{ "type": "Feature", "properties": { "fid": 9, "NAME OF WATER BODY": "G", "LOCATION": null, "IMAGES": null }, "geometry": { "type": "Polygon", "coordinates": [ [ [ 73.220213789086131, 18.539182001184017 ], [ 73.220218863009578, 18.539190018883033 ], [ 73.220224782586953, 18.539193225962531 ], [ 73.220229433683457, 18.539194829502257 ], [ 73.220237890222535, 18.539194829502257 ], [ 73.220245501107712, 18.539192023307727 ], [ 73.220249306550315, 18.539186410918518 ], [ 73.220250892151412, 18.53918250229022 ], [ 73.220251949218792, 18.539177591449391 ], [ 73.220251420685088, 18.539173081493423 ], [ 73.220249940790737, 18.539168471316078 ], [ 73.220247509535753, 18.539164061581101 ], [ 73.220244126920122, 18.53916135560732 ], [ 73.220239475823618, 18.539159451403517 ], [ 73.220232076351905, 18.539157948084721 ], [ 73.220227002428459, 18.539159150739764 ], [ 73.220222457038702, 18.539160253173549 ], [ 73.220217805942198, 18.539165063793615 ], [ 73.220214951860257, 18.539168972422313 ], [ 73.220213789086131, 18.539172780829684 ], [ 73.220212626311991, 18.53917648901573 ], [ 73.220213789086131, 18.539182201626499 ], [ 73.220213789086131, 18.539182001184017 ] ] ] } },
{ "type": "Feature", "properties": { "fid": 10, "NAME OF WATER BODY": "G", "LOCATION": null, "IMAGES": null }, "geometry": { "type": "Polygon", "coordinates": [ [ [ 73.224093120689076, 18.535224920142525 ], [ 73.22419798177387, 18.535177213720825 ], [ 73.224097771785594, 18.535038504217351 ], [ 73.224014052048545, 18.535089016939732 ], [ 73.224093120689076, 18.535224920142525 ] ] ] } },
{ "type": "Feature", "properties": { "fid": 11, "NAME OF WATER BODY": "H", "LOCATION": null, "IMAGES": null }, "geometry": { "type": "Polygon", "coordinates": [ [ [ 73.224130752288062, 18.535274631021558 ], [ 73.22425337210494, 18.535210487949126 ], [ 73.224306648301237, 18.535282648903927 ], [ 73.224178531733955, 18.53534478747947 ], [ 73.224130752288062, 18.535274631021558 ] ] ] } },
{ "type": "Feature", "properties": { "fid": 12, "NAME OF WATER BODY": "I", "LOCATION": null, "IMAGES": null }, "geometry": { "type": "Polygon", "coordinates": [ [ [ 73.225243632832971, 18.53419461882941 ], [ 73.225277458989353, 18.534128069970723 ], [ 73.225355259149026, 18.534118448446833 ], [ 73.225402615767962, 18.534032656501601 ], [ 73.225512550776202, 18.534030251119336 ], [ 73.225490563774542, 18.533915594525546 ], [ 73.225393313574941, 18.533802541445169 ], [ 73.225349339571665, 18.533780892974438 ], [ 73.225276613335438, 18.533779289383901 ], [ 73.225206424060957, 18.53381216298683 ], [ 73.225031373701654, 18.534041476236272 ], [ 73.225243632832971, 18.53419461882941 ] ] ] } },
{ "type": "Feature", "properties": { "fid": 13, "NAME OF WATER BODY": "J", "LOCATION": null, "IMAGES": null }, "geometry": { "type": "Polygon", "coordinates": [ [ [ 73.226090132396408, 18.534144907636204 ], [ 73.226089075329028, 18.534152524674809 ], [ 73.226091189463801, 18.534162747541878 ], [ 73.226095206319869, 18.53417036457969 ], [ 73.226101971551131, 18.534175977133646 ], [ 73.226110428090223, 18.534180988342388 ], [ 73.226125649860592, 18.534181389239077 ], [ 73.226136009120978, 18.534181188790729 ], [ 73.226145099900506, 18.534176177582001 ], [ 73.226152499372219, 18.534171166373124 ], [ 73.226155881987879, 18.534166956957549 ], [ 73.226158207536116, 18.534161544851667 ], [ 73.22616011025741, 18.534154128261839 ], [ 73.22615926460351, 18.534142903152301 ], [ 73.22615503633395, 18.534134283871271 ], [ 73.226149116756602, 18.534125865038209 ], [ 73.226140871630975, 18.534119651137342 ], [ 73.226131780851446, 18.534117045307891 ], [ 73.226121633004524, 18.534115642168935 ], [ 73.226108736782422, 18.534116644411046 ], [ 73.2260985889355, 18.534122657863598 ], [ 73.226092246531181, 18.53413007445479 ], [ 73.226089498155957, 18.534138693736036 ], [ 73.226089075329028, 18.534144707187814 ], [ 73.226090132396408, 18.534144907636204 ] ] ] } },
{ "type": "Feature", "properties": { "fid": 14, "NAME OF WATER BODY": "K", "LOCATION": null, "IMAGES": null }, "geometry": { "type": "Polygon", "coordinates": [ [ [ 73.223142605694619, 18.536137353006158 ], [ 73.22314429700242, 18.536144168171781 ], [ 73.223152119301105, 18.536150983337137 ], [ 73.223163112801927, 18.536156395380011 ], [ 73.223174317716229, 18.536154390919709 ], [ 73.223184888390065, 18.536148778430722 ], [ 73.223191230794413, 18.536142564603423 ], [ 73.223193556342665, 18.536134747207459 ], [ 73.22319165362137, 18.536125125796556 ], [ 73.22318805959226, 18.536119713752694 ], [ 73.223180660120534, 18.536114101262569 ], [ 73.223171569341005, 18.536110894125279 ], [ 73.223161210080633, 18.536110894125279 ], [ 73.223151907887626, 18.536114101262569 ], [ 73.223145565483307, 18.536120715983049 ], [ 73.223143451348534, 18.53612692981115 ], [ 73.223142182867662, 18.536135348545628 ], [ 73.223142605694619, 18.536137353006158 ] ] ] } },
{ "type": "Feature", "properties": { "fid": 15, "NAME OF WATER BODY": "L", "LOCATION": null, "IMAGES": null }, "geometry": { "type": "Polygon", "coordinates": [ [ [ 73.221827613865202, 18.541372723224015 ], [ 73.221828036692159, 18.541334639636915 ], [ 73.221853829136407, 18.541334238757003 ], [ 73.221852983482492, 18.541372723224015 ], [ 73.221827613865202, 18.541372723224015 ] ] ] } },
{ "type": "Feature", "properties": { "fid": 16, "NAME OF WATER BODY": "BHIDE VADA WELL", "LOCATION": null, "IMAGES": null }, "geometry": { "type": "Polygon", "coordinates": [ [ [ 73.222214077701892, 18.53866235326414 ], [ 73.22221534618275, 18.538667163898229 ], [ 73.222217037490566, 18.538669569215216 ], [ 73.222219151625339, 18.538671573646013 ], [ 73.222225071202715, 18.538672776304487 ], [ 73.222230567953119, 18.538672776304487 ], [ 73.222233527741807, 18.538671974532178 ], [ 73.222238601665254, 18.538667564784397 ], [ 73.22223987014614, 18.538663155036495 ], [ 73.222241138626984, 18.53865914617467 ], [ 73.222241138626984, 18.538653132881766 ], [ 73.22223987014614, 18.53864832224728 ], [ 73.222235641876566, 18.538643912498895 ], [ 73.222228030991374, 18.538642308953996 ], [ 73.222219151625339, 18.538642308953996 ], [ 73.222215346182765, 18.538646718702424 ], [ 73.222214394822103, 18.538650326678333 ], [ 73.222213866288428, 18.538653433546415 ], [ 73.22221344346147, 18.538656039306694 ], [ 73.222212914927766, 18.538658745288487 ], [ 73.22221344346147, 18.538661651713323 ], [ 73.222214077701892, 18.53866235326414 ] ] ] } },
{ "type": "Feature", "properties": { "fid": 17, "NAME OF WATER BODY": "L", "LOCATION": null, "IMAGES": null }, "geometry": { "type": "Polygon", "coordinates": [ [ [ 73.219741438523798, 18.538055861509012 ], [ 73.21975158637072, 18.538055861509012 ], [ 73.219761734217641, 18.538052654408158 ], [ 73.219776110334109, 18.538039826004155 ], [ 73.219779915776712, 18.538019380733289 ], [ 73.219773996199336, 18.538005349663628 ], [ 73.219766385314131, 18.53799492658257 ], [ 73.219752432024634, 18.537988913266275 ], [ 73.219738055908181, 18.537990115929553 ], [ 73.219725793926472, 18.537994124807074 ], [ 73.219713531944805, 18.538001340786376 ], [ 73.2197059210596, 18.538017376294839 ], [ 73.219707189540458, 18.538024993160835 ], [ 73.219707189540458, 18.538036218015357 ], [ 73.219713109117848, 18.53804744286915 ], [ 73.219724525445628, 18.538053055295769 ], [ 73.21973382763862, 18.538055861509012 ], [ 73.219741438523798, 18.538055861509012 ] ] ] } },
{ "type": "Feature", "properties": { "fid": 18, "NAME OF WATER BODY": "M", "LOCATION": null, "IMAGES": null }, "geometry": { "type": "Polygon", "coordinates": [ [ [ 73.223069086658114, 18.536789051989089 ], [ 73.223068452417692, 18.53678877637682 ], [ 73.22306781817727, 18.536788500764544 ], [ 73.223067421777003, 18.536787999651331 ], [ 73.223066681829835, 18.536787323148481 ], [ 73.223064964095329, 18.53678341446529 ], [ 73.223064541268386, 18.536774193981525 ], [ 73.223067923884017, 18.536760964590897 ], [ 73.223074689115307, 18.536754550340529 ], [ 73.223086951096988, 18.536748937871256 ], [ 73.223099213078669, 18.536748536980586 ], [ 73.223110629406463, 18.536753347668554 ], [ 73.223116548983825, 18.536762167262811 ], [ 73.223119085945569, 18.536771788637846 ], [ 73.223120354426413, 18.536782211793529 ], [ 73.223115280502952, 18.536790630495723 ], [ 73.223111052233421, 18.536793035839136 ], [ 73.223103441348229, 18.536798648306956 ], [ 73.223095830463038, 18.536799450088058 ], [ 73.223086105443073, 18.536799850978607 ], [ 73.223078071730939, 18.536799049197501 ], [ 73.223071729326605, 18.536795842073069 ], [ 73.223067923884017, 18.536791031386297 ], [ 73.223067501057059, 18.536789427824012 ], [ 73.223069086658114, 18.536789051989089 ] ] ] } },
{ "type": "Feature", "properties": { "fid": 19, "NAME OF WATER BODY": "N", "LOCATION": null, "IMAGES": null }, "geometry": { "type": "Polygon", "coordinates": [ [ [ 73.219679600081832, 18.540375556817896 ], [ 73.219677485947045, 18.540381970932327 ], [ 73.219678754427903, 18.540387182400131 ], [ 73.219681291389648, 18.540391992985647 ], [ 73.219685942486151, 18.540396402688927 ], [ 73.219691016409598, 18.540400010627877 ], [ 73.219697358813931, 18.540401614156277 ], [ 73.21970835231474, 18.540401614156277 ], [ 73.219715117546031, 18.540399208863672 ], [ 73.219720614296449, 18.540395200042592 ], [ 73.219724419739023, 18.540389186810781 ], [ 73.219724419739023, 18.540382371814477 ], [ 73.219723996912066, 18.540376759464376 ], [ 73.219723151258165, 18.540371547996262 ], [ 73.219719345815577, 18.540366737410164 ], [ 73.219714694719073, 18.540363530352689 ], [ 73.219707929487811, 18.540361125059544 ], [ 73.219700318602591, 18.540360724177354 ], [ 73.219694399025258, 18.540360724177354 ], [ 73.219681714216605, 18.540367539174518 ], [ 73.219678754427903, 18.540375556817896 ], [ 73.219679600081832, 18.540375556817896 ] ] ] } },
{ "type": "Feature", "properties": { "fid": 20, "NAME OF WATER BODY": "O", "LOCATION": null, "IMAGES": null }, "geometry": { "type": "Polygon", "coordinates": [ [ [ 73.222067303895656, 18.537094304833399 ], [ 73.222065084054123, 18.537094405055868 ], [ 73.222062124265463, 18.537093803721074 ], [ 73.222058318822874, 18.537092200161627 ], [ 73.222054513380286, 18.537089794822432 ], [ 73.222052082125288, 18.537087489705666 ], [ 73.222049756577036, 18.537083681251815 ], [ 73.222049016629853, 18.537081075467558 ], [ 73.222049016629853, 18.537078770350675 ], [ 73.222049862283782, 18.537076164566336 ], [ 73.222051553591612, 18.537072957447101 ], [ 73.222054407673582, 18.537067946323162 ], [ 73.22205673322182, 18.53706734498828 ], [ 73.222061384318309, 18.537065540983626 ], [ 73.222067938136135, 18.537064939648733 ], [ 73.222072589232639, 18.537065140093695 ], [ 73.222078085983043, 18.537067144543318 ], [ 73.222080622944787, 18.537070952997531 ], [ 73.222082948493025, 18.537074761451674 ], [ 73.22208379414694, 18.537080173465295 ], [ 73.222083582733461, 18.537082378359688 ], [ 73.222082314252589, 18.537085986368616 ], [ 73.222080622944787, 18.537088391707872 ], [ 73.222079565877365, 18.537090797047085 ], [ 73.222077240329128, 18.53709380372106 ], [ 73.222073434886539, 18.53709500639064 ], [ 73.222070263684373, 18.537095407280503 ], [ 73.222066246828305, 18.537095206835566 ], [ 73.222067303895656, 18.537094304833399 ] ] ] } },
{ "type": "Feature", "properties": { "fid": 21, "NAME OF WATER BODY": "P", "LOCATION": null, "IMAGES": null }, "geometry": { "type": "Polygon", "coordinates": [ [ [ 73.222675487616826, 18.540857341328913 ], [ 73.222678658819007, 18.540857441549171 ], [ 73.222681724314441, 18.540858944853014 ], [ 73.22268637541093, 18.540862552782212 ], [ 73.222689863733308, 18.5408674635746 ], [ 73.222692083574813, 18.540873577009815 ], [ 73.222692717815264, 18.540877184938694 ], [ 73.222691343627645, 18.54088249661163 ], [ 73.222688489545703, 18.540887307183205 ], [ 73.222684895516593, 18.540891416212979 ], [ 73.222678658819007, 18.540892418415346 ], [ 73.222672527828166, 18.540892518635587 ], [ 73.222664916942989, 18.540889411808227 ], [ 73.2226598430195, 18.540884701456957 ], [ 73.222658046004966, 18.540878888682858 ], [ 73.222657728884755, 18.54087297568833 ], [ 73.222657728884755, 18.540867664015096 ], [ 73.222661322913865, 18.540862151901191 ], [ 73.222665022649693, 18.540859947055583 ], [ 73.222669145212521, 18.540857942650455 ], [ 73.222674536256207, 18.540856940447888 ], [ 73.222677813165106, 18.540856940447888 ], [ 73.222678341698781, 18.540856940447888 ], [ 73.222675487616826, 18.540857341328913 ] ] ] } }
]
}
